{
"type": "FeatureCollection",
"name": "thermal_patches",
"crs": { "type": "name", "properties": { "name": "urn:ogc:def:crs:EPSG::32614" } },
"features": [
{ "type": "Feature", "properties": { "label": 50, "area_m2": 2795.0, "canopy_m2": 1841.8, "mean_c": 34.5, "peak_c": 35.65, "above_c": 3.49, "z": 9.86, "where": "north-east corner", "compact": 0.57, "problem_share": null, "n_units": 0, "ground": null, "chance": 0.85, "signs": [ "runs 3.5 C above the rest of the canopy - a degree or two is ordinary variation; three is a plant that has stopped drinking", "covers 2795 m2 - large enough to be worth walking out to", "is a blob rather than a streak along the rows - water problems follow the rows and the slope; an infestation spreads outwards", "is hot while the field still has water - a thirsty field runs hot all over, not in patches" ] }, "geometry": { "type": "Polygon", "coordinates": [ [ [ 621949.709496488329023, 2915634.201155537273735 ], [ 621949.709496488329023, 2915633.951155537273735 ], [ 621948.709496488329023, 2915633.951155537273735 ], [ 621948.709496488329023, 2915633.701155537273735 ], [ 621948.459496488329023, 2915633.701155537273735 ], [ 621948.459496488329023, 2915633.951155537273735 ], [ 621947.959496488329023, 2915633.951155537273735 ], [ 621947.959496488329023, 2915633.701155537273735 ], [ 621947.709496488329023, 2915633.701155537273735 ], [ 621947.709496488329023, 2915633.951155537273735 ], [ 621947.209496488329023, 2915633.951155537273735 ], [ 621947.209496488329023, 2915633.701155537273735 ], [ 621945.709496488329023, 2915633.701155537273735 ], [ 621945.709496488329023, 2915633.451155537273735 ], [ 621944.459496488329023, 2915633.451155537273735 ], [ 621944.459496488329023, 2915633.201155537273735 ], [ 621943.459496488329023, 2915633.201155537273735 ], [ 621943.459496488329023, 2915632.951155537273735 ], [ 621942.709496488329023, 2915632.951155537273735 ], [ 621942.709496488329023, 2915632.701155537273735 ], [ 621941.959496488329023, 2915632.701155537273735 ], [ 621941.959496488329023, 2915632.451155537273735 ], [ 621941.209496488329023, 2915632.451155537273735 ], [ 621941.209496488329023, 2915632.201155537273735 ], [ 621940.459496488329023, 2915632.201155537273735 ], [ 621940.459496488329023, 2915631.951155537273735 ], [ 621939.709496488329023, 2915631.951155537273735 ], [ 621939.709496488329023, 2915631.701155537273735 ], [ 621939.209496488329023, 2915631.701155537273735 ], [ 621939.209496488329023, 2915631.451155537273735 ], [ 621938.709496488329023, 2915631.451155537273735 ], [ 621938.709496488329023, 2915631.201155537273735 ], [ 621938.209496488329023, 2915631.201155537273735 ], [ 621938.209496488329023, 2915630.951155537273735 ], [ 621937.709496488329023, 2915630.951155537273735 ], [ 621937.709496488329023, 2915630.701155537273735 ], [ 621937.209496488329023, 2915630.701155537273735 ], [ 621937.209496488329023, 2915630.451155537273735 ], [ 621936.709496488329023, 2915630.451155537273735 ], [ 621936.709496488329023, 2915630.201155537273735 ], [ 621936.459496488329023, 2915630.201155537273735 ], [ 621936.459496488329023, 2915629.951155537273735 ], [ 621935.959496488329023, 2915629.951155537273735 ], [ 621935.959496488329023, 2915629.701155537273735 ], [ 621935.709496488329023, 2915629.701155537273735 ], [ 621935.709496488329023, 2915629.451155537273735 ], [ 621935.209496488329023, 2915629.451155537273735 ], [ 621935.209496488329023, 2915629.201155537273735 ], [ 621934.959496488329023, 2915629.201155537273735 ], [ 621934.959496488329023, 2915628.951155537273735 ], [ 621934.459496488329023, 2915628.951155537273735 ], [ 621934.459496488329023, 2915628.701155537273735 ], [ 621934.209496488329023, 2915628.701155537273735 ], [ 621934.209496488329023, 2915628.451155537273735 ], [ 621933.709496488329023, 2915628.451155537273735 ], [ 621933.709496488329023, 2915628.201155537273735 ], [ 621933.459496488329023, 2915628.201155537273735 ], [ 621933.459496488329023, 2915627.951155537273735 ], [ 621932.959496488329023, 2915627.951155537273735 ], [ 621932.959496488329023, 2915627.701155537273735 ], [ 621932.709496488329023, 2915627.701155537273735 ], [ 621932.709496488329023, 2915627.451155537273735 ], [ 621932.459496488329023, 2915627.451155537273735 ], [ 621932.459496488329023, 2915627.201155537273735 ], [ 621931.959496488329023, 2915627.201155537273735 ], [ 621931.959496488329023, 2915626.951155537273735 ], [ 621931.709496488329023, 2915626.951155537273735 ], [ 621931.709496488329023, 2915626.701155537273735 ], [ 621931.459496488329023, 2915626.701155537273735 ], [ 621931.459496488329023, 2915626.451155537273735 ], [ 621931.209496488329023, 2915626.451155537273735 ], [ 621931.209496488329023, 2915626.201155537273735 ], [ 621930.959496488329023, 2915626.201155537273735 ], [ 621930.959496488329023, 2915625.951155537273735 ], [ 621930.709496488329023, 2915625.951155537273735 ], [ 621930.709496488329023, 2915625.701155537273735 ], [ 621930.459496488329023, 2915625.701155537273735 ], [ 621930.459496488329023, 2915625.451155537273735 ], [ 621930.209496488329023, 2915625.451155537273735 ], [ 621930.209496488329023, 2915625.201155537273735 ], [ 621929.959496488329023, 2915625.201155537273735 ], [ 621929.959496488329023, 2915624.951155537273735 ], [ 621929.709496488329023, 2915624.951155537273735 ], [ 621929.709496488329023, 2915624.701155537273735 ], [ 621929.459496488329023, 2915624.701155537273735 ], [ 621929.459496488329023, 2915624.451155537273735 ], [ 621929.209496488329023, 2915624.451155537273735 ], [ 621929.209496488329023, 2915624.201155537273735 ], [ 621928.959496488329023, 2915624.201155537273735 ], [ 621928.959496488329023, 2915623.951155537273735 ], [ 621928.709496488329023, 2915623.951155537273735 ], [ 621928.709496488329023, 2915623.701155537273735 ], [ 621928.459496488329023, 2915623.701155537273735 ], [ 621928.459496488329023, 2915623.201155537273735 ], [ 621928.209496488329023, 2915623.201155537273735 ], [ 621928.209496488329023, 2915622.951155537273735 ], [ 621927.959496488329023, 2915622.951155537273735 ], [ 621927.959496488329023, 2915622.701155537273735 ], [ 621927.709496488329023, 2915622.701155537273735 ], [ 621927.709496488329023, 2915622.451155537273735 ], [ 621927.459496488329023, 2915622.451155537273735 ], [ 621927.459496488329023, 2915621.951155537273735 ], [ 621927.209496488329023, 2915621.951155537273735 ], [ 621927.209496488329023, 2915621.701155537273735 ], [ 621926.959496488329023, 2915621.701155537273735 ], [ 621926.959496488329023, 2915621.451155537273735 ], [ 621926.709496488329023, 2915621.451155537273735 ], [ 621926.709496488329023, 2915620.951155537273735 ], [ 621926.459496488329023, 2915620.951155537273735 ], [ 621926.459496488329023, 2915620.701155537273735 ], [ 621926.209496488329023, 2915620.701155537273735 ], [ 621926.209496488329023, 2915620.201155537273735 ], [ 621925.959496488329023, 2915620.201155537273735 ], [ 621925.959496488329023, 2915619.701155537273735 ], [ 621925.709496488329023, 2915619.701155537273735 ], [ 621925.709496488329023, 2915619.451155537273735 ], [ 621925.459496488329023, 2915619.451155537273735 ], [ 621925.459496488329023, 2915618.951155537273735 ], [ 621925.209496488329023, 2915618.951155537273735 ], [ 621925.209496488329023, 2915618.451155537273735 ], [ 621924.959496488329023, 2915618.451155537273735 ], [ 621924.959496488329023, 2915617.951155537273735 ], [ 621924.709496488329023, 2915617.951155537273735 ], [ 621924.709496488329023, 2915617.451155537273735 ], [ 621924.459496488329023, 2915617.451155537273735 ], [ 621924.459496488329023, 2915616.951155537273735 ], [ 621924.209496488329023, 2915616.951155537273735 ], [ 621924.209496488329023, 2915616.451155537273735 ], [ 621923.959496488329023, 2915616.451155537273735 ], [ 621923.959496488329023, 2915615.951155537273735 ], [ 621923.709496488329023, 2915615.951155537273735 ], [ 621923.709496488329023, 2915615.201155537273735 ], [ 621923.459496488329023, 2915615.201155537273735 ], [ 621923.459496488329023, 2915614.701155537273735 ], [ 621923.209496488329023, 2915614.701155537273735 ], [ 621923.209496488329023, 2915613.951155537273735 ], [ 621922.959496488329023, 2915613.951155537273735 ], [ 621922.959496488329023, 2915612.951155537273735 ], [ 621922.709496488329023, 2915612.951155537273735 ], [ 621922.709496488329023, 2915612.451155537273735 ], [ 621922.459496488329023, 2915612.451155537273735 ], [ 621922.459496488329023, 2915611.451155537273735 ], [ 621922.209496488329023, 2915611.451155537273735 ], [ 621922.209496488329023, 2915609.951155537273735 ], [ 621921.959496488329023, 2915609.951155537273735 ], [ 621921.959496488329023, 2915608.951155537273735 ], [ 621921.709496488329023, 2915608.951155537273735 ], [ 621921.709496488329023, 2915606.951155537273735 ], [ 621921.459496488329023, 2915606.951155537273735 ], [ 621921.459496488329023, 2915601.701155537273735 ], [ 621921.709496488329023, 2915601.701155537273735 ], [ 621921.709496488329023, 2915599.701155537273735 ], [ 621921.959496488329023, 2915599.701155537273735 ], [ 621921.959496488329023, 2915598.701155537273735 ], [ 621922.209496488329023, 2915598.701155537273735 ], [ 621922.209496488329023, 2915597.201155537273735 ], [ 621922.459496488329023, 2915597.201155537273735 ], [ 621922.459496488329023, 2915596.201155537273735 ], [ 621922.709496488329023, 2915596.201155537273735 ], [ 621922.709496488329023, 2915595.701155537273735 ], [ 621922.959496488329023, 2915595.701155537273735 ], [ 621922.959496488329023, 2915594.701155537273735 ], [ 621923.209496488329023, 2915594.701155537273735 ], [ 621923.209496488329023, 2915593.951155537273735 ], [ 621923.459496488329023, 2915593.951155537273735 ], [ 621923.459496488329023, 2915593.451155537273735 ], [ 621923.709496488329023, 2915593.451155537273735 ], [ 621923.709496488329023, 2915592.701155537273735 ], [ 621923.959496488329023, 2915592.701155537273735 ], [ 621923.959496488329023, 2915591.951155537273735 ], [ 621924.209496488329023, 2915591.951155537273735 ], [ 621924.209496488329023, 2915591.451155537273735 ], [ 621924.459496488329023, 2915591.451155537273735 ], [ 621924.459496488329023, 2915590.951155537273735 ], [ 621924.709496488329023, 2915590.951155537273735 ], [ 621924.709496488329023, 2915590.451155537273735 ], [ 621924.959496488329023, 2915590.451155537273735 ], [ 621924.959496488329023, 2915590.201155537273735 ], [ 621925.209496488329023, 2915590.201155537273735 ], [ 621925.209496488329023, 2915589.701155537273735 ], [ 621925.459496488329023, 2915589.701155537273735 ], [ 621925.459496488329023, 2915589.201155537273735 ], [ 621925.709496488329023, 2915589.201155537273735 ], [ 621925.709496488329023, 2915588.951155537273735 ], [ 621925.959496488329023, 2915588.951155537273735 ], [ 621925.959496488329023, 2915588.451155537273735 ], [ 621926.209496488329023, 2915588.451155537273735 ], [ 621926.209496488329023, 2915587.951155537273735 ], [ 621926.459496488329023, 2915587.951155537273735 ], [ 621926.459496488329023, 2915587.701155537273735 ], [ 621926.709496488329023, 2915587.701155537273735 ], [ 621926.709496488329023, 2915587.201155537273735 ], [ 621926.959496488329023, 2915587.201155537273735 ], [ 621926.959496488329023, 2915586.951155537273735 ], [ 621927.209496488329023, 2915586.951155537273735 ], [ 621927.209496488329023, 2915586.701155537273735 ], [ 621927.459496488329023, 2915586.701155537273735 ], [ 621927.459496488329023, 2915586.201155537273735 ], [ 621927.709496488329023, 2915586.201155537273735 ], [ 621927.709496488329023, 2915585.951155537273735 ], [ 621927.959496488329023, 2915585.951155537273735 ], [ 621927.959496488329023, 2915585.701155537273735 ], [ 621928.209496488329023, 2915585.701155537273735 ], [ 621928.209496488329023, 2915585.201155537273735 ], [ 621928.459496488329023, 2915585.201155537273735 ], [ 621928.459496488329023, 2915584.951155537273735 ], [ 621928.709496488329023, 2915584.951155537273735 ], [ 621928.709496488329023, 2915584.701155537273735 ], [ 621928.959496488329023, 2915584.701155537273735 ], [ 621928.959496488329023, 2915584.451155537273735 ], [ 621929.209496488329023, 2915584.451155537273735 ], [ 621929.209496488329023, 2915584.201155537273735 ], [ 621929.459496488329023, 2915584.201155537273735 ], [ 621929.459496488329023, 2915583.951155537273735 ], [ 621929.709496488329023, 2915583.951155537273735 ], [ 621929.709496488329023, 2915583.451155537273735 ], [ 621929.959496488329023, 2915583.451155537273735 ], [ 621929.959496488329023, 2915583.201155537273735 ], [ 621930.209496488329023, 2915583.201155537273735 ], [ 621930.209496488329023, 2915582.951155537273735 ], [ 621930.459496488329023, 2915582.951155537273735 ], [ 621930.459496488329023, 2915582.701155537273735 ], [ 621930.709496488329023, 2915582.701155537273735 ], [ 621930.709496488329023, 2915582.451155537273735 ], [ 621931.209496488329023, 2915582.451155537273735 ], [ 621931.209496488329023, 2915582.201155537273735 ], [ 621931.459496488329023, 2915582.201155537273735 ], [ 621931.459496488329023, 2915581.951155537273735 ], [ 621931.709496488329023, 2915581.951155537273735 ], [ 621931.709496488329023, 2915581.701155537273735 ], [ 621931.959496488329023, 2915581.701155537273735 ], [ 621931.959496488329023, 2915581.451155537273735 ], [ 621932.209496488329023, 2915581.451155537273735 ], [ 621932.209496488329023, 2915581.201155537273735 ], [ 621932.709496488329023, 2915581.201155537273735 ], [ 621932.709496488329023, 2915580.951155537273735 ], [ 621932.959496488329023, 2915580.951155537273735 ], [ 621932.959496488329023, 2915580.701155537273735 ], [ 621933.209496488329023, 2915580.701155537273735 ], [ 621933.209496488329023, 2915580.451155537273735 ], [ 621933.459496488329023, 2915580.451155537273735 ], [ 621933.459496488329023, 2915580.201155537273735 ], [ 621933.959496488329023, 2915580.201155537273735 ], [ 621933.959496488329023, 2915579.951155537273735 ], [ 621934.209496488329023, 2915579.951155537273735 ], [ 621934.209496488329023, 2915579.701155537273735 ], [ 621934.459496488329023, 2915579.701155537273735 ], [ 621934.459496488329023, 2915579.451155537273735 ], [ 621934.959496488329023, 2915579.451155537273735 ], [ 621934.959496488329023, 2915579.201155537273735 ], [ 621935.209496488329023, 2915579.201155537273735 ], [ 621935.209496488329023, 2915578.951155537273735 ], [ 621935.709496488329023, 2915578.951155537273735 ], [ 621935.709496488329023, 2915578.701155537273735 ], [ 621936.209496488329023, 2915578.701155537273735 ], [ 621936.209496488329023, 2915578.451155537273735 ], [ 621936.709496488329023, 2915578.451155537273735 ], [ 621936.709496488329023, 2915578.201155537273735 ], [ 621936.959496488329023, 2915578.201155537273735 ], [ 621936.959496488329023, 2915577.951155537273735 ], [ 621937.459496488329023, 2915577.951155537273735 ], [ 621937.459496488329023, 2915577.701155537273735 ], [ 621937.959496488329023, 2915577.701155537273735 ], [ 621937.959496488329023, 2915577.451155537273735 ], [ 621938.459496488329023, 2915577.451155537273735 ], [ 621938.459496488329023, 2915577.201155537273735 ], [ 621938.959496488329023, 2915577.201155537273735 ], [ 621938.959496488329023, 2915576.951155537273735 ], [ 621939.709496488329023, 2915576.951155537273735 ], [ 621939.709496488329023, 2915576.701155537273735 ], [ 621940.459496488329023, 2915576.701155537273735 ], [ 621940.459496488329023, 2915576.451155537273735 ], [ 621940.959496488329023, 2915576.451155537273735 ], [ 621940.959496488329023, 2915576.201155537273735 ], [ 621941.459496488329023, 2915576.201155537273735 ], [ 621941.459496488329023, 2915575.951155537273735 ], [ 621942.209496488329023, 2915575.951155537273735 ], [ 621942.209496488329023, 2915575.701155537273735 ], [ 621943.209496488329023, 2915575.701155537273735 ], [ 621943.209496488329023, 2915575.451155537273735 ], [ 621944.209496488329023, 2915575.451155537273735 ], [ 621944.209496488329023, 2915575.201155537273735 ], [ 621945.209496488329023, 2915575.201155537273735 ], [ 621945.209496488329023, 2915574.951155537273735 ], [ 621946.459496488329023, 2915574.951155537273735 ], [ 621946.459496488329023, 2915574.701155537273735 ], [ 621946.959496488329023, 2915574.701155537273735 ], [ 621946.959496488329023, 2915574.951155537273735 ], [ 621947.209496488329023, 2915574.951155537273735 ], [ 621947.209496488329023, 2915574.701155537273735 ], [ 621948.709496488329023, 2915574.701155537273735 ], [ 621948.709496488329023, 2915574.451155537273735 ], [ 621949.209496488329023, 2915574.451155537273735 ], [ 621949.209496488329023, 2915574.701155537273735 ], [ 621949.459496488329023, 2915574.701155537273735 ], [ 621949.459496488329023, 2915574.451155537273735 ], [ 621949.959496488329023, 2915574.451155537273735 ], [ 621949.959496488329023, 2915574.701155537273735 ], [ 621950.209496488329023, 2915574.701155537273735 ], [ 621950.209496488329023, 2915574.451155537273735 ], [ 621950.709496488329023, 2915574.451155537273735 ], [ 621950.709496488329023, 2915574.701155537273735 ], [ 621950.959496488329023, 2915574.701155537273735 ], [ 621950.959496488329023, 2915574.451155537273735 ], [ 621951.459496488329023, 2915574.451155537273735 ], [ 621951.459496488329023, 2915574.701155537273735 ], [ 621951.709496488329023, 2915574.701155537273735 ], [ 621951.709496488329023, 2915574.451155537273735 ], [ 621952.209496488329023, 2915574.451155537273735 ], [ 621952.209496488329023, 2915574.701155537273735 ], [ 621952.459496488329023, 2915574.701155537273735 ], [ 621952.459496488329023, 2915574.451155537273735 ], [ 621952.959496488329023, 2915574.451155537273735 ], [ 621952.959496488329023, 2915574.701155537273735 ], [ 621953.209496488329023, 2915574.701155537273735 ], [ 621953.209496488329023, 2915574.451155537273735 ], [ 621953.709496488329023, 2915574.451155537273735 ], [ 621953.709496488329023, 2915574.701155537273735 ], [ 621953.959496488329023, 2915574.701155537273735 ], [ 621953.959496488329023, 2915574.451155537273735 ], [ 621954.209496488329023, 2915574.451155537273735 ], [ 621954.209496488329023, 2915574.701155537273735 ], [ 621955.209496488329023, 2915574.701155537273735 ], [ 621955.209496488329023, 2915574.951155537273735 ], [ 621955.709496488329023, 2915574.951155537273735 ], [ 621955.709496488329023, 2915574.701155537273735 ], [ 621956.209496488329023, 2915574.701155537273735 ], [ 621956.209496488329023, 2915574.951155537273735 ], [ 621957.459496488329023, 2915574.951155537273735 ], [ 621957.459496488329023, 2915575.201155537273735 ], [ 621958.459496488329023, 2915575.201155537273735 ], [ 621958.459496488329023, 2915575.451155537273735 ], [ 621959.459496488329023, 2915575.451155537273735 ], [ 621959.459496488329023, 2915575.701155537273735 ], [ 621960.459496488329023, 2915575.701155537273735 ], [ 621960.459496488329023, 2915575.951155537273735 ], [ 621961.209496488329023, 2915575.951155537273735 ], [ 621961.209496488329023, 2915576.201155537273735 ], [ 621961.709496488329023, 2915576.201155537273735 ], [ 621961.709496488329023, 2915576.451155537273735 ], [ 621962.209496488329023, 2915576.451155537273735 ], [ 621962.209496488329023, 2915576.701155537273735 ], [ 621962.959496488329023, 2915576.701155537273735 ], [ 621962.959496488329023, 2915576.951155537273735 ], [ 621963.709496488329023, 2915576.951155537273735 ], [ 621963.709496488329023, 2915577.201155537273735 ], [ 621964.209496488329023, 2915577.201155537273735 ], [ 621964.209496488329023, 2915577.451155537273735 ], [ 621964.709496488329023, 2915577.451155537273735 ], [ 621964.709496488329023, 2915577.701155537273735 ], [ 621965.209496488329023, 2915577.701155537273735 ], [ 621965.209496488329023, 2915577.951155537273735 ], [ 621965.709496488329023, 2915577.951155537273735 ], [ 621965.709496488329023, 2915578.201155537273735 ], [ 621965.959496488329023, 2915578.201155537273735 ], [ 621965.959496488329023, 2915578.451155537273735 ], [ 621966.459496488329023, 2915578.451155537273735 ], [ 621966.459496488329023, 2915578.701155537273735 ], [ 621966.709496488329023, 2915578.701155537273735 ], [ 621966.709496488329023, 2915578.951155537273735 ], [ 621967.209496488329023, 2915578.951155537273735 ], [ 621967.209496488329023, 2915579.201155537273735 ], [ 621967.459496488329023, 2915579.201155537273735 ], [ 621967.459496488329023, 2915579.451155537273735 ], [ 621967.959496488329023, 2915579.451155537273735 ], [ 621967.959496488329023, 2915579.701155537273735 ], [ 621968.209496488329023, 2915579.701155537273735 ], [ 621968.209496488329023, 2915579.951155537273735 ], [ 621968.709496488329023, 2915579.951155537273735 ], [ 621968.709496488329023, 2915580.201155537273735 ], [ 621968.959496488329023, 2915580.201155537273735 ], [ 621968.959496488329023, 2915580.451155537273735 ], [ 621969.459496488329023, 2915580.451155537273735 ], [ 621969.459496488329023, 2915580.701155537273735 ], [ 621969.709496488329023, 2915580.701155537273735 ], [ 621969.709496488329023, 2915580.951155537273735 ], [ 621970.209496488329023, 2915580.951155537273735 ], [ 621970.209496488329023, 2915581.201155537273735 ], [ 621970.459496488329023, 2915581.201155537273735 ], [ 621970.459496488329023, 2915581.451155537273735 ], [ 621970.709496488329023, 2915581.451155537273735 ], [ 621970.709496488329023, 2915581.701155537273735 ], [ 621970.959496488329023, 2915581.701155537273735 ], [ 621970.959496488329023, 2915581.951155537273735 ], [ 621971.209496488329023, 2915581.951155537273735 ], [ 621971.209496488329023, 2915582.201155537273735 ], [ 621971.459496488329023, 2915582.201155537273735 ], [ 621971.459496488329023, 2915582.451155537273735 ], [ 621971.709496488329023, 2915582.451155537273735 ], [ 621971.709496488329023, 2915582.701155537273735 ], [ 621971.959496488329023, 2915582.701155537273735 ], [ 621971.959496488329023, 2915582.951155537273735 ], [ 621972.209496488329023, 2915582.951155537273735 ], [ 621972.209496488329023, 2915583.201155537273735 ], [ 621972.459496488329023, 2915583.201155537273735 ], [ 621972.459496488329023, 2915583.451155537273735 ], [ 621972.709496488329023, 2915583.451155537273735 ], [ 621972.709496488329023, 2915583.701155537273735 ], [ 621972.959496488329023, 2915583.701155537273735 ], [ 621972.959496488329023, 2915583.951155537273735 ], [ 621973.209496488329023, 2915583.951155537273735 ], [ 621973.209496488329023, 2915584.201155537273735 ], [ 621973.459496488329023, 2915584.201155537273735 ], [ 621973.459496488329023, 2915584.451155537273735 ], [ 621973.709496488329023, 2915584.451155537273735 ], [ 621973.709496488329023, 2915584.701155537273735 ], [ 621973.959496488329023, 2915584.701155537273735 ], [ 621973.959496488329023, 2915584.951155537273735 ], [ 621974.209496488329023, 2915584.951155537273735 ], [ 621974.209496488329023, 2915585.451155537273735 ], [ 621974.459496488329023, 2915585.451155537273735 ], [ 621974.459496488329023, 2915585.701155537273735 ], [ 621974.709496488329023, 2915585.701155537273735 ], [ 621974.709496488329023, 2915585.951155537273735 ], [ 621974.959496488329023, 2915585.951155537273735 ], [ 621974.959496488329023, 2915586.201155537273735 ], [ 621975.209496488329023, 2915586.201155537273735 ], [ 621975.209496488329023, 2915586.701155537273735 ], [ 621975.459496488329023, 2915586.701155537273735 ], [ 621975.459496488329023, 2915586.951155537273735 ], [ 621975.709496488329023, 2915586.951155537273735 ], [ 621975.709496488329023, 2915587.201155537273735 ], [ 621975.959496488329023, 2915587.201155537273735 ], [ 621975.959496488329023, 2915587.701155537273735 ], [ 621976.209496488329023, 2915587.701155537273735 ], [ 621976.209496488329023, 2915587.951155537273735 ], [ 621976.459496488329023, 2915587.951155537273735 ], [ 621976.459496488329023, 2915588.451155537273735 ], [ 621976.709496488329023, 2915588.451155537273735 ], [ 621976.709496488329023, 2915588.951155537273735 ], [ 621976.959496488329023, 2915588.951155537273735 ], [ 621976.959496488329023, 2915589.201155537273735 ], [ 621977.209496488329023, 2915589.201155537273735 ], [ 621977.209496488329023, 2915589.701155537273735 ], [ 621977.459496488329023, 2915589.701155537273735 ], [ 621977.459496488329023, 2915590.201155537273735 ], [ 621977.709496488329023, 2915590.201155537273735 ], [ 621977.709496488329023, 2915590.701155537273735 ], [ 621977.959496488329023, 2915590.701155537273735 ], [ 621977.959496488329023, 2915590.951155537273735 ], [ 621978.209496488329023, 2915590.951155537273735 ], [ 621978.209496488329023, 2915591.701155537273735 ], [ 621978.459496488329023, 2915591.701155537273735 ], [ 621978.459496488329023, 2915592.201155537273735 ], [ 621978.709496488329023, 2915592.201155537273735 ], [ 621978.709496488329023, 2915592.701155537273735 ], [ 621978.959496488329023, 2915592.701155537273735 ], [ 621978.959496488329023, 2915593.451155537273735 ], [ 621979.209496488329023, 2915593.451155537273735 ], [ 621979.209496488329023, 2915593.951155537273735 ], [ 621979.459496488329023, 2915593.951155537273735 ], [ 621979.459496488329023, 2915594.701155537273735 ], [ 621979.709496488329023, 2915594.701155537273735 ], [ 621979.709496488329023, 2915595.701155537273735 ], [ 621979.959496488329023, 2915595.701155537273735 ], [ 621979.959496488329023, 2915596.201155537273735 ], [ 621980.209496488329023, 2915596.201155537273735 ], [ 621980.209496488329023, 2915597.201155537273735 ], [ 621980.459496488329023, 2915597.201155537273735 ], [ 621980.459496488329023, 2915598.951155537273735 ], [ 621980.709496488329023, 2915598.951155537273735 ], [ 621980.709496488329023, 2915599.951155537273735 ], [ 621980.959496488329023, 2915599.951155537273735 ], [ 621980.959496488329023, 2915602.201155537273735 ], [ 621981.209496488329023, 2915602.201155537273735 ], [ 621981.209496488329023, 2915606.451155537273735 ], [ 621980.959496488329023, 2915606.451155537273735 ], [ 621980.959496488329023, 2915608.701155537273735 ], [ 621980.709496488329023, 2915608.701155537273735 ], [ 621980.709496488329023, 2915609.701155537273735 ], [ 621980.459496488329023, 2915609.701155537273735 ], [ 621980.459496488329023, 2915611.201155537273735 ], [ 621980.209496488329023, 2915611.201155537273735 ], [ 621980.209496488329023, 2915612.201155537273735 ], [ 621979.959496488329023, 2915612.201155537273735 ], [ 621979.959496488329023, 2915612.951155537273735 ], [ 621979.709496488329023, 2915612.951155537273735 ], [ 621979.709496488329023, 2915613.951155537273735 ], [ 621979.459496488329023, 2915613.951155537273735 ], [ 621979.459496488329023, 2915614.451155537273735 ], [ 621979.209496488329023, 2915614.451155537273735 ], [ 621979.209496488329023, 2915614.951155537273735 ], [ 621978.959496488329023, 2915614.951155537273735 ], [ 621978.959496488329023, 2915615.951155537273735 ], [ 621978.709496488329023, 2915615.951155537273735 ], [ 621978.709496488329023, 2915616.451155537273735 ], [ 621978.459496488329023, 2915616.451155537273735 ], [ 621978.459496488329023, 2915616.951155537273735 ], [ 621978.209496488329023, 2915616.951155537273735 ], [ 621978.209496488329023, 2915617.451155537273735 ], [ 621977.959496488329023, 2915617.451155537273735 ], [ 621977.959496488329023, 2915617.951155537273735 ], [ 621977.709496488329023, 2915617.951155537273735 ], [ 621977.709496488329023, 2915618.451155537273735 ], [ 621977.459496488329023, 2915618.451155537273735 ], [ 621977.459496488329023, 2915618.951155537273735 ], [ 621977.209496488329023, 2915618.951155537273735 ], [ 621977.209496488329023, 2915619.451155537273735 ], [ 621976.959496488329023, 2915619.451155537273735 ], [ 621976.959496488329023, 2915619.701155537273735 ], [ 621976.709496488329023, 2915619.701155537273735 ], [ 621976.709496488329023, 2915620.201155537273735 ], [ 621976.459496488329023, 2915620.201155537273735 ], [ 621976.459496488329023, 2915620.451155537273735 ], [ 621976.209496488329023, 2915620.451155537273735 ], [ 621976.209496488329023, 2915620.701155537273735 ], [ 621975.959496488329023, 2915620.701155537273735 ], [ 621975.959496488329023, 2915621.201155537273735 ], [ 621975.709496488329023, 2915621.201155537273735 ], [ 621975.709496488329023, 2915621.701155537273735 ], [ 621975.459496488329023, 2915621.701155537273735 ], [ 621975.459496488329023, 2915621.951155537273735 ], [ 621975.209496488329023, 2915621.951155537273735 ], [ 621975.209496488329023, 2915622.451155537273735 ], [ 621974.959496488329023, 2915622.451155537273735 ], [ 621974.959496488329023, 2915622.701155537273735 ], [ 621974.709496488329023, 2915622.701155537273735 ], [ 621974.709496488329023, 2915622.951155537273735 ], [ 621974.459496488329023, 2915622.951155537273735 ], [ 621974.459496488329023, 2915623.201155537273735 ], [ 621974.209496488329023, 2915623.201155537273735 ], [ 621974.209496488329023, 2915623.451155537273735 ], [ 621973.959496488329023, 2915623.451155537273735 ], [ 621973.959496488329023, 2915623.951155537273735 ], [ 621973.709496488329023, 2915623.951155537273735 ], [ 621973.709496488329023, 2915624.201155537273735 ], [ 621973.459496488329023, 2915624.201155537273735 ], [ 621973.459496488329023, 2915624.451155537273735 ], [ 621973.209496488329023, 2915624.451155537273735 ], [ 621973.209496488329023, 2915624.701155537273735 ], [ 621972.959496488329023, 2915624.701155537273735 ], [ 621972.959496488329023, 2915624.951155537273735 ], [ 621972.709496488329023, 2915624.951155537273735 ], [ 621972.709496488329023, 2915625.201155537273735 ], [ 621972.459496488329023, 2915625.201155537273735 ], [ 621972.459496488329023, 2915625.451155537273735 ], [ 621972.209496488329023, 2915625.451155537273735 ], [ 621972.209496488329023, 2915625.701155537273735 ], [ 621971.959496488329023, 2915625.701155537273735 ], [ 621971.959496488329023, 2915625.951155537273735 ], [ 621971.709496488329023, 2915625.951155537273735 ], [ 621971.709496488329023, 2915626.201155537273735 ], [ 621971.459496488329023, 2915626.201155537273735 ], [ 621971.459496488329023, 2915626.451155537273735 ], [ 621971.209496488329023, 2915626.451155537273735 ], [ 621971.209496488329023, 2915626.701155537273735 ], [ 621970.959496488329023, 2915626.701155537273735 ], [ 621970.959496488329023, 2915626.951155537273735 ], [ 621970.459496488329023, 2915626.951155537273735 ], [ 621970.459496488329023, 2915627.201155537273735 ], [ 621970.209496488329023, 2915627.201155537273735 ], [ 621970.209496488329023, 2915627.451155537273735 ], [ 621969.959496488329023, 2915627.451155537273735 ], [ 621969.959496488329023, 2915627.701155537273735 ], [ 621969.709496488329023, 2915627.701155537273735 ], [ 621969.709496488329023, 2915627.951155537273735 ], [ 621969.209496488329023, 2915627.951155537273735 ], [ 621969.209496488329023, 2915628.201155537273735 ], [ 621968.959496488329023, 2915628.201155537273735 ], [ 621968.959496488329023, 2915628.451155537273735 ], [ 621968.709496488329023, 2915628.451155537273735 ], [ 621968.709496488329023, 2915628.701155537273735 ], [ 621968.209496488329023, 2915628.701155537273735 ], [ 621968.209496488329023, 2915628.951155537273735 ], [ 621967.959496488329023, 2915628.951155537273735 ], [ 621967.959496488329023, 2915629.201155537273735 ], [ 621967.459496488329023, 2915629.201155537273735 ], [ 621967.459496488329023, 2915629.451155537273735 ], [ 621967.209496488329023, 2915629.451155537273735 ], [ 621967.209496488329023, 2915629.701155537273735 ], [ 621966.709496488329023, 2915629.701155537273735 ], [ 621966.709496488329023, 2915629.951155537273735 ], [ 621966.209496488329023, 2915629.951155537273735 ], [ 621966.209496488329023, 2915630.201155537273735 ], [ 621965.959496488329023, 2915630.201155537273735 ], [ 621965.959496488329023, 2915630.451155537273735 ], [ 621965.459496488329023, 2915630.451155537273735 ], [ 621965.459496488329023, 2915630.701155537273735 ], [ 621964.959496488329023, 2915630.701155537273735 ], [ 621964.959496488329023, 2915630.951155537273735 ], [ 621964.459496488329023, 2915630.951155537273735 ], [ 621964.459496488329023, 2915631.201155537273735 ], [ 621963.959496488329023, 2915631.201155537273735 ], [ 621963.959496488329023, 2915631.451155537273735 ], [ 621963.459496488329023, 2915631.451155537273735 ], [ 621963.459496488329023, 2915631.701155537273735 ], [ 621962.709496488329023, 2915631.701155537273735 ], [ 621962.709496488329023, 2915631.951155537273735 ], [ 621962.209496488329023, 2915631.951155537273735 ], [ 621962.209496488329023, 2915632.201155537273735 ], [ 621961.459496488329023, 2915632.201155537273735 ], [ 621961.459496488329023, 2915632.451155537273735 ], [ 621960.709496488329023, 2915632.451155537273735 ], [ 621960.709496488329023, 2915632.701155537273735 ], [ 621959.959496488329023, 2915632.701155537273735 ], [ 621959.959496488329023, 2915632.951155537273735 ], [ 621959.209496488329023, 2915632.951155537273735 ], [ 621959.209496488329023, 2915633.201155537273735 ], [ 621958.209496488329023, 2915633.201155537273735 ], [ 621958.209496488329023, 2915633.451155537273735 ], [ 621956.959496488329023, 2915633.451155537273735 ], [ 621956.959496488329023, 2915633.701155537273735 ], [ 621956.459496488329023, 2915633.701155537273735 ], [ 621956.459496488329023, 2915633.451155537273735 ], [ 621956.209496488329023, 2915633.451155537273735 ], [ 621956.209496488329023, 2915633.701155537273735 ], [ 621955.209496488329023, 2915633.701155537273735 ], [ 621955.209496488329023, 2915633.951155537273735 ], [ 621954.709496488329023, 2915633.951155537273735 ], [ 621954.709496488329023, 2915633.701155537273735 ], [ 621954.459496488329023, 2915633.701155537273735 ], [ 621954.459496488329023, 2915633.951155537273735 ], [ 621952.959496488329023, 2915633.951155537273735 ], [ 621952.959496488329023, 2915634.201155537273735 ], [ 621952.459496488329023, 2915634.201155537273735 ], [ 621952.459496488329023, 2915633.951155537273735 ], [ 621952.209496488329023, 2915633.951155537273735 ], [ 621952.209496488329023, 2915634.201155537273735 ], [ 621951.709496488329023, 2915634.201155537273735 ], [ 621951.709496488329023, 2915633.951155537273735 ], [ 621951.459496488329023, 2915633.951155537273735 ], [ 621951.459496488329023, 2915634.201155537273735 ], [ 621950.959496488329023, 2915634.201155537273735 ], [ 621950.959496488329023, 2915633.951155537273735 ], [ 621950.709496488329023, 2915633.951155537273735 ], [ 621950.709496488329023, 2915634.201155537273735 ], [ 621950.209496488329023, 2915634.201155537273735 ], [ 621950.209496488329023, 2915633.951155537273735 ], [ 621949.959496488329023, 2915633.951155537273735 ], [ 621949.959496488329023, 2915634.201155537273735 ], [ 621949.709496488329023, 2915634.201155537273735 ] ] ] } }
]
}
