{
"type": "FeatureCollection",
"name": "terrain_spots",
"crs": { "type": "name", "properties": { "name": "urn:ogc:def:crs,crs:EPSG::26914,crs:EPSG::5703" } },
"features": [
{ "type": "Feature", "properties": { "label": "H1", "kind": "high", "area_m2": 11012.0, "mean_cm": 5.1, "peak_cm": 8.7, "where": "south side", "n_units": 0, "problem_share": null, "linked": false }, "geometry": { "type": "Polygon", "coordinates": [ [ [ 622328.884000832913443, 2915487.83146924385801 ], [ 622328.884000832913443, 2915483.83146924385801 ], [ 622326.884000832913443, 2915483.83146924385801 ], [ 622326.884000832913443, 2915477.83146924385801 ], [ 622322.884000832913443, 2915477.83146924385801 ], [ 622322.884000832913443, 2915483.83146924385801 ], [ 622318.884000832913443, 2915483.83146924385801 ], [ 622318.884000832913443, 2915485.83146924385801 ], [ 622314.884000832913443, 2915485.83146924385801 ], [ 622314.884000832913443, 2915481.83146924385801 ], [ 622312.884000832913443, 2915481.83146924385801 ], [ 622312.884000832913443, 2915461.83146924385801 ], [ 622314.884000832913443, 2915461.83146924385801 ], [ 622314.884000832913443, 2915457.83146924385801 ], [ 622312.884000832913443, 2915457.83146924385801 ], [ 622312.884000832913443, 2915453.83146924385801 ], [ 622306.884000832913443, 2915453.83146924385801 ], [ 622306.884000832913443, 2915455.83146924385801 ], [ 622304.884000832913443, 2915455.83146924385801 ], [ 622304.884000832913443, 2915457.83146924385801 ], [ 622302.884000832913443, 2915457.83146924385801 ], [ 622302.884000832913443, 2915455.83146924385801 ], [ 622300.884000832913443, 2915455.83146924385801 ], [ 622300.884000832913443, 2915447.83146924385801 ], [ 622302.884000832913443, 2915447.83146924385801 ], [ 622302.884000832913443, 2915425.83146924385801 ], [ 622304.884000832913443, 2915425.83146924385801 ], [ 622304.884000832913443, 2915421.83146924385801 ], [ 622306.884000832913443, 2915421.83146924385801 ], [ 622306.884000832913443, 2915417.83146924385801 ], [ 622308.884000832913443, 2915417.83146924385801 ], [ 622308.884000832913443, 2915413.83146924385801 ], [ 622306.884000832913443, 2915413.83146924385801 ], [ 622306.884000832913443, 2915405.83146924385801 ], [ 622304.884000832913443, 2915405.83146924385801 ], [ 622304.884000832913443, 2915399.83146924385801 ], [ 622306.884000832913443, 2915399.83146924385801 ], [ 622306.884000832913443, 2915397.83146924385801 ], [ 622310.884000832913443, 2915397.83146924385801 ], [ 622310.884000832913443, 2915395.83146924385801 ], [ 622312.884000832913443, 2915395.83146924385801 ], [ 622312.884000832913443, 2915393.83146924385801 ], [ 622314.884000832913443, 2915393.83146924385801 ], [ 622314.884000832913443, 2915391.83146924385801 ], [ 622316.884000832913443, 2915391.83146924385801 ], [ 622316.884000832913443, 2915377.83146924385801 ], [ 622314.884000832913443, 2915377.83146924385801 ], [ 622314.884000832913443, 2915373.83146924385801 ], [ 622312.884000832913443, 2915373.83146924385801 ], [ 622312.884000832913443, 2915371.83146924385801 ], [ 622306.884000832913443, 2915371.83146924385801 ], [ 622306.884000832913443, 2915373.83146924385801 ], [ 622304.884000832913443, 2915373.83146924385801 ], [ 622304.884000832913443, 2915367.83146924385801 ], [ 622308.884000832913443, 2915367.83146924385801 ], [ 622308.884000832913443, 2915369.83146924385801 ], [ 622312.884000832913443, 2915369.83146924385801 ], [ 622312.884000832913443, 2915365.83146924385801 ], [ 622304.884000832913443, 2915365.83146924385801 ], [ 622304.884000832913443, 2915363.83146924385801 ], [ 622302.884000832913443, 2915363.83146924385801 ], [ 622302.884000832913443, 2915361.83146924385801 ], [ 622304.884000832913443, 2915361.83146924385801 ], [ 622304.884000832913443, 2915357.83146924385801 ], [ 622302.884000832913443, 2915357.83146924385801 ], [ 622302.884000832913443, 2915345.83146924385801 ], [ 622300.884000832913443, 2915345.83146924385801 ], [ 622300.884000832913443, 2915337.83146924385801 ], [ 622298.884000832913443, 2915337.83146924385801 ], [ 622298.884000832913443, 2915331.83146924385801 ], [ 622300.884000832913443, 2915331.83146924385801 ], [ 622300.884000832913443, 2915329.83146924385801 ], [ 622298.884000832913443, 2915329.83146924385801 ], [ 622298.884000832913443, 2915327.83146924385801 ], [ 622296.884000832913443, 2915327.83146924385801 ], [ 622296.884000832913443, 2915329.83146924385801 ], [ 622294.884000832913443, 2915329.83146924385801 ], [ 622294.884000832913443, 2915333.83146924385801 ], [ 622290.884000832913443, 2915333.83146924385801 ], [ 622290.884000832913443, 2915331.83146924385801 ], [ 622288.884000832913443, 2915331.83146924385801 ], [ 622288.884000832913443, 2915327.83146924385801 ], [ 622286.884000832913443, 2915327.83146924385801 ], [ 622286.884000832913443, 2915325.83146924385801 ], [ 622282.884000832913443, 2915325.83146924385801 ], [ 622282.884000832913443, 2915327.83146924385801 ], [ 622274.884000832913443, 2915327.83146924385801 ], [ 622274.884000832913443, 2915325.83146924385801 ], [ 622272.884000832913443, 2915325.83146924385801 ], [ 622272.884000832913443, 2915311.83146924385801 ], [ 622270.884000832913443, 2915311.83146924385801 ], [ 622270.884000832913443, 2915309.83146924385801 ], [ 622266.884000832913443, 2915309.83146924385801 ], [ 622266.884000832913443, 2915311.83146924385801 ], [ 622264.884000832913443, 2915311.83146924385801 ], [ 622264.884000832913443, 2915313.83146924385801 ], [ 622262.884000832913443, 2915313.83146924385801 ], [ 622262.884000832913443, 2915327.83146924385801 ], [ 622264.884000832913443, 2915327.83146924385801 ], [ 622264.884000832913443, 2915333.83146924385801 ], [ 622262.884000832913443, 2915333.83146924385801 ], [ 622262.884000832913443, 2915341.83146924385801 ], [ 622264.884000832913443, 2915341.83146924385801 ], [ 622264.884000832913443, 2915353.83146924385801 ], [ 622266.884000832913443, 2915353.83146924385801 ], [ 622266.884000832913443, 2915357.83146924385801 ], [ 622264.884000832913443, 2915357.83146924385801 ], [ 622264.884000832913443, 2915359.83146924385801 ], [ 622258.884000832913443, 2915359.83146924385801 ], [ 622258.884000832913443, 2915357.83146924385801 ], [ 622256.884000832913443, 2915357.83146924385801 ], [ 622256.884000832913443, 2915353.83146924385801 ], [ 622258.884000832913443, 2915353.83146924385801 ], [ 622258.884000832913443, 2915347.83146924385801 ], [ 622256.884000832913443, 2915347.83146924385801 ], [ 622256.884000832913443, 2915345.83146924385801 ], [ 622258.884000832913443, 2915345.83146924385801 ], [ 622258.884000832913443, 2915341.83146924385801 ], [ 622260.884000832913443, 2915341.83146924385801 ], [ 622260.884000832913443, 2915333.83146924385801 ], [ 622258.884000832913443, 2915333.83146924385801 ], [ 622258.884000832913443, 2915325.83146924385801 ], [ 622256.884000832913443, 2915325.83146924385801 ], [ 622256.884000832913443, 2915323.83146924385801 ], [ 622254.884000832913443, 2915323.83146924385801 ], [ 622254.884000832913443, 2915321.83146924385801 ], [ 622256.884000832913443, 2915321.83146924385801 ], [ 622256.884000832913443, 2915317.83146924385801 ], [ 622258.884000832913443, 2915317.83146924385801 ], [ 622258.884000832913443, 2915313.83146924385801 ], [ 622256.884000832913443, 2915313.83146924385801 ], [ 622256.884000832913443, 2915307.83146924385801 ], [ 622246.884000832913443, 2915307.83146924385801 ], [ 622246.884000832913443, 2915305.83146924385801 ], [ 622244.884000832913443, 2915305.83146924385801 ], [ 622244.884000832913443, 2915301.83146924385801 ], [ 622242.884000832913443, 2915301.83146924385801 ], [ 622242.884000832913443, 2915291.83146924385801 ], [ 622240.884000832913443, 2915291.83146924385801 ], [ 622240.884000832913443, 2915283.83146924385801 ], [ 622242.884000832913443, 2915283.83146924385801 ], [ 622242.884000832913443, 2915271.83146924385801 ], [ 622240.884000832913443, 2915271.83146924385801 ], [ 622240.884000832913443, 2915265.83146924385801 ], [ 622242.884000832913443, 2915265.83146924385801 ], [ 622242.884000832913443, 2915257.83146924385801 ], [ 622244.884000832913443, 2915257.83146924385801 ], [ 622244.884000832913443, 2915253.83146924385801 ], [ 622246.884000832913443, 2915253.83146924385801 ], [ 622246.884000832913443, 2915251.83146924385801 ], [ 622254.884000832913443, 2915251.83146924385801 ], [ 622254.884000832913443, 2915253.83146924385801 ], [ 622256.884000832913443, 2915253.83146924385801 ], [ 622256.884000832913443, 2915251.83146924385801 ], [ 622258.884000832913443, 2915251.83146924385801 ], [ 622258.884000832913443, 2915249.83146924385801 ], [ 622260.884000832913443, 2915249.83146924385801 ], [ 622260.884000832913443, 2915247.83146924385801 ], [ 622266.884000832913443, 2915247.83146924385801 ], [ 622266.884000832913443, 2915251.83146924385801 ], [ 622268.884000832913443, 2915251.83146924385801 ], [ 622268.884000832913443, 2915253.83146924385801 ], [ 622274.884000832913443, 2915253.83146924385801 ], [ 622274.884000832913443, 2915251.83146924385801 ], [ 622276.884000832913443, 2915251.83146924385801 ], [ 622276.884000832913443, 2915249.83146924385801 ], [ 622274.884000832913443, 2915249.83146924385801 ], [ 622274.884000832913443, 2915241.83146924385801 ], [ 622276.884000832913443, 2915241.83146924385801 ], [ 622276.884000832913443, 2915239.83146924385801 ], [ 622278.884000832913443, 2915239.83146924385801 ], [ 622278.884000832913443, 2915237.83146924385801 ], [ 622282.884000832913443, 2915237.83146924385801 ], [ 622282.884000832913443, 2915241.83146924385801 ], [ 622284.884000832913443, 2915241.83146924385801 ], [ 622284.884000832913443, 2915247.83146924385801 ], [ 622282.884000832913443, 2915247.83146924385801 ], [ 622282.884000832913443, 2915257.83146924385801 ], [ 622284.884000832913443, 2915257.83146924385801 ], [ 622284.884000832913443, 2915261.83146924385801 ], [ 622288.884000832913443, 2915261.83146924385801 ], [ 622288.884000832913443, 2915263.83146924385801 ], [ 622292.884000832913443, 2915263.83146924385801 ], [ 622292.884000832913443, 2915261.83146924385801 ], [ 622290.884000832913443, 2915261.83146924385801 ], [ 622290.884000832913443, 2915259.83146924385801 ], [ 622292.884000832913443, 2915259.83146924385801 ], [ 622292.884000832913443, 2915257.83146924385801 ], [ 622296.884000832913443, 2915257.83146924385801 ], [ 622296.884000832913443, 2915255.83146924385801 ], [ 622294.884000832913443, 2915255.83146924385801 ], [ 622294.884000832913443, 2915251.83146924385801 ], [ 622292.884000832913443, 2915251.83146924385801 ], [ 622292.884000832913443, 2915249.83146924385801 ], [ 622288.884000832913443, 2915249.83146924385801 ], [ 622288.884000832913443, 2915245.83146924385801 ], [ 622292.884000832913443, 2915245.83146924385801 ], [ 622292.884000832913443, 2915247.83146924385801 ], [ 622300.884000832913443, 2915247.83146924385801 ], [ 622300.884000832913443, 2915245.83146924385801 ], [ 622302.884000832913443, 2915245.83146924385801 ], [ 622302.884000832913443, 2915237.83146924385801 ], [ 622304.884000832913443, 2915237.83146924385801 ], [ 622304.884000832913443, 2915213.83146924385801 ], [ 622312.884000832913443, 2915213.83146924385801 ], [ 622312.884000832913443, 2915217.83146924385801 ], [ 622310.884000832913443, 2915217.83146924385801 ], [ 622310.884000832913443, 2915223.83146924385801 ], [ 622312.884000832913443, 2915223.83146924385801 ], [ 622312.884000832913443, 2915233.83146924385801 ], [ 622314.884000832913443, 2915233.83146924385801 ], [ 622314.884000832913443, 2915235.83146924385801 ], [ 622312.884000832913443, 2915235.83146924385801 ], [ 622312.884000832913443, 2915249.83146924385801 ], [ 622316.884000832913443, 2915249.83146924385801 ], [ 622316.884000832913443, 2915231.83146924385801 ], [ 622318.884000832913443, 2915231.83146924385801 ], [ 622318.884000832913443, 2915229.83146924385801 ], [ 622320.884000832913443, 2915229.83146924385801 ], [ 622320.884000832913443, 2915231.83146924385801 ], [ 622322.884000832913443, 2915231.83146924385801 ], [ 622322.884000832913443, 2915239.83146924385801 ], [ 622324.884000832913443, 2915239.83146924385801 ], [ 622324.884000832913443, 2915245.83146924385801 ], [ 622322.884000832913443, 2915245.83146924385801 ], [ 622322.884000832913443, 2915247.83146924385801 ], [ 622324.884000832913443, 2915247.83146924385801 ], [ 622324.884000832913443, 2915249.83146924385801 ], [ 622328.884000832913443, 2915249.83146924385801 ], [ 622328.884000832913443, 2915251.83146924385801 ], [ 622330.884000832913443, 2915251.83146924385801 ], [ 622330.884000832913443, 2915249.83146924385801 ], [ 622340.884000832913443, 2915249.83146924385801 ], [ 622340.884000832913443, 2915251.83146924385801 ], [ 622338.884000832913443, 2915251.83146924385801 ], [ 622338.884000832913443, 2915255.83146924385801 ], [ 622340.884000832913443, 2915255.83146924385801 ], [ 622340.884000832913443, 2915259.83146924385801 ], [ 622342.884000832913443, 2915259.83146924385801 ], [ 622342.884000832913443, 2915267.83146924385801 ], [ 622340.884000832913443, 2915267.83146924385801 ], [ 622340.884000832913443, 2915273.83146924385801 ], [ 622338.884000832913443, 2915273.83146924385801 ], [ 622338.884000832913443, 2915289.83146924385801 ], [ 622336.884000832913443, 2915289.83146924385801 ], [ 622336.884000832913443, 2915287.83146924385801 ], [ 622332.884000832913443, 2915287.83146924385801 ], [ 622332.884000832913443, 2915275.83146924385801 ], [ 622330.884000832913443, 2915275.83146924385801 ], [ 622330.884000832913443, 2915273.83146924385801 ], [ 622328.884000832913443, 2915273.83146924385801 ], [ 622328.884000832913443, 2915271.83146924385801 ], [ 622326.884000832913443, 2915271.83146924385801 ], [ 622326.884000832913443, 2915273.83146924385801 ], [ 622324.884000832913443, 2915273.83146924385801 ], [ 622324.884000832913443, 2915287.83146924385801 ], [ 622322.884000832913443, 2915287.83146924385801 ], [ 622322.884000832913443, 2915291.83146924385801 ], [ 622324.884000832913443, 2915291.83146924385801 ], [ 622324.884000832913443, 2915293.83146924385801 ], [ 622322.884000832913443, 2915293.83146924385801 ], [ 622322.884000832913443, 2915303.83146924385801 ], [ 622320.884000832913443, 2915303.83146924385801 ], [ 622320.884000832913443, 2915307.83146924385801 ], [ 622322.884000832913443, 2915307.83146924385801 ], [ 622322.884000832913443, 2915313.83146924385801 ], [ 622320.884000832913443, 2915313.83146924385801 ], [ 622320.884000832913443, 2915315.83146924385801 ], [ 622322.884000832913443, 2915315.83146924385801 ], [ 622322.884000832913443, 2915317.83146924385801 ], [ 622324.884000832913443, 2915317.83146924385801 ], [ 622324.884000832913443, 2915323.83146924385801 ], [ 622322.884000832913443, 2915323.83146924385801 ], [ 622322.884000832913443, 2915325.83146924385801 ], [ 622320.884000832913443, 2915325.83146924385801 ], [ 622320.884000832913443, 2915333.83146924385801 ], [ 622322.884000832913443, 2915333.83146924385801 ], [ 622322.884000832913443, 2915353.83146924385801 ], [ 622320.884000832913443, 2915353.83146924385801 ], [ 622320.884000832913443, 2915355.83146924385801 ], [ 622322.884000832913443, 2915355.83146924385801 ], [ 622322.884000832913443, 2915357.83146924385801 ], [ 622324.884000832913443, 2915357.83146924385801 ], [ 622324.884000832913443, 2915363.83146924385801 ], [ 622322.884000832913443, 2915363.83146924385801 ], [ 622322.884000832913443, 2915365.83146924385801 ], [ 622320.884000832913443, 2915365.83146924385801 ], [ 622320.884000832913443, 2915371.83146924385801 ], [ 622322.884000832913443, 2915371.83146924385801 ], [ 622322.884000832913443, 2915375.83146924385801 ], [ 622324.884000832913443, 2915375.83146924385801 ], [ 622324.884000832913443, 2915389.83146924385801 ], [ 622328.884000832913443, 2915389.83146924385801 ], [ 622328.884000832913443, 2915383.83146924385801 ], [ 622330.884000832913443, 2915383.83146924385801 ], [ 622330.884000832913443, 2915387.83146924385801 ], [ 622332.884000832913443, 2915387.83146924385801 ], [ 622332.884000832913443, 2915389.83146924385801 ], [ 622334.884000832913443, 2915389.83146924385801 ], [ 622334.884000832913443, 2915391.83146924385801 ], [ 622338.884000832913443, 2915391.83146924385801 ], [ 622338.884000832913443, 2915399.83146924385801 ], [ 622336.884000832913443, 2915399.83146924385801 ], [ 622336.884000832913443, 2915403.83146924385801 ], [ 622334.884000832913443, 2915403.83146924385801 ], [ 622334.884000832913443, 2915405.83146924385801 ], [ 622336.884000832913443, 2915405.83146924385801 ], [ 622336.884000832913443, 2915409.83146924385801 ], [ 622340.884000832913443, 2915409.83146924385801 ], [ 622340.884000832913443, 2915413.83146924385801 ], [ 622338.884000832913443, 2915413.83146924385801 ], [ 622338.884000832913443, 2915425.83146924385801 ], [ 622344.884000832913443, 2915425.83146924385801 ], [ 622344.884000832913443, 2915421.83146924385801 ], [ 622346.884000832913443, 2915421.83146924385801 ], [ 622346.884000832913443, 2915419.83146924385801 ], [ 622348.884000832913443, 2915419.83146924385801 ], [ 622348.884000832913443, 2915417.83146924385801 ], [ 622352.884000832913443, 2915417.83146924385801 ], [ 622352.884000832913443, 2915445.83146924385801 ], [ 622354.884000832913443, 2915445.83146924385801 ], [ 622354.884000832913443, 2915447.83146924385801 ], [ 622356.884000832913443, 2915447.83146924385801 ], [ 622356.884000832913443, 2915425.83146924385801 ], [ 622366.884000832913443, 2915425.83146924385801 ], [ 622366.884000832913443, 2915453.83146924385801 ], [ 622364.884000832913443, 2915453.83146924385801 ], [ 622364.884000832913443, 2915455.83146924385801 ], [ 622352.884000832913443, 2915455.83146924385801 ], [ 622352.884000832913443, 2915463.83146924385801 ], [ 622350.884000832913443, 2915463.83146924385801 ], [ 622350.884000832913443, 2915473.83146924385801 ], [ 622346.884000832913443, 2915473.83146924385801 ], [ 622346.884000832913443, 2915471.83146924385801 ], [ 622348.884000832913443, 2915471.83146924385801 ], [ 622348.884000832913443, 2915465.83146924385801 ], [ 622346.884000832913443, 2915465.83146924385801 ], [ 622346.884000832913443, 2915463.83146924385801 ], [ 622344.884000832913443, 2915463.83146924385801 ], [ 622344.884000832913443, 2915459.83146924385801 ], [ 622346.884000832913443, 2915459.83146924385801 ], [ 622346.884000832913443, 2915457.83146924385801 ], [ 622344.884000832913443, 2915457.83146924385801 ], [ 622344.884000832913443, 2915455.83146924385801 ], [ 622338.884000832913443, 2915455.83146924385801 ], [ 622338.884000832913443, 2915467.83146924385801 ], [ 622336.884000832913443, 2915467.83146924385801 ], [ 622336.884000832913443, 2915471.83146924385801 ], [ 622338.884000832913443, 2915471.83146924385801 ], [ 622338.884000832913443, 2915485.83146924385801 ], [ 622336.884000832913443, 2915485.83146924385801 ], [ 622336.884000832913443, 2915487.83146924385801 ], [ 622328.884000832913443, 2915487.83146924385801 ] ], [ [ 622322.884000832913443, 2915475.83146924385801 ], [ 622324.884000832913443, 2915475.83146924385801 ], [ 622324.884000832913443, 2915473.83146924385801 ], [ 622326.884000832913443, 2915473.83146924385801 ], [ 622326.884000832913443, 2915451.83146924385801 ], [ 622322.884000832913443, 2915451.83146924385801 ], [ 622322.884000832913443, 2915457.83146924385801 ], [ 622320.884000832913443, 2915457.83146924385801 ], [ 622320.884000832913443, 2915467.83146924385801 ], [ 622318.884000832913443, 2915467.83146924385801 ], [ 622318.884000832913443, 2915473.83146924385801 ], [ 622322.884000832913443, 2915473.83146924385801 ], [ 622322.884000832913443, 2915475.83146924385801 ] ], [ [ 622340.884000832913443, 2915447.83146924385801 ], [ 622344.884000832913443, 2915447.83146924385801 ], [ 622344.884000832913443, 2915443.83146924385801 ], [ 622342.884000832913443, 2915443.83146924385801 ], [ 622342.884000832913443, 2915435.83146924385801 ], [ 622340.884000832913443, 2915435.83146924385801 ], [ 622340.884000832913443, 2915447.83146924385801 ] ], [ [ 622324.884000832913443, 2915429.83146924385801 ], [ 622326.884000832913443, 2915429.83146924385801 ], [ 622326.884000832913443, 2915423.83146924385801 ], [ 622324.884000832913443, 2915423.83146924385801 ], [ 622324.884000832913443, 2915429.83146924385801 ] ], [ [ 622324.884000832913443, 2915411.83146924385801 ], [ 622326.884000832913443, 2915411.83146924385801 ], [ 622326.884000832913443, 2915409.83146924385801 ], [ 622324.884000832913443, 2915409.83146924385801 ], [ 622324.884000832913443, 2915411.83146924385801 ] ], [ [ 622284.884000832913443, 2915315.83146924385801 ], [ 622286.884000832913443, 2915315.83146924385801 ], [ 622286.884000832913443, 2915313.83146924385801 ], [ 622290.884000832913443, 2915313.83146924385801 ], [ 622290.884000832913443, 2915307.83146924385801 ], [ 622286.884000832913443, 2915307.83146924385801 ], [ 622286.884000832913443, 2915305.83146924385801 ], [ 622282.884000832913443, 2915305.83146924385801 ], [ 622282.884000832913443, 2915313.83146924385801 ], [ 622284.884000832913443, 2915313.83146924385801 ], [ 622284.884000832913443, 2915315.83146924385801 ] ], [ [ 622296.884000832913443, 2915313.83146924385801 ], [ 622300.884000832913443, 2915313.83146924385801 ], [ 622300.884000832913443, 2915301.83146924385801 ], [ 622302.884000832913443, 2915301.83146924385801 ], [ 622302.884000832913443, 2915293.83146924385801 ], [ 622300.884000832913443, 2915293.83146924385801 ], [ 622300.884000832913443, 2915277.83146924385801 ], [ 622302.884000832913443, 2915277.83146924385801 ], [ 622302.884000832913443, 2915275.83146924385801 ], [ 622300.884000832913443, 2915275.83146924385801 ], [ 622300.884000832913443, 2915273.83146924385801 ], [ 622296.884000832913443, 2915273.83146924385801 ], [ 622296.884000832913443, 2915291.83146924385801 ], [ 622294.884000832913443, 2915291.83146924385801 ], [ 622294.884000832913443, 2915295.83146924385801 ], [ 622296.884000832913443, 2915295.83146924385801 ], [ 622296.884000832913443, 2915299.83146924385801 ], [ 622294.884000832913443, 2915299.83146924385801 ], [ 622294.884000832913443, 2915305.83146924385801 ], [ 622292.884000832913443, 2915305.83146924385801 ], [ 622292.884000832913443, 2915307.83146924385801 ], [ 622294.884000832913443, 2915307.83146924385801 ], [ 622294.884000832913443, 2915309.83146924385801 ], [ 622296.884000832913443, 2915309.83146924385801 ], [ 622296.884000832913443, 2915313.83146924385801 ] ], [ [ 622282.884000832913443, 2915301.83146924385801 ], [ 622286.884000832913443, 2915301.83146924385801 ], [ 622286.884000832913443, 2915299.83146924385801 ], [ 622288.884000832913443, 2915299.83146924385801 ], [ 622288.884000832913443, 2915297.83146924385801 ], [ 622290.884000832913443, 2915297.83146924385801 ], [ 622290.884000832913443, 2915291.83146924385801 ], [ 622288.884000832913443, 2915291.83146924385801 ], [ 622288.884000832913443, 2915289.83146924385801 ], [ 622286.884000832913443, 2915289.83146924385801 ], [ 622286.884000832913443, 2915281.83146924385801 ], [ 622288.884000832913443, 2915281.83146924385801 ], [ 622288.884000832913443, 2915277.83146924385801 ], [ 622290.884000832913443, 2915277.83146924385801 ], [ 622290.884000832913443, 2915275.83146924385801 ], [ 622292.884000832913443, 2915275.83146924385801 ], [ 622292.884000832913443, 2915273.83146924385801 ], [ 622290.884000832913443, 2915273.83146924385801 ], [ 622290.884000832913443, 2915269.83146924385801 ], [ 622288.884000832913443, 2915269.83146924385801 ], [ 622288.884000832913443, 2915267.83146924385801 ], [ 622284.884000832913443, 2915267.83146924385801 ], [ 622284.884000832913443, 2915271.83146924385801 ], [ 622282.884000832913443, 2915271.83146924385801 ], [ 622282.884000832913443, 2915281.83146924385801 ], [ 622280.884000832913443, 2915281.83146924385801 ], [ 622280.884000832913443, 2915283.83146924385801 ], [ 622282.884000832913443, 2915283.83146924385801 ], [ 622282.884000832913443, 2915289.83146924385801 ], [ 622280.884000832913443, 2915289.83146924385801 ], [ 622280.884000832913443, 2915299.83146924385801 ], [ 622282.884000832913443, 2915299.83146924385801 ], [ 622282.884000832913443, 2915301.83146924385801 ] ], [ [ 622268.884000832913443, 2915299.83146924385801 ], [ 622270.884000832913443, 2915299.83146924385801 ], [ 622270.884000832913443, 2915291.83146924385801 ], [ 622268.884000832913443, 2915291.83146924385801 ], [ 622268.884000832913443, 2915293.83146924385801 ], [ 622266.884000832913443, 2915293.83146924385801 ], [ 622266.884000832913443, 2915297.83146924385801 ], [ 622268.884000832913443, 2915297.83146924385801 ], [ 622268.884000832913443, 2915299.83146924385801 ] ], [ [ 622252.884000832913443, 2915277.83146924385801 ], [ 622256.884000832913443, 2915277.83146924385801 ], [ 622256.884000832913443, 2915275.83146924385801 ], [ 622258.884000832913443, 2915275.83146924385801 ], [ 622258.884000832913443, 2915271.83146924385801 ], [ 622254.884000832913443, 2915271.83146924385801 ], [ 622254.884000832913443, 2915273.83146924385801 ], [ 622252.884000832913443, 2915273.83146924385801 ], [ 622252.884000832913443, 2915277.83146924385801 ] ] ] } },
{ "type": "Feature", "properties": { "label": "H2", "kind": "high", "area_m2": 1368.0, "mean_cm": 4.8, "peak_cm": 6.8, "where": "south side", "n_units": 0, "problem_share": null, "linked": false }, "geometry": { "type": "Polygon", "coordinates": [ [ [ 622264.884000832913443, 2915231.83146924385801 ], [ 622264.884000832913443, 2915229.83146924385801 ], [ 622260.884000832913443, 2915229.83146924385801 ], [ 622260.884000832913443, 2915225.83146924385801 ], [ 622262.884000832913443, 2915225.83146924385801 ], [ 622262.884000832913443, 2915223.83146924385801 ], [ 622264.884000832913443, 2915223.83146924385801 ], [ 622264.884000832913443, 2915219.83146924385801 ], [ 622260.884000832913443, 2915219.83146924385801 ], [ 622260.884000832913443, 2915217.83146924385801 ], [ 622258.884000832913443, 2915217.83146924385801 ], [ 622258.884000832913443, 2915215.83146924385801 ], [ 622256.884000832913443, 2915215.83146924385801 ], [ 622256.884000832913443, 2915213.83146924385801 ], [ 622252.884000832913443, 2915213.83146924385801 ], [ 622252.884000832913443, 2915205.83146924385801 ], [ 622250.884000832913443, 2915205.83146924385801 ], [ 622250.884000832913443, 2915203.83146924385801 ], [ 622248.884000832913443, 2915203.83146924385801 ], [ 622248.884000832913443, 2915201.83146924385801 ], [ 622250.884000832913443, 2915201.83146924385801 ], [ 622250.884000832913443, 2915199.83146924385801 ], [ 622252.884000832913443, 2915199.83146924385801 ], [ 622252.884000832913443, 2915201.83146924385801 ], [ 622256.884000832913443, 2915201.83146924385801 ], [ 622256.884000832913443, 2915203.83146924385801 ], [ 622258.884000832913443, 2915203.83146924385801 ], [ 622258.884000832913443, 2915199.83146924385801 ], [ 622260.884000832913443, 2915199.83146924385801 ], [ 622260.884000832913443, 2915197.83146924385801 ], [ 622258.884000832913443, 2915197.83146924385801 ], [ 622258.884000832913443, 2915193.83146924385801 ], [ 622256.884000832913443, 2915193.83146924385801 ], [ 622256.884000832913443, 2915189.83146924385801 ], [ 622258.884000832913443, 2915189.83146924385801 ], [ 622258.884000832913443, 2915187.83146924385801 ], [ 622260.884000832913443, 2915187.83146924385801 ], [ 622260.884000832913443, 2915179.83146924385801 ], [ 622258.884000832913443, 2915179.83146924385801 ], [ 622258.884000832913443, 2915177.83146924385801 ], [ 622254.884000832913443, 2915177.83146924385801 ], [ 622254.884000832913443, 2915175.83146924385801 ], [ 622252.884000832913443, 2915175.83146924385801 ], [ 622252.884000832913443, 2915173.83146924385801 ], [ 622250.884000832913443, 2915173.83146924385801 ], [ 622250.884000832913443, 2915167.83146924385801 ], [ 622254.884000832913443, 2915167.83146924385801 ], [ 622254.884000832913443, 2915165.83146924385801 ], [ 622256.884000832913443, 2915165.83146924385801 ], [ 622256.884000832913443, 2915163.83146924385801 ], [ 622258.884000832913443, 2915163.83146924385801 ], [ 622258.884000832913443, 2915161.83146924385801 ], [ 622260.884000832913443, 2915161.83146924385801 ], [ 622260.884000832913443, 2915151.83146924385801 ], [ 622262.884000832913443, 2915151.83146924385801 ], [ 622262.884000832913443, 2915147.83146924385801 ], [ 622266.884000832913443, 2915147.83146924385801 ], [ 622266.884000832913443, 2915149.83146924385801 ], [ 622268.884000832913443, 2915149.83146924385801 ], [ 622268.884000832913443, 2915151.83146924385801 ], [ 622270.884000832913443, 2915151.83146924385801 ], [ 622270.884000832913443, 2915155.83146924385801 ], [ 622268.884000832913443, 2915155.83146924385801 ], [ 622268.884000832913443, 2915163.83146924385801 ], [ 622270.884000832913443, 2915163.83146924385801 ], [ 622270.884000832913443, 2915165.83146924385801 ], [ 622272.884000832913443, 2915165.83146924385801 ], [ 622272.884000832913443, 2915167.83146924385801 ], [ 622270.884000832913443, 2915167.83146924385801 ], [ 622270.884000832913443, 2915169.83146924385801 ], [ 622276.884000832913443, 2915169.83146924385801 ], [ 622276.884000832913443, 2915165.83146924385801 ], [ 622284.884000832913443, 2915165.83146924385801 ], [ 622284.884000832913443, 2915169.83146924385801 ], [ 622286.884000832913443, 2915169.83146924385801 ], [ 622286.884000832913443, 2915171.83146924385801 ], [ 622292.884000832913443, 2915171.83146924385801 ], [ 622292.884000832913443, 2915173.83146924385801 ], [ 622294.884000832913443, 2915173.83146924385801 ], [ 622294.884000832913443, 2915175.83146924385801 ], [ 622292.884000832913443, 2915175.83146924385801 ], [ 622292.884000832913443, 2915177.83146924385801 ], [ 622290.884000832913443, 2915177.83146924385801 ], [ 622290.884000832913443, 2915175.83146924385801 ], [ 622286.884000832913443, 2915175.83146924385801 ], [ 622286.884000832913443, 2915177.83146924385801 ], [ 622282.884000832913443, 2915177.83146924385801 ], [ 622282.884000832913443, 2915179.83146924385801 ], [ 622280.884000832913443, 2915179.83146924385801 ], [ 622280.884000832913443, 2915181.83146924385801 ], [ 622282.884000832913443, 2915181.83146924385801 ], [ 622282.884000832913443, 2915187.83146924385801 ], [ 622284.884000832913443, 2915187.83146924385801 ], [ 622284.884000832913443, 2915189.83146924385801 ], [ 622286.884000832913443, 2915189.83146924385801 ], [ 622286.884000832913443, 2915191.83146924385801 ], [ 622284.884000832913443, 2915191.83146924385801 ], [ 622284.884000832913443, 2915199.83146924385801 ], [ 622282.884000832913443, 2915199.83146924385801 ], [ 622282.884000832913443, 2915201.83146924385801 ], [ 622274.884000832913443, 2915201.83146924385801 ], [ 622274.884000832913443, 2915199.83146924385801 ], [ 622276.884000832913443, 2915199.83146924385801 ], [ 622276.884000832913443, 2915197.83146924385801 ], [ 622278.884000832913443, 2915197.83146924385801 ], [ 622278.884000832913443, 2915195.83146924385801 ], [ 622276.884000832913443, 2915195.83146924385801 ], [ 622276.884000832913443, 2915193.83146924385801 ], [ 622274.884000832913443, 2915193.83146924385801 ], [ 622274.884000832913443, 2915181.83146924385801 ], [ 622272.884000832913443, 2915181.83146924385801 ], [ 622272.884000832913443, 2915179.83146924385801 ], [ 622266.884000832913443, 2915179.83146924385801 ], [ 622266.884000832913443, 2915185.83146924385801 ], [ 622264.884000832913443, 2915185.83146924385801 ], [ 622264.884000832913443, 2915187.83146924385801 ], [ 622266.884000832913443, 2915187.83146924385801 ], [ 622266.884000832913443, 2915189.83146924385801 ], [ 622268.884000832913443, 2915189.83146924385801 ], [ 622268.884000832913443, 2915199.83146924385801 ], [ 622270.884000832913443, 2915199.83146924385801 ], [ 622270.884000832913443, 2915203.83146924385801 ], [ 622268.884000832913443, 2915203.83146924385801 ], [ 622268.884000832913443, 2915207.83146924385801 ], [ 622270.884000832913443, 2915207.83146924385801 ], [ 622270.884000832913443, 2915211.83146924385801 ], [ 622272.884000832913443, 2915211.83146924385801 ], [ 622272.884000832913443, 2915213.83146924385801 ], [ 622270.884000832913443, 2915213.83146924385801 ], [ 622270.884000832913443, 2915215.83146924385801 ], [ 622268.884000832913443, 2915215.83146924385801 ], [ 622268.884000832913443, 2915221.83146924385801 ], [ 622270.884000832913443, 2915221.83146924385801 ], [ 622270.884000832913443, 2915229.83146924385801 ], [ 622268.884000832913443, 2915229.83146924385801 ], [ 622268.884000832913443, 2915231.83146924385801 ], [ 622264.884000832913443, 2915231.83146924385801 ] ] ] } },
{ "type": "Feature", "properties": { "label": "H3", "kind": "high", "area_m2": 1316.0, "mean_cm": 5.1, "peak_cm": 7.2, "where": "middle", "n_units": 0, "problem_share": null, "linked": false }, "geometry": { "type": "Polygon", "coordinates": [ [ [ 622256.884000832913443, 2915437.83146924385801 ], [ 622256.884000832913443, 2915423.83146924385801 ], [ 622254.884000832913443, 2915423.83146924385801 ], [ 622254.884000832913443, 2915415.83146924385801 ], [ 622248.884000832913443, 2915415.83146924385801 ], [ 622248.884000832913443, 2915421.83146924385801 ], [ 622246.884000832913443, 2915421.83146924385801 ], [ 622246.884000832913443, 2915423.83146924385801 ], [ 622244.884000832913443, 2915423.83146924385801 ], [ 622244.884000832913443, 2915429.83146924385801 ], [ 622242.884000832913443, 2915429.83146924385801 ], [ 622242.884000832913443, 2915431.83146924385801 ], [ 622240.884000832913443, 2915431.83146924385801 ], [ 622240.884000832913443, 2915429.83146924385801 ], [ 622238.884000832913443, 2915429.83146924385801 ], [ 622238.884000832913443, 2915427.83146924385801 ], [ 622240.884000832913443, 2915427.83146924385801 ], [ 622240.884000832913443, 2915425.83146924385801 ], [ 622238.884000832913443, 2915425.83146924385801 ], [ 622238.884000832913443, 2915419.83146924385801 ], [ 622240.884000832913443, 2915419.83146924385801 ], [ 622240.884000832913443, 2915413.83146924385801 ], [ 622238.884000832913443, 2915413.83146924385801 ], [ 622238.884000832913443, 2915397.83146924385801 ], [ 622240.884000832913443, 2915397.83146924385801 ], [ 622240.884000832913443, 2915395.83146924385801 ], [ 622244.884000832913443, 2915395.83146924385801 ], [ 622244.884000832913443, 2915393.83146924385801 ], [ 622246.884000832913443, 2915393.83146924385801 ], [ 622246.884000832913443, 2915389.83146924385801 ], [ 622248.884000832913443, 2915389.83146924385801 ], [ 622248.884000832913443, 2915385.83146924385801 ], [ 622250.884000832913443, 2915385.83146924385801 ], [ 622250.884000832913443, 2915383.83146924385801 ], [ 622252.884000832913443, 2915383.83146924385801 ], [ 622252.884000832913443, 2915381.83146924385801 ], [ 622250.884000832913443, 2915381.83146924385801 ], [ 622250.884000832913443, 2915377.83146924385801 ], [ 622254.884000832913443, 2915377.83146924385801 ], [ 622254.884000832913443, 2915375.83146924385801 ], [ 622256.884000832913443, 2915375.83146924385801 ], [ 622256.884000832913443, 2915365.83146924385801 ], [ 622258.884000832913443, 2915365.83146924385801 ], [ 622258.884000832913443, 2915363.83146924385801 ], [ 622264.884000832913443, 2915363.83146924385801 ], [ 622264.884000832913443, 2915365.83146924385801 ], [ 622266.884000832913443, 2915365.83146924385801 ], [ 622266.884000832913443, 2915371.83146924385801 ], [ 622264.884000832913443, 2915371.83146924385801 ], [ 622264.884000832913443, 2915383.83146924385801 ], [ 622268.884000832913443, 2915383.83146924385801 ], [ 622268.884000832913443, 2915385.83146924385801 ], [ 622270.884000832913443, 2915385.83146924385801 ], [ 622270.884000832913443, 2915383.83146924385801 ], [ 622274.884000832913443, 2915383.83146924385801 ], [ 622274.884000832913443, 2915387.83146924385801 ], [ 622266.884000832913443, 2915387.83146924385801 ], [ 622266.884000832913443, 2915399.83146924385801 ], [ 622268.884000832913443, 2915399.83146924385801 ], [ 622268.884000832913443, 2915401.83146924385801 ], [ 622274.884000832913443, 2915401.83146924385801 ], [ 622274.884000832913443, 2915405.83146924385801 ], [ 622278.884000832913443, 2915405.83146924385801 ], [ 622278.884000832913443, 2915411.83146924385801 ], [ 622274.884000832913443, 2915411.83146924385801 ], [ 622274.884000832913443, 2915409.83146924385801 ], [ 622272.884000832913443, 2915409.83146924385801 ], [ 622272.884000832913443, 2915407.83146924385801 ], [ 622266.884000832913443, 2915407.83146924385801 ], [ 622266.884000832913443, 2915409.83146924385801 ], [ 622264.884000832913443, 2915409.83146924385801 ], [ 622264.884000832913443, 2915411.83146924385801 ], [ 622262.884000832913443, 2915411.83146924385801 ], [ 622262.884000832913443, 2915419.83146924385801 ], [ 622260.884000832913443, 2915419.83146924385801 ], [ 622260.884000832913443, 2915421.83146924385801 ], [ 622262.884000832913443, 2915421.83146924385801 ], [ 622262.884000832913443, 2915435.83146924385801 ], [ 622260.884000832913443, 2915435.83146924385801 ], [ 622260.884000832913443, 2915437.83146924385801 ], [ 622256.884000832913443, 2915437.83146924385801 ] ] ] } },
{ "type": "Feature", "properties": { "label": "L1", "kind": "low", "area_m2": 9860.0, "mean_cm": -7.3, "peak_cm": -12.9, "where": "south-east corner", "n_units": 0, "problem_share": null, "linked": false }, "geometry": { "type": "Polygon", "coordinates": [ [ [ 622398.884000832913443, 2915447.83146924385801 ], [ 622398.884000832913443, 2915445.83146924385801 ], [ 622396.884000832913443, 2915445.83146924385801 ], [ 622396.884000832913443, 2915429.83146924385801 ], [ 622394.884000832913443, 2915429.83146924385801 ], [ 622394.884000832913443, 2915427.83146924385801 ], [ 622392.884000832913443, 2915427.83146924385801 ], [ 622392.884000832913443, 2915425.83146924385801 ], [ 622390.884000832913443, 2915425.83146924385801 ], [ 622390.884000832913443, 2915417.83146924385801 ], [ 622386.884000832913443, 2915417.83146924385801 ], [ 622386.884000832913443, 2915423.83146924385801 ], [ 622382.884000832913443, 2915423.83146924385801 ], [ 622382.884000832913443, 2915421.83146924385801 ], [ 622380.884000832913443, 2915421.83146924385801 ], [ 622380.884000832913443, 2915419.83146924385801 ], [ 622382.884000832913443, 2915419.83146924385801 ], [ 622382.884000832913443, 2915409.83146924385801 ], [ 622380.884000832913443, 2915409.83146924385801 ], [ 622380.884000832913443, 2915405.83146924385801 ], [ 622378.884000832913443, 2915405.83146924385801 ], [ 622378.884000832913443, 2915397.83146924385801 ], [ 622376.884000832913443, 2915397.83146924385801 ], [ 622376.884000832913443, 2915395.83146924385801 ], [ 622374.884000832913443, 2915395.83146924385801 ], [ 622374.884000832913443, 2915393.83146924385801 ], [ 622372.884000832913443, 2915393.83146924385801 ], [ 622372.884000832913443, 2915389.83146924385801 ], [ 622370.884000832913443, 2915389.83146924385801 ], [ 622370.884000832913443, 2915379.83146924385801 ], [ 622368.884000832913443, 2915379.83146924385801 ], [ 622368.884000832913443, 2915369.83146924385801 ], [ 622366.884000832913443, 2915369.83146924385801 ], [ 622366.884000832913443, 2915363.83146924385801 ], [ 622364.884000832913443, 2915363.83146924385801 ], [ 622364.884000832913443, 2915357.83146924385801 ], [ 622362.884000832913443, 2915357.83146924385801 ], [ 622362.884000832913443, 2915349.83146924385801 ], [ 622364.884000832913443, 2915349.83146924385801 ], [ 622364.884000832913443, 2915345.83146924385801 ], [ 622366.884000832913443, 2915345.83146924385801 ], [ 622366.884000832913443, 2915341.83146924385801 ], [ 622364.884000832913443, 2915341.83146924385801 ], [ 622364.884000832913443, 2915337.83146924385801 ], [ 622362.884000832913443, 2915337.83146924385801 ], [ 622362.884000832913443, 2915333.83146924385801 ], [ 622356.884000832913443, 2915333.83146924385801 ], [ 622356.884000832913443, 2915311.83146924385801 ], [ 622358.884000832913443, 2915311.83146924385801 ], [ 622358.884000832913443, 2915317.83146924385801 ], [ 622360.884000832913443, 2915317.83146924385801 ], [ 622360.884000832913443, 2915321.83146924385801 ], [ 622362.884000832913443, 2915321.83146924385801 ], [ 622362.884000832913443, 2915319.83146924385801 ], [ 622364.884000832913443, 2915319.83146924385801 ], [ 622364.884000832913443, 2915317.83146924385801 ], [ 622366.884000832913443, 2915317.83146924385801 ], [ 622366.884000832913443, 2915313.83146924385801 ], [ 622364.884000832913443, 2915313.83146924385801 ], [ 622364.884000832913443, 2915309.83146924385801 ], [ 622366.884000832913443, 2915309.83146924385801 ], [ 622366.884000832913443, 2915307.83146924385801 ], [ 622368.884000832913443, 2915307.83146924385801 ], [ 622368.884000832913443, 2915305.83146924385801 ], [ 622366.884000832913443, 2915305.83146924385801 ], [ 622366.884000832913443, 2915297.83146924385801 ], [ 622368.884000832913443, 2915297.83146924385801 ], [ 622368.884000832913443, 2915285.83146924385801 ], [ 622370.884000832913443, 2915285.83146924385801 ], [ 622370.884000832913443, 2915281.83146924385801 ], [ 622368.884000832913443, 2915281.83146924385801 ], [ 622368.884000832913443, 2915275.83146924385801 ], [ 622370.884000832913443, 2915275.83146924385801 ], [ 622370.884000832913443, 2915271.83146924385801 ], [ 622372.884000832913443, 2915271.83146924385801 ], [ 622372.884000832913443, 2915265.83146924385801 ], [ 622370.884000832913443, 2915265.83146924385801 ], [ 622370.884000832913443, 2915257.83146924385801 ], [ 622372.884000832913443, 2915257.83146924385801 ], [ 622372.884000832913443, 2915255.83146924385801 ], [ 622374.884000832913443, 2915255.83146924385801 ], [ 622374.884000832913443, 2915257.83146924385801 ], [ 622376.884000832913443, 2915257.83146924385801 ], [ 622376.884000832913443, 2915259.83146924385801 ], [ 622378.884000832913443, 2915259.83146924385801 ], [ 622378.884000832913443, 2915257.83146924385801 ], [ 622382.884000832913443, 2915257.83146924385801 ], [ 622382.884000832913443, 2915253.83146924385801 ], [ 622380.884000832913443, 2915253.83146924385801 ], [ 622380.884000832913443, 2915245.83146924385801 ], [ 622376.884000832913443, 2915245.83146924385801 ], [ 622376.884000832913443, 2915251.83146924385801 ], [ 622372.884000832913443, 2915251.83146924385801 ], [ 622372.884000832913443, 2915247.83146924385801 ], [ 622370.884000832913443, 2915247.83146924385801 ], [ 622370.884000832913443, 2915243.83146924385801 ], [ 622372.884000832913443, 2915243.83146924385801 ], [ 622372.884000832913443, 2915241.83146924385801 ], [ 622370.884000832913443, 2915241.83146924385801 ], [ 622370.884000832913443, 2915237.83146924385801 ], [ 622372.884000832913443, 2915237.83146924385801 ], [ 622372.884000832913443, 2915229.83146924385801 ], [ 622370.884000832913443, 2915229.83146924385801 ], [ 622370.884000832913443, 2915185.83146924385801 ], [ 622372.884000832913443, 2915185.83146924385801 ], [ 622372.884000832913443, 2915175.83146924385801 ], [ 622374.884000832913443, 2915175.83146924385801 ], [ 622374.884000832913443, 2915173.83146924385801 ], [ 622372.884000832913443, 2915173.83146924385801 ], [ 622372.884000832913443, 2915169.83146924385801 ], [ 622370.884000832913443, 2915169.83146924385801 ], [ 622370.884000832913443, 2915155.83146924385801 ], [ 622372.884000832913443, 2915155.83146924385801 ], [ 622372.884000832913443, 2915153.83146924385801 ], [ 622374.884000832913443, 2915153.83146924385801 ], [ 622374.884000832913443, 2915155.83146924385801 ], [ 622376.884000832913443, 2915155.83146924385801 ], [ 622376.884000832913443, 2915157.83146924385801 ], [ 622378.884000832913443, 2915157.83146924385801 ], [ 622378.884000832913443, 2915159.83146924385801 ], [ 622382.884000832913443, 2915159.83146924385801 ], [ 622382.884000832913443, 2915161.83146924385801 ], [ 622384.884000832913443, 2915161.83146924385801 ], [ 622384.884000832913443, 2915163.83146924385801 ], [ 622386.884000832913443, 2915163.83146924385801 ], [ 622386.884000832913443, 2915165.83146924385801 ], [ 622388.884000832913443, 2915165.83146924385801 ], [ 622388.884000832913443, 2915167.83146924385801 ], [ 622390.884000832913443, 2915167.83146924385801 ], [ 622390.884000832913443, 2915169.83146924385801 ], [ 622394.884000832913443, 2915169.83146924385801 ], [ 622394.884000832913443, 2915171.83146924385801 ], [ 622396.884000832913443, 2915171.83146924385801 ], [ 622396.884000832913443, 2915173.83146924385801 ], [ 622398.884000832913443, 2915173.83146924385801 ], [ 622398.884000832913443, 2915175.83146924385801 ], [ 622400.884000832913443, 2915175.83146924385801 ], [ 622400.884000832913443, 2915177.83146924385801 ], [ 622402.884000832913443, 2915177.83146924385801 ], [ 622402.884000832913443, 2915179.83146924385801 ], [ 622406.884000832913443, 2915179.83146924385801 ], [ 622406.884000832913443, 2915271.83146924385801 ], [ 622408.884000832913443, 2915271.83146924385801 ], [ 622408.884000832913443, 2915435.83146924385801 ], [ 622406.884000832913443, 2915435.83146924385801 ], [ 622406.884000832913443, 2915437.83146924385801 ], [ 622404.884000832913443, 2915437.83146924385801 ], [ 622404.884000832913443, 2915443.83146924385801 ], [ 622402.884000832913443, 2915443.83146924385801 ], [ 622402.884000832913443, 2915447.83146924385801 ], [ 622398.884000832913443, 2915447.83146924385801 ] ], [ [ 622360.884000832913443, 2915327.83146924385801 ], [ 622364.884000832913443, 2915327.83146924385801 ], [ 622364.884000832913443, 2915323.83146924385801 ], [ 622360.884000832913443, 2915323.83146924385801 ], [ 622360.884000832913443, 2915327.83146924385801 ] ], [ [ 622376.884000832913443, 2915271.83146924385801 ], [ 622378.884000832913443, 2915271.83146924385801 ], [ 622378.884000832913443, 2915269.83146924385801 ], [ 622380.884000832913443, 2915269.83146924385801 ], [ 622380.884000832913443, 2915267.83146924385801 ], [ 622378.884000832913443, 2915267.83146924385801 ], [ 622378.884000832913443, 2915265.83146924385801 ], [ 622376.884000832913443, 2915265.83146924385801 ], [ 622376.884000832913443, 2915267.83146924385801 ], [ 622374.884000832913443, 2915267.83146924385801 ], [ 622374.884000832913443, 2915269.83146924385801 ], [ 622376.884000832913443, 2915269.83146924385801 ], [ 622376.884000832913443, 2915271.83146924385801 ] ], [ [ 622390.884000832913443, 2915267.83146924385801 ], [ 622392.884000832913443, 2915267.83146924385801 ], [ 622392.884000832913443, 2915265.83146924385801 ], [ 622390.884000832913443, 2915265.83146924385801 ], [ 622390.884000832913443, 2915267.83146924385801 ] ], [ [ 622378.884000832913443, 2915175.83146924385801 ], [ 622382.884000832913443, 2915175.83146924385801 ], [ 622382.884000832913443, 2915171.83146924385801 ], [ 622380.884000832913443, 2915171.83146924385801 ], [ 622380.884000832913443, 2915173.83146924385801 ], [ 622378.884000832913443, 2915173.83146924385801 ], [ 622378.884000832913443, 2915175.83146924385801 ] ] ] } },
{ "type": "Feature", "properties": { "label": "L2", "kind": "low", "area_m2": 2312.0, "mean_cm": -5.2, "peak_cm": -8.5, "where": "south-west corner", "n_units": 0, "problem_share": null, "linked": false }, "geometry": { "type": "Polygon", "coordinates": [ [ [ 622166.884000832913443, 2915237.83146924385801 ], [ 622166.884000832913443, 2915223.83146924385801 ], [ 622164.884000832913443, 2915223.83146924385801 ], [ 622164.884000832913443, 2915217.83146924385801 ], [ 622156.884000832913443, 2915217.83146924385801 ], [ 622156.884000832913443, 2915187.83146924385801 ], [ 622160.884000832913443, 2915187.83146924385801 ], [ 622160.884000832913443, 2915181.83146924385801 ], [ 622158.884000832913443, 2915181.83146924385801 ], [ 622158.884000832913443, 2915173.83146924385801 ], [ 622160.884000832913443, 2915173.83146924385801 ], [ 622160.884000832913443, 2915171.83146924385801 ], [ 622162.884000832913443, 2915171.83146924385801 ], [ 622162.884000832913443, 2915169.83146924385801 ], [ 622164.884000832913443, 2915169.83146924385801 ], [ 622164.884000832913443, 2915167.83146924385801 ], [ 622166.884000832913443, 2915167.83146924385801 ], [ 622166.884000832913443, 2915165.83146924385801 ], [ 622168.884000832913443, 2915165.83146924385801 ], [ 622168.884000832913443, 2915163.83146924385801 ], [ 622172.884000832913443, 2915163.83146924385801 ], [ 622172.884000832913443, 2915161.83146924385801 ], [ 622174.884000832913443, 2915161.83146924385801 ], [ 622174.884000832913443, 2915159.83146924385801 ], [ 622176.884000832913443, 2915159.83146924385801 ], [ 622176.884000832913443, 2915157.83146924385801 ], [ 622178.884000832913443, 2915157.83146924385801 ], [ 622178.884000832913443, 2915155.83146924385801 ], [ 622182.884000832913443, 2915155.83146924385801 ], [ 622182.884000832913443, 2915153.83146924385801 ], [ 622186.884000832913443, 2915153.83146924385801 ], [ 622186.884000832913443, 2915155.83146924385801 ], [ 622188.884000832913443, 2915155.83146924385801 ], [ 622188.884000832913443, 2915157.83146924385801 ], [ 622194.884000832913443, 2915157.83146924385801 ], [ 622194.884000832913443, 2915149.83146924385801 ], [ 622188.884000832913443, 2915149.83146924385801 ], [ 622188.884000832913443, 2915147.83146924385801 ], [ 622190.884000832913443, 2915147.83146924385801 ], [ 622190.884000832913443, 2915145.83146924385801 ], [ 622194.884000832913443, 2915145.83146924385801 ], [ 622194.884000832913443, 2915143.83146924385801 ], [ 622196.884000832913443, 2915143.83146924385801 ], [ 622196.884000832913443, 2915141.83146924385801 ], [ 622198.884000832913443, 2915141.83146924385801 ], [ 622198.884000832913443, 2915139.83146924385801 ], [ 622200.884000832913443, 2915139.83146924385801 ], [ 622200.884000832913443, 2915137.83146924385801 ], [ 622202.884000832913443, 2915137.83146924385801 ], [ 622202.884000832913443, 2915139.83146924385801 ], [ 622204.884000832913443, 2915139.83146924385801 ], [ 622204.884000832913443, 2915145.83146924385801 ], [ 622206.884000832913443, 2915145.83146924385801 ], [ 622206.884000832913443, 2915151.83146924385801 ], [ 622204.884000832913443, 2915151.83146924385801 ], [ 622204.884000832913443, 2915159.83146924385801 ], [ 622202.884000832913443, 2915159.83146924385801 ], [ 622202.884000832913443, 2915167.83146924385801 ], [ 622204.884000832913443, 2915167.83146924385801 ], [ 622204.884000832913443, 2915173.83146924385801 ], [ 622206.884000832913443, 2915173.83146924385801 ], [ 622206.884000832913443, 2915181.83146924385801 ], [ 622204.884000832913443, 2915181.83146924385801 ], [ 622204.884000832913443, 2915189.83146924385801 ], [ 622206.884000832913443, 2915189.83146924385801 ], [ 622206.884000832913443, 2915187.83146924385801 ], [ 622210.884000832913443, 2915187.83146924385801 ], [ 622210.884000832913443, 2915191.83146924385801 ], [ 622208.884000832913443, 2915191.83146924385801 ], [ 622208.884000832913443, 2915193.83146924385801 ], [ 622202.884000832913443, 2915193.83146924385801 ], [ 622202.884000832913443, 2915195.83146924385801 ], [ 622198.884000832913443, 2915195.83146924385801 ], [ 622198.884000832913443, 2915193.83146924385801 ], [ 622196.884000832913443, 2915193.83146924385801 ], [ 622196.884000832913443, 2915191.83146924385801 ], [ 622194.884000832913443, 2915191.83146924385801 ], [ 622194.884000832913443, 2915189.83146924385801 ], [ 622192.884000832913443, 2915189.83146924385801 ], [ 622192.884000832913443, 2915191.83146924385801 ], [ 622188.884000832913443, 2915191.83146924385801 ], [ 622188.884000832913443, 2915193.83146924385801 ], [ 622184.884000832913443, 2915193.83146924385801 ], [ 622184.884000832913443, 2915191.83146924385801 ], [ 622182.884000832913443, 2915191.83146924385801 ], [ 622182.884000832913443, 2915189.83146924385801 ], [ 622176.884000832913443, 2915189.83146924385801 ], [ 622176.884000832913443, 2915199.83146924385801 ], [ 622178.884000832913443, 2915199.83146924385801 ], [ 622178.884000832913443, 2915205.83146924385801 ], [ 622190.884000832913443, 2915205.83146924385801 ], [ 622190.884000832913443, 2915207.83146924385801 ], [ 622192.884000832913443, 2915207.83146924385801 ], [ 622192.884000832913443, 2915211.83146924385801 ], [ 622190.884000832913443, 2915211.83146924385801 ], [ 622190.884000832913443, 2915213.83146924385801 ], [ 622184.884000832913443, 2915213.83146924385801 ], [ 622184.884000832913443, 2915225.83146924385801 ], [ 622186.884000832913443, 2915225.83146924385801 ], [ 622186.884000832913443, 2915233.83146924385801 ], [ 622180.884000832913443, 2915233.83146924385801 ], [ 622180.884000832913443, 2915231.83146924385801 ], [ 622178.884000832913443, 2915231.83146924385801 ], [ 622178.884000832913443, 2915217.83146924385801 ], [ 622180.884000832913443, 2915217.83146924385801 ], [ 622180.884000832913443, 2915215.83146924385801 ], [ 622182.884000832913443, 2915215.83146924385801 ], [ 622182.884000832913443, 2915213.83146924385801 ], [ 622178.884000832913443, 2915213.83146924385801 ], [ 622178.884000832913443, 2915211.83146924385801 ], [ 622172.884000832913443, 2915211.83146924385801 ], [ 622172.884000832913443, 2915219.83146924385801 ], [ 622170.884000832913443, 2915219.83146924385801 ], [ 622170.884000832913443, 2915233.83146924385801 ], [ 622168.884000832913443, 2915233.83146924385801 ], [ 622168.884000832913443, 2915237.83146924385801 ], [ 622166.884000832913443, 2915237.83146924385801 ] ], [ [ 622160.884000832913443, 2915213.83146924385801 ], [ 622162.884000832913443, 2915213.83146924385801 ], [ 622162.884000832913443, 2915211.83146924385801 ], [ 622164.884000832913443, 2915211.83146924385801 ], [ 622164.884000832913443, 2915207.83146924385801 ], [ 622162.884000832913443, 2915207.83146924385801 ], [ 622162.884000832913443, 2915209.83146924385801 ], [ 622160.884000832913443, 2915209.83146924385801 ], [ 622160.884000832913443, 2915213.83146924385801 ] ], [ [ 622178.884000832913443, 2915181.83146924385801 ], [ 622180.884000832913443, 2915181.83146924385801 ], [ 622180.884000832913443, 2915175.83146924385801 ], [ 622178.884000832913443, 2915175.83146924385801 ], [ 622178.884000832913443, 2915177.83146924385801 ], [ 622176.884000832913443, 2915177.83146924385801 ], [ 622176.884000832913443, 2915179.83146924385801 ], [ 622178.884000832913443, 2915179.83146924385801 ], [ 622178.884000832913443, 2915181.83146924385801 ] ], [ [ 622188.884000832913443, 2915181.83146924385801 ], [ 622190.884000832913443, 2915181.83146924385801 ], [ 622190.884000832913443, 2915179.83146924385801 ], [ 622192.884000832913443, 2915179.83146924385801 ], [ 622192.884000832913443, 2915175.83146924385801 ], [ 622194.884000832913443, 2915175.83146924385801 ], [ 622194.884000832913443, 2915165.83146924385801 ], [ 622196.884000832913443, 2915165.83146924385801 ], [ 622196.884000832913443, 2915161.83146924385801 ], [ 622190.884000832913443, 2915161.83146924385801 ], [ 622190.884000832913443, 2915163.83146924385801 ], [ 622186.884000832913443, 2915163.83146924385801 ], [ 622186.884000832913443, 2915167.83146924385801 ], [ 622184.884000832913443, 2915167.83146924385801 ], [ 622184.884000832913443, 2915171.83146924385801 ], [ 622182.884000832913443, 2915171.83146924385801 ], [ 622182.884000832913443, 2915175.83146924385801 ], [ 622184.884000832913443, 2915175.83146924385801 ], [ 622184.884000832913443, 2915177.83146924385801 ], [ 622186.884000832913443, 2915177.83146924385801 ], [ 622186.884000832913443, 2915179.83146924385801 ], [ 622188.884000832913443, 2915179.83146924385801 ], [ 622188.884000832913443, 2915181.83146924385801 ] ] ] } }
]
}
