{
"type": "FeatureCollection",
"name": "thermal_patches",
"crs": { "type": "name", "properties": { "name": "urn:ogc:def:crs:EPSG::32612" } },
"features": [
{ "type": "Feature", "properties": { "label": 238, "area_m2": 29.2, "canopy_m2": 3.4, "mean_c": 38.57, "peak_c": 42.2, "above_c": 4.58, "z": 2.51, "where": "south-west corner", "compact": 0.12, "problem_share": null, "n_units": 0, "ground": null, "field_share": null, "chance": 0.1, "signs": [ "runs 4.6 C above the rest of the canopy - a degree or two is ordinary variation; three is a plant that has stopped drinking", "runs as a streak along the rows - that is the shape a watering problem makes", "is hot on a field that is due water anyway - the whole crop is short, so this patch says little" ], "sign_keys": [ "hot", "streak", "field_dry" ] }, "geometry": { "type": "Polygon", "coordinates": [ [ [ 408994.28641365468502, 3660112.079719238914549 ], [ 408994.28641365468502, 3660111.979719238821417 ], [ 408994.236413654696662, 3660111.979719238821417 ], [ 408994.236413654696662, 3660111.929719239007682 ], [ 408994.186413654708304, 3660111.929719239007682 ], [ 408994.186413654708304, 3660111.879719238728285 ], [ 408994.136413654719945, 3660111.879719238728285 ], [ 408994.136413654719945, 3660111.829719238914549 ], [ 408994.086413654731587, 3660111.829719238914549 ], [ 408994.086413654731587, 3660111.779719238635153 ], [ 408993.986413654696662, 3660111.779719238635153 ], [ 408993.986413654696662, 3660111.729719238821417 ], [ 408993.886413654719945, 3660111.729719238821417 ], [ 408993.886413654719945, 3660111.679719239007682 ], [ 408993.636413654719945, 3660111.679719239007682 ], [ 408993.636413654719945, 3660111.629719238728285 ], [ 408993.53641365468502, 3660111.629719238728285 ], [ 408993.53641365468502, 3660111.679719239007682 ], [ 408993.28641365468502, 3660111.679719239007682 ], [ 408993.28641365468502, 3660111.729719238821417 ], [ 408993.186413654708304, 3660111.729719238821417 ], [ 408993.186413654708304, 3660111.779719238635153 ], [ 408992.936413654708304, 3660111.779719238635153 ], [ 408992.936413654708304, 3660111.829719238914549 ], [ 408992.836413654731587, 3660111.829719238914549 ], [ 408992.836413654731587, 3660111.779719238635153 ], [ 408992.586413654731587, 3660111.779719238635153 ], [ 408992.586413654731587, 3660111.729719238821417 ], [ 408992.28641365468502, 3660111.729719238821417 ], [ 408992.28641365468502, 3660111.779719238635153 ], [ 408992.03641365468502, 3660111.779719238635153 ], [ 408992.03641365468502, 3660111.829719238914549 ], [ 408991.936413654708304, 3660111.829719238914549 ], [ 408991.936413654708304, 3660110.429719239007682 ], [ 408991.986413654696662, 3660110.429719239007682 ], [ 408991.986413654696662, 3660110.329719238914549 ], [ 408992.03641365468502, 3660110.329719238914549 ], [ 408992.03641365468502, 3660110.379719238728285 ], [ 408992.136413654719945, 3660110.379719238728285 ], [ 408992.136413654719945, 3660110.329719238914549 ], [ 408992.386413654719945, 3660110.329719238914549 ], [ 408992.386413654719945, 3660110.279719238635153 ], [ 408992.486413654696662, 3660110.279719238635153 ], [ 408992.486413654696662, 3660110.229719238821417 ], [ 408992.586413654731587, 3660110.229719238821417 ], [ 408992.586413654731587, 3660110.179719239007682 ], [ 408992.636413654719945, 3660110.179719239007682 ], [ 408992.636413654719945, 3660110.129719238728285 ], [ 408992.686413654708304, 3660110.129719238728285 ], [ 408992.686413654708304, 3660110.079719238914549 ], [ 408992.736413654696662, 3660110.079719238914549 ], [ 408992.736413654696662, 3660109.979719238821417 ], [ 408992.78641365468502, 3660109.979719238821417 ], [ 408992.78641365468502, 3660109.879719238728285 ], [ 408992.836413654731587, 3660109.879719238728285 ], [ 408992.836413654731587, 3660109.629719238728285 ], [ 408992.886413654719945, 3660109.629719238728285 ], [ 408992.886413654719945, 3660109.529719238635153 ], [ 408992.836413654731587, 3660109.529719238635153 ], [ 408992.836413654731587, 3660109.279719238635153 ], [ 408992.78641365468502, 3660109.279719238635153 ], [ 408992.78641365468502, 3660109.179719239007682 ], [ 408992.736413654696662, 3660109.179719239007682 ], [ 408992.736413654696662, 3660109.079719238914549 ], [ 408992.686413654708304, 3660109.079719238914549 ], [ 408992.686413654708304, 3660108.979719238821417 ], [ 408992.636413654719945, 3660108.979719238821417 ], [ 408992.636413654719945, 3660108.929719239007682 ], [ 408992.586413654731587, 3660108.929719239007682 ], [ 408992.586413654731587, 3660108.879719238728285 ], [ 408992.53641365468502, 3660108.879719238728285 ], [ 408992.53641365468502, 3660108.829719238914549 ], [ 408992.436413654708304, 3660108.829719238914549 ], [ 408992.436413654708304, 3660108.779719238635153 ], [ 408992.336413654731587, 3660108.779719238635153 ], [ 408992.336413654731587, 3660108.729719238821417 ], [ 408992.236413654696662, 3660108.729719238821417 ], [ 408992.236413654696662, 3660108.679719239007682 ], [ 408991.986413654696662, 3660108.679719239007682 ], [ 408991.986413654696662, 3660108.429719239007682 ], [ 408991.936413654708304, 3660108.429719239007682 ], [ 408991.936413654708304, 3660107.529719238635153 ], [ 408992.03641365468502, 3660107.529719238635153 ], [ 408992.03641365468502, 3660107.479719238821417 ], [ 408992.086413654731587, 3660107.479719238821417 ], [ 408992.086413654731587, 3660107.429719239007682 ], [ 408992.136413654719945, 3660107.429719239007682 ], [ 408992.136413654719945, 3660107.379719238728285 ], [ 408992.186413654708304, 3660107.379719238728285 ], [ 408992.186413654708304, 3660107.329719238914549 ], [ 408992.236413654696662, 3660107.329719238914549 ], [ 408992.236413654696662, 3660107.229719238821417 ], [ 408992.28641365468502, 3660107.229719238821417 ], [ 408992.28641365468502, 3660107.129719238728285 ], [ 408992.336413654731587, 3660107.129719238728285 ], [ 408992.336413654731587, 3660106.879719238728285 ], [ 408992.386413654719945, 3660106.879719238728285 ], [ 408992.386413654719945, 3660106.829719238914549 ], [ 408992.336413654731587, 3660106.829719238914549 ], [ 408992.336413654731587, 3660106.579719238914549 ], [ 408992.28641365468502, 3660106.579719238914549 ], [ 408992.28641365468502, 3660106.479719238821417 ], [ 408992.236413654696662, 3660106.479719238821417 ], [ 408992.236413654696662, 3660106.379719238728285 ], [ 408992.186413654708304, 3660106.379719238728285 ], [ 408992.186413654708304, 3660106.329719238914549 ], [ 408992.136413654719945, 3660106.329719238914549 ], [ 408992.136413654719945, 3660106.279719238635153 ], [ 408992.086413654731587, 3660106.279719238635153 ], [ 408992.086413654731587, 3660106.229719238821417 ], [ 408991.986413654696662, 3660106.229719238821417 ], [ 408991.986413654696662, 3660106.179719239007682 ], [ 408992.03641365468502, 3660106.179719239007682 ], [ 408992.03641365468502, 3660105.929719239007682 ], [ 408991.986413654696662, 3660105.929719239007682 ], [ 408991.986413654696662, 3660105.879719238728285 ], [ 408992.03641365468502, 3660105.879719238728285 ], [ 408992.03641365468502, 3660105.779719238635153 ], [ 408991.986413654696662, 3660105.779719238635153 ], [ 408991.986413654696662, 3660105.729719238821417 ], [ 408992.03641365468502, 3660105.729719238821417 ], [ 408992.03641365468502, 3660105.629719238728285 ], [ 408991.986413654696662, 3660105.629719238728285 ], [ 408991.986413654696662, 3660105.379719238728285 ], [ 408991.936413654708304, 3660105.379719238728285 ], [ 408991.936413654708304, 3660105.329719238914549 ], [ 408991.986413654696662, 3660105.329719238914549 ], [ 408991.986413654696662, 3660105.079719238914549 ], [ 408992.03641365468502, 3660105.079719238914549 ], [ 408992.03641365468502, 3660104.929719239007682 ], [ 408991.986413654696662, 3660104.929719239007682 ], [ 408991.986413654696662, 3660104.729719238821417 ], [ 408992.03641365468502, 3660104.729719238821417 ], [ 408992.03641365468502, 3660104.829719238914549 ], [ 408992.086413654731587, 3660104.829719238914549 ], [ 408992.086413654731587, 3660104.929719239007682 ], [ 408992.136413654719945, 3660104.929719239007682 ], [ 408992.136413654719945, 3660104.979719238821417 ], [ 408992.186413654708304, 3660104.979719238821417 ], [ 408992.186413654708304, 3660105.029719238635153 ], [ 408992.236413654696662, 3660105.029719238635153 ], [ 408992.236413654696662, 3660105.079719238914549 ], [ 408992.336413654731587, 3660105.079719238914549 ], [ 408992.336413654731587, 3660105.129719238728285 ], [ 408992.436413654708304, 3660105.129719238728285 ], [ 408992.436413654708304, 3660105.179719239007682 ], [ 408992.686413654708304, 3660105.179719239007682 ], [ 408992.686413654708304, 3660105.229719238821417 ], [ 408992.78641365468502, 3660105.229719238821417 ], [ 408992.78641365468502, 3660105.179719239007682 ], [ 408992.836413654731587, 3660105.179719239007682 ], [ 408992.836413654731587, 3660105.229719238821417 ], [ 408992.886413654719945, 3660105.229719238821417 ], [ 408992.886413654719945, 3660105.279719238635153 ], [ 408992.986413654696662, 3660105.279719238635153 ], [ 408992.986413654696662, 3660105.329719238914549 ], [ 408993.086413654731587, 3660105.329719238914549 ], [ 408993.086413654731587, 3660105.379719238728285 ], [ 408993.236413654696662, 3660105.379719238728285 ], [ 408993.236413654696662, 3660105.429719239007682 ], [ 408993.486413654696662, 3660105.429719239007682 ], [ 408993.486413654696662, 3660105.729719238821417 ], [ 408993.53641365468502, 3660105.729719238821417 ], [ 408993.53641365468502, 3660105.779719238635153 ], [ 408993.486413654696662, 3660105.779719238635153 ], [ 408993.486413654696662, 3660106.229719238821417 ], [ 408993.53641365468502, 3660106.229719238821417 ], [ 408993.53641365468502, 3660106.279719238635153 ], [ 408993.486413654696662, 3660106.279719238635153 ], [ 408993.486413654696662, 3660106.429719239007682 ], [ 408993.53641365468502, 3660106.429719239007682 ], [ 408993.53641365468502, 3660106.479719238821417 ], [ 408993.486413654696662, 3660106.479719238821417 ], [ 408993.486413654696662, 3660106.679719239007682 ], [ 408993.53641365468502, 3660106.679719239007682 ], [ 408993.53641365468502, 3660106.929719239007682 ], [ 408993.586413654731587, 3660106.929719239007682 ], [ 408993.586413654731587, 3660107.029719238635153 ], [ 408993.636413654719945, 3660107.029719238635153 ], [ 408993.636413654719945, 3660107.129719238728285 ], [ 408993.686413654708304, 3660107.129719238728285 ], [ 408993.686413654708304, 3660107.179719239007682 ], [ 408993.736413654696662, 3660107.179719239007682 ], [ 408993.736413654696662, 3660107.229719238821417 ], [ 408993.78641365468502, 3660107.229719238821417 ], [ 408993.78641365468502, 3660107.279719238635153 ], [ 408993.886413654719945, 3660107.279719238635153 ], [ 408993.886413654719945, 3660107.329719238914549 ], [ 408993.986413654696662, 3660107.329719238914549 ], [ 408993.986413654696662, 3660107.379719238728285 ], [ 408994.236413654696662, 3660107.379719238728285 ], [ 408994.236413654696662, 3660107.429719239007682 ], [ 408994.386413654719945, 3660107.429719239007682 ], [ 408994.386413654719945, 3660107.379719238728285 ], [ 408994.636413654719945, 3660107.379719238728285 ], [ 408994.636413654719945, 3660107.329719238914549 ], [ 408994.736413654696662, 3660107.329719238914549 ], [ 408994.736413654696662, 3660107.279719238635153 ], [ 408994.836413654731587, 3660107.279719238635153 ], [ 408994.836413654731587, 3660107.229719238821417 ], [ 408994.886413654719945, 3660107.229719238821417 ], [ 408994.886413654719945, 3660107.179719239007682 ], [ 408994.936413654708304, 3660107.179719239007682 ], [ 408994.936413654708304, 3660107.129719238728285 ], [ 408994.986413654696662, 3660107.129719238728285 ], [ 408994.986413654696662, 3660107.079719238914549 ], [ 408995.03641365468502, 3660107.079719238914549 ], [ 408995.03641365468502, 3660106.979719238821417 ], [ 408995.086413654731587, 3660106.979719238821417 ], [ 408995.086413654731587, 3660106.879719238728285 ], [ 408995.136413654719945, 3660106.879719238728285 ], [ 408995.136413654719945, 3660106.679719239007682 ], [ 408995.186413654708304, 3660106.679719239007682 ], [ 408995.186413654708304, 3660106.779719238635153 ], [ 408995.236413654696662, 3660106.779719238635153 ], [ 408995.236413654696662, 3660106.879719238728285 ], [ 408995.28641365468502, 3660106.879719238728285 ], [ 408995.28641365468502, 3660106.929719239007682 ], [ 408995.336413654731587, 3660106.929719239007682 ], [ 408995.336413654731587, 3660106.979719238821417 ], [ 408995.386413654719945, 3660106.979719238821417 ], [ 408995.386413654719945, 3660107.029719238635153 ], [ 408995.486413654696662, 3660107.029719238635153 ], [ 408995.486413654696662, 3660107.079719238914549 ], [ 408995.586413654731587, 3660107.079719238914549 ], [ 408995.586413654731587, 3660107.129719238728285 ], [ 408995.836413654731587, 3660107.129719238728285 ], [ 408995.836413654731587, 3660107.179719239007682 ], [ 408995.886413654719945, 3660107.179719239007682 ], [ 408995.886413654719945, 3660107.129719238728285 ], [ 408996.136413654719945, 3660107.129719238728285 ], [ 408996.136413654719945, 3660107.079719238914549 ], [ 408996.236413654696662, 3660107.079719238914549 ], [ 408996.236413654696662, 3660107.029719238635153 ], [ 408996.336413654731587, 3660107.029719238635153 ], [ 408996.336413654731587, 3660106.979719238821417 ], [ 408996.386413654719945, 3660106.979719238821417 ], [ 408996.386413654719945, 3660106.929719239007682 ], [ 408996.436413654708304, 3660106.929719239007682 ], [ 408996.436413654708304, 3660106.879719238728285 ], [ 408996.486413654696662, 3660106.879719238728285 ], [ 408996.486413654696662, 3660106.779719238635153 ], [ 408996.53641365468502, 3660106.779719238635153 ], [ 408996.53641365468502, 3660106.679719239007682 ], [ 408996.586413654731587, 3660106.679719239007682 ], [ 408996.586413654731587, 3660106.429719239007682 ], [ 408996.636413654719945, 3660106.429719239007682 ], [ 408996.636413654719945, 3660106.329719238914549 ], [ 408996.686413654708304, 3660106.329719238914549 ], [ 408996.686413654708304, 3660106.429719239007682 ], [ 408996.736413654696662, 3660106.429719239007682 ], [ 408996.736413654696662, 3660106.529719238635153 ], [ 408996.686413654708304, 3660106.529719238635153 ], [ 408996.686413654708304, 3660106.779719238635153 ], [ 408996.736413654696662, 3660106.779719238635153 ], [ 408996.736413654696662, 3660107.029719238635153 ], [ 408996.78641365468502, 3660107.029719238635153 ], [ 408996.78641365468502, 3660107.129719238728285 ], [ 408996.836413654731587, 3660107.129719238728285 ], [ 408996.836413654731587, 3660107.229719238821417 ], [ 408996.886413654719945, 3660107.229719238821417 ], [ 408996.886413654719945, 3660107.279719238635153 ], [ 408996.936413654708304, 3660107.279719238635153 ], [ 408996.936413654708304, 3660107.329719238914549 ], [ 408996.986413654696662, 3660107.329719238914549 ], [ 408996.986413654696662, 3660107.379719238728285 ], [ 408997.086413654731587, 3660107.379719238728285 ], [ 408997.086413654731587, 3660107.429719239007682 ], [ 408997.186413654708304, 3660107.429719239007682 ], [ 408997.186413654708304, 3660107.479719238821417 ], [ 408997.436413654708304, 3660107.479719238821417 ], [ 408997.436413654708304, 3660107.529719238635153 ], [ 408997.53641365468502, 3660107.529719238635153 ], [ 408997.53641365468502, 3660107.479719238821417 ], [ 408997.586413654731587, 3660107.479719238821417 ], [ 408997.586413654731587, 3660107.529719238635153 ], [ 408997.78641365468502, 3660107.529719238635153 ], [ 408997.78641365468502, 3660107.479719238821417 ], [ 408998.03641365468502, 3660107.479719238821417 ], [ 408998.03641365468502, 3660107.429719239007682 ], [ 408998.186413654708304, 3660107.429719239007682 ], [ 408998.186413654708304, 3660107.379719238728285 ], [ 408998.28641365468502, 3660107.379719238728285 ], [ 408998.28641365468502, 3660107.329719238914549 ], [ 408998.336413654731587, 3660107.329719238914549 ], [ 408998.336413654731587, 3660107.379719238728285 ], [ 408998.436413654708304, 3660107.379719238728285 ], [ 408998.436413654708304, 3660107.429719239007682 ], [ 408998.53641365468502, 3660107.429719239007682 ], [ 408998.53641365468502, 3660107.479719238821417 ], [ 408998.78641365468502, 3660107.479719238821417 ], [ 408998.78641365468502, 3660107.529719238635153 ], [ 408998.986413654696662, 3660107.529719238635153 ], [ 408998.986413654696662, 3660107.479719238821417 ], [ 408999.086413654731587, 3660107.479719238821417 ], [ 408999.086413654731587, 3660107.529719238635153 ], [ 408999.236413654696662, 3660107.529719238635153 ], [ 408999.236413654696662, 3660107.479719238821417 ], [ 408999.336413654731587, 3660107.479719238821417 ], [ 408999.336413654731587, 3660107.529719238635153 ], [ 408999.436413654708304, 3660107.529719238635153 ], [ 408999.436413654708304, 3660107.579719238914549 ], [ 408999.636413654719945, 3660107.579719238914549 ], [ 408999.636413654719945, 3660107.629719238728285 ], [ 408999.736413654696662, 3660107.629719238728285 ], [ 408999.736413654696662, 3660107.679719239007682 ], [ 408999.986413654696662, 3660107.679719239007682 ], [ 408999.986413654696662, 3660107.729719238821417 ], [ 409000.186413654708304, 3660107.729719238821417 ], [ 409000.186413654708304, 3660107.679719239007682 ], [ 409000.436413654708304, 3660107.679719239007682 ], [ 409000.436413654708304, 3660107.629719238728285 ], [ 409000.486413654696662, 3660107.629719238728285 ], [ 409000.486413654696662, 3660107.679719239007682 ], [ 409000.736413654696662, 3660107.679719239007682 ], [ 409000.736413654696662, 3660107.629719238728285 ], [ 409000.986413654696662, 3660107.629719238728285 ], [ 409000.986413654696662, 3660107.579719238914549 ], [ 409001.086413654731587, 3660107.579719238914549 ], [ 409001.086413654731587, 3660107.529719238635153 ], [ 409001.186413654708304, 3660107.529719238635153 ], [ 409001.186413654708304, 3660107.479719238821417 ], [ 409001.236413654696662, 3660107.479719238821417 ], [ 409001.236413654696662, 3660107.529719238635153 ], [ 409001.486413654696662, 3660107.529719238635153 ], [ 409001.486413654696662, 3660107.579719238914549 ], [ 409001.53641365468502, 3660107.579719238914549 ], [ 409001.53641365468502, 3660107.629719238728285 ], [ 409001.586413654731587, 3660107.629719238728285 ], [ 409001.586413654731587, 3660107.679719239007682 ], [ 409001.686413654708304, 3660107.679719239007682 ], [ 409001.686413654708304, 3660107.729719238821417 ], [ 409001.78641365468502, 3660107.729719238821417 ], [ 409001.78641365468502, 3660107.779719238635153 ], [ 409002.03641365468502, 3660107.779719238635153 ], [ 409002.03641365468502, 3660107.829719238914549 ], [ 409002.086413654731587, 3660107.829719238914549 ], [ 409002.086413654731587, 3660107.879719238728285 ], [ 409002.03641365468502, 3660107.879719238728285 ], [ 409002.03641365468502, 3660107.979719238821417 ], [ 409001.986413654696662, 3660107.979719238821417 ], [ 409001.986413654696662, 3660108.079719238914549 ], [ 409001.936413654708304, 3660108.079719238914549 ], [ 409001.936413654708304, 3660108.029719238635153 ], [ 409001.886413654719945, 3660108.029719238635153 ], [ 409001.886413654719945, 3660107.979719238821417 ], [ 409001.836413654731587, 3660107.979719238821417 ], [ 409001.836413654731587, 3660107.929719239007682 ], [ 409001.78641365468502, 3660107.929719239007682 ], [ 409001.78641365468502, 3660107.879719238728285 ], [ 409001.686413654708304, 3660107.879719238728285 ], [ 409001.686413654708304, 3660107.829719238914549 ], [ 409001.586413654731587, 3660107.829719238914549 ], [ 409001.586413654731587, 3660107.779719238635153 ], [ 409001.336413654731587, 3660107.779719238635153 ], [ 409001.336413654731587, 3660107.729719238821417 ], [ 409001.236413654696662, 3660107.729719238821417 ], [ 409001.236413654696662, 3660107.779719238635153 ], [ 409001.186413654708304, 3660107.779719238635153 ], [ 409001.186413654708304, 3660107.729719238821417 ], [ 409000.936413654708304, 3660107.729719238821417 ], [ 409000.936413654708304, 3660107.679719239007682 ], [ 409000.78641365468502, 3660107.679719239007682 ], [ 409000.78641365468502, 3660107.729719238821417 ], [ 409000.53641365468502, 3660107.729719238821417 ], [ 409000.53641365468502, 3660107.779719238635153 ], [ 409000.436413654708304, 3660107.779719238635153 ], [ 409000.436413654708304, 3660107.829719238914549 ], [ 409000.186413654708304, 3660107.829719238914549 ], [ 409000.186413654708304, 3660107.879719238728285 ], [ 409000.086413654731587, 3660107.879719238728285 ], [ 409000.086413654731587, 3660107.929719239007682 ], [ 408999.986413654696662, 3660107.929719239007682 ], [ 408999.986413654696662, 3660107.979719238821417 ], [ 408999.936413654708304, 3660107.979719238821417 ], [ 408999.936413654708304, 3660108.029719238635153 ], [ 408999.886413654719945, 3660108.029719238635153 ], [ 408999.886413654719945, 3660108.079719238914549 ], [ 408999.836413654731587, 3660108.079719238914549 ], [ 408999.836413654731587, 3660108.129719238728285 ], [ 408999.78641365468502, 3660108.129719238728285 ], [ 408999.78641365468502, 3660108.229719238821417 ], [ 408999.736413654696662, 3660108.229719238821417 ], [ 408999.736413654696662, 3660108.329719238914549 ], [ 408999.686413654708304, 3660108.329719238914549 ], [ 408999.686413654708304, 3660108.529719238635153 ], [ 408999.436413654708304, 3660108.529719238635153 ], [ 408999.436413654708304, 3660108.579719238914549 ], [ 408999.336413654731587, 3660108.579719238914549 ], [ 408999.336413654731587, 3660108.629719238728285 ], [ 408999.236413654696662, 3660108.629719238728285 ], [ 408999.236413654696662, 3660108.679719239007682 ], [ 408999.186413654708304, 3660108.679719239007682 ], [ 408999.186413654708304, 3660108.729719238821417 ], [ 408999.136413654719945, 3660108.729719238821417 ], [ 408999.136413654719945, 3660108.779719238635153 ], [ 408999.086413654731587, 3660108.779719238635153 ], [ 408999.086413654731587, 3660108.829719238914549 ], [ 408999.03641365468502, 3660108.829719238914549 ], [ 408999.03641365468502, 3660108.929719239007682 ], [ 408998.986413654696662, 3660108.929719239007682 ], [ 408998.986413654696662, 3660108.829719238914549 ], [ 408998.936413654708304, 3660108.829719238914549 ], [ 408998.936413654708304, 3660108.779719238635153 ], [ 408998.886413654719945, 3660108.779719238635153 ], [ 408998.886413654719945, 3660108.729719238821417 ], [ 408998.836413654731587, 3660108.729719238821417 ], [ 408998.836413654731587, 3660108.679719239007682 ], [ 408998.78641365468502, 3660108.679719239007682 ], [ 408998.78641365468502, 3660108.629719238728285 ], [ 408998.736413654696662, 3660108.629719238728285 ], [ 408998.736413654696662, 3660108.579719238914549 ], [ 408998.686413654708304, 3660108.579719238914549 ], [ 408998.686413654708304, 3660108.529719238635153 ], [ 408998.586413654731587, 3660108.529719238635153 ], [ 408998.586413654731587, 3660108.479719238821417 ], [ 408998.486413654696662, 3660108.479719238821417 ], [ 408998.486413654696662, 3660108.429719239007682 ], [ 408998.236413654696662, 3660108.429719239007682 ], [ 408998.236413654696662, 3660108.379719238728285 ], [ 408998.136413654719945, 3660108.379719238728285 ], [ 408998.136413654719945, 3660108.429719239007682 ], [ 408997.886413654719945, 3660108.429719239007682 ], [ 408997.886413654719945, 3660108.479719238821417 ], [ 408997.78641365468502, 3660108.479719238821417 ], [ 408997.78641365468502, 3660108.529719238635153 ], [ 408997.686413654708304, 3660108.529719238635153 ], [ 408997.686413654708304, 3660108.579719238914549 ], [ 408997.436413654708304, 3660108.579719238914549 ], [ 408997.436413654708304, 3660108.629719238728285 ], [ 408997.28641365468502, 3660108.629719238728285 ], [ 408997.28641365468502, 3660108.679719239007682 ], [ 408997.186413654708304, 3660108.679719239007682 ], [ 408997.186413654708304, 3660108.729719238821417 ], [ 408997.086413654731587, 3660108.729719238821417 ], [ 408997.086413654731587, 3660108.779719238635153 ], [ 408996.986413654696662, 3660108.779719238635153 ], [ 408996.986413654696662, 3660108.829719238914549 ], [ 408996.936413654708304, 3660108.829719238914549 ], [ 408996.936413654708304, 3660108.879719238728285 ], [ 408996.886413654719945, 3660108.879719238728285 ], [ 408996.886413654719945, 3660108.929719239007682 ], [ 408996.836413654731587, 3660108.929719239007682 ], [ 408996.836413654731587, 3660108.979719238821417 ], [ 408996.78641365468502, 3660108.979719238821417 ], [ 408996.78641365468502, 3660109.079719238914549 ], [ 408996.736413654696662, 3660109.079719238914549 ], [ 408996.736413654696662, 3660109.179719239007682 ], [ 408996.686413654708304, 3660109.179719239007682 ], [ 408996.686413654708304, 3660109.429719239007682 ], [ 408996.636413654719945, 3660109.429719239007682 ], [ 408996.636413654719945, 3660109.729719238821417 ], [ 408996.686413654708304, 3660109.729719238821417 ], [ 408996.686413654708304, 3660109.879719238728285 ], [ 408996.636413654719945, 3660109.879719238728285 ], [ 408996.636413654719945, 3660109.929719239007682 ], [ 408996.686413654708304, 3660109.929719239007682 ], [ 408996.686413654708304, 3660110.179719239007682 ], [ 408996.736413654696662, 3660110.179719239007682 ], [ 408996.736413654696662, 3660110.279719238635153 ], [ 408996.78641365468502, 3660110.279719238635153 ], [ 408996.78641365468502, 3660110.379719238728285 ], [ 408996.836413654731587, 3660110.379719238728285 ], [ 408996.836413654731587, 3660110.429719239007682 ], [ 408996.886413654719945, 3660110.429719239007682 ], [ 408996.886413654719945, 3660110.479719238821417 ], [ 408996.936413654708304, 3660110.479719238821417 ], [ 408996.936413654708304, 3660110.529719238635153 ], [ 408997.03641365468502, 3660110.529719238635153 ], [ 408997.03641365468502, 3660110.579719238914549 ], [ 408997.136413654719945, 3660110.579719238914549 ], [ 408997.136413654719945, 3660110.629719238728285 ], [ 408997.386413654719945, 3660110.629719238728285 ], [ 408997.386413654719945, 3660110.679719239007682 ], [ 408997.636413654719945, 3660110.679719239007682 ], [ 408997.636413654719945, 3660110.629719238728285 ], [ 408997.686413654708304, 3660110.629719238728285 ], [ 408997.686413654708304, 3660110.679719239007682 ], [ 408997.736413654696662, 3660110.679719239007682 ], [ 408997.736413654696662, 3660110.729719238821417 ], [ 408997.78641365468502, 3660110.729719238821417 ], [ 408997.78641365468502, 3660110.829719238914549 ], [ 408997.836413654731587, 3660110.829719238914549 ], [ 408997.836413654731587, 3660110.879719238728285 ], [ 408997.886413654719945, 3660110.879719238728285 ], [ 408997.886413654719945, 3660110.929719239007682 ], [ 408997.936413654708304, 3660110.929719239007682 ], [ 408997.936413654708304, 3660110.979719238821417 ], [ 408997.986413654696662, 3660110.979719238821417 ], [ 408997.986413654696662, 3660111.029719238635153 ], [ 408998.03641365468502, 3660111.029719238635153 ], [ 408998.03641365468502, 3660111.079719238914549 ], [ 408998.136413654719945, 3660111.079719238914549 ], [ 408998.136413654719945, 3660111.129719238728285 ], [ 408998.236413654696662, 3660111.129719238728285 ], [ 408998.236413654696662, 3660111.179719239007682 ], [ 408998.486413654696662, 3660111.179719239007682 ], [ 408998.486413654696662, 3660111.229719238821417 ], [ 408998.636413654719945, 3660111.229719238821417 ], [ 408998.636413654719945, 3660111.179719239007682 ], [ 408998.886413654719945, 3660111.179719239007682 ], [ 408998.886413654719945, 3660111.129719238728285 ], [ 408998.986413654696662, 3660111.129719238728285 ], [ 408998.986413654696662, 3660111.079719238914549 ], [ 408999.03641365468502, 3660111.079719238914549 ], [ 408999.03641365468502, 3660111.129719238728285 ], [ 408999.136413654719945, 3660111.129719238728285 ], [ 408999.136413654719945, 3660111.079719238914549 ], [ 408999.386413654719945, 3660111.079719238914549 ], [ 408999.386413654719945, 3660111.029719238635153 ], [ 408999.586413654731587, 3660111.029719238635153 ], [ 408999.586413654731587, 3660110.979719238821417 ], [ 408999.636413654719945, 3660110.979719238821417 ], [ 408999.636413654719945, 3660111.079719238914549 ], [ 408999.686413654708304, 3660111.079719238914549 ], [ 408999.686413654708304, 3660111.179719239007682 ], [ 408999.736413654696662, 3660111.179719239007682 ], [ 408999.736413654696662, 3660111.279719238635153 ], [ 408999.78641365468502, 3660111.279719238635153 ], [ 408999.78641365468502, 3660111.329719238914549 ], [ 408999.836413654731587, 3660111.329719238914549 ], [ 408999.836413654731587, 3660111.379719238728285 ], [ 408999.886413654719945, 3660111.379719238728285 ], [ 408999.886413654719945, 3660111.479719238821417 ], [ 408999.836413654731587, 3660111.479719238821417 ], [ 408999.836413654731587, 3660111.529719238635153 ], [ 408999.78641365468502, 3660111.529719238635153 ], [ 408999.78641365468502, 3660111.579719238914549 ], [ 408999.686413654708304, 3660111.579719238914549 ], [ 408999.686413654708304, 3660111.529719238635153 ], [ 408999.386413654719945, 3660111.529719238635153 ], [ 408999.386413654719945, 3660111.479719238821417 ], [ 408999.336413654731587, 3660111.479719238821417 ], [ 408999.336413654731587, 3660111.529719238635153 ], [ 408999.086413654731587, 3660111.529719238635153 ], [ 408999.086413654731587, 3660111.579719238914549 ], [ 408998.936413654708304, 3660111.579719238914549 ], [ 408998.936413654708304, 3660111.529719238635153 ], [ 408998.836413654731587, 3660111.529719238635153 ], [ 408998.836413654731587, 3660111.479719238821417 ], [ 408998.736413654696662, 3660111.479719238821417 ], [ 408998.736413654696662, 3660111.429719239007682 ], [ 408998.486413654696662, 3660111.429719239007682 ], [ 408998.486413654696662, 3660111.379719238728285 ], [ 408998.336413654731587, 3660111.379719238728285 ], [ 408998.336413654731587, 3660111.429719239007682 ], [ 408998.186413654708304, 3660111.429719239007682 ], [ 408998.186413654708304, 3660111.379719238728285 ], [ 408997.78641365468502, 3660111.379719238728285 ], [ 408997.78641365468502, 3660111.429719239007682 ], [ 408997.736413654696662, 3660111.429719239007682 ], [ 408997.736413654696662, 3660111.379719238728285 ], [ 408997.686413654708304, 3660111.379719238728285 ], [ 408997.686413654708304, 3660111.429719239007682 ], [ 408997.436413654708304, 3660111.429719239007682 ], [ 408997.436413654708304, 3660111.479719238821417 ], [ 408997.336413654731587, 3660111.479719238821417 ], [ 408997.336413654731587, 3660111.529719238635153 ], [ 408997.236413654696662, 3660111.529719238635153 ], [ 408997.236413654696662, 3660111.579719238914549 ], [ 408997.186413654708304, 3660111.579719238914549 ], [ 408997.186413654708304, 3660111.629719238728285 ], [ 408996.936413654708304, 3660111.629719238728285 ], [ 408996.936413654708304, 3660111.679719239007682 ], [ 408996.78641365468502, 3660111.679719239007682 ], [ 408996.78641365468502, 3660111.729719238821417 ], [ 408996.686413654708304, 3660111.729719238821417 ], [ 408996.686413654708304, 3660111.779719238635153 ], [ 408996.636413654719945, 3660111.779719238635153 ], [ 408996.636413654719945, 3660111.729719238821417 ], [ 408996.28641365468502, 3660111.729719238821417 ], [ 408996.28641365468502, 3660111.779719238635153 ], [ 408996.03641365468502, 3660111.779719238635153 ], [ 408996.03641365468502, 3660111.829719238914549 ], [ 408995.936413654708304, 3660111.829719238914549 ], [ 408995.936413654708304, 3660111.879719238728285 ], [ 408995.886413654719945, 3660111.879719238728285 ], [ 408995.886413654719945, 3660111.829719238914549 ], [ 408995.78641365468502, 3660111.829719238914549 ], [ 408995.78641365468502, 3660111.779719238635153 ], [ 408995.53641365468502, 3660111.779719238635153 ], [ 408995.53641365468502, 3660111.729719238821417 ], [ 408995.486413654696662, 3660111.729719238821417 ], [ 408995.486413654696662, 3660111.779719238635153 ], [ 408995.236413654696662, 3660111.779719238635153 ], [ 408995.236413654696662, 3660111.829719238914549 ], [ 408995.136413654719945, 3660111.829719238914549 ], [ 408995.136413654719945, 3660111.879719238728285 ], [ 408995.086413654731587, 3660111.879719238728285 ], [ 408995.086413654731587, 3660111.829719238914549 ], [ 408994.836413654731587, 3660111.829719238914549 ], [ 408994.836413654731587, 3660111.879719238728285 ], [ 408994.586413654731587, 3660111.879719238728285 ], [ 408994.586413654731587, 3660111.929719239007682 ], [ 408994.486413654696662, 3660111.929719239007682 ], [ 408994.486413654696662, 3660111.979719238821417 ], [ 408994.386413654719945, 3660111.979719238821417 ], [ 408994.386413654719945, 3660112.029719238635153 ], [ 408994.336413654731587, 3660112.029719238635153 ], [ 408994.336413654731587, 3660112.079719238914549 ], [ 408994.28641365468502, 3660112.079719238914549 ] ] ] } },
{ "type": "Feature", "properties": { "label": 211, "area_m2": 10.6, "canopy_m2": 1.5, "mean_c": 38.62, "peak_c": 41.16, "above_c": 4.64, "z": 2.54, "where": "west side", "compact": 0.12, "problem_share": null, "n_units": 0, "ground": null, "field_share": null, "chance": 0.1, "signs": [ "runs 4.6 C above the rest of the canopy - a degree or two is ordinary variation; three is a plant that has stopped drinking", "runs as a streak along the rows - that is the shape a watering problem makes", "is hot on a field that is due water anyway - the whole crop is short, so this patch says little" ], "sign_keys": [ "hot", "streak", "field_dry" ] }, "geometry": { "type": "Polygon", "coordinates": [ [ [ 408999.686413654708304, 3660119.879719238728285 ], [ 408999.686413654708304, 3660119.779719238635153 ], [ 408999.636413654719945, 3660119.779719238635153 ], [ 408999.636413654719945, 3660119.729719238821417 ], [ 408999.586413654731587, 3660119.729719238821417 ], [ 408999.586413654731587, 3660119.679719239007682 ], [ 408999.53641365468502, 3660119.679719239007682 ], [ 408999.53641365468502, 3660119.629719238728285 ], [ 408999.436413654708304, 3660119.629719238728285 ], [ 408999.436413654708304, 3660119.579719238914549 ], [ 408999.336413654731587, 3660119.579719238914549 ], [ 408999.336413654731587, 3660119.529719238635153 ], [ 408999.136413654719945, 3660119.529719238635153 ], [ 408999.136413654719945, 3660119.479719238821417 ], [ 408999.03641365468502, 3660119.479719238821417 ], [ 408999.03641365468502, 3660119.429719239007682 ], [ 408998.936413654708304, 3660119.429719239007682 ], [ 408998.936413654708304, 3660119.379719238728285 ], [ 408998.686413654708304, 3660119.379719238728285 ], [ 408998.686413654708304, 3660119.329719238914549 ], [ 408998.636413654719945, 3660119.329719238914549 ], [ 408998.636413654719945, 3660119.379719238728285 ], [ 408998.53641365468502, 3660119.379719238728285 ], [ 408998.53641365468502, 3660119.329719238914549 ], [ 408998.336413654731587, 3660119.329719238914549 ], [ 408998.336413654731587, 3660119.379719238728285 ], [ 408998.086413654731587, 3660119.379719238728285 ], [ 408998.086413654731587, 3660119.429719239007682 ], [ 408997.986413654696662, 3660119.429719239007682 ], [ 408997.986413654696662, 3660119.479719238821417 ], [ 408997.936413654708304, 3660119.479719238821417 ], [ 408997.936413654708304, 3660119.429719239007682 ], [ 408997.836413654731587, 3660119.429719239007682 ], [ 408997.836413654731587, 3660119.379719238728285 ], [ 408997.586413654731587, 3660119.379719238728285 ], [ 408997.586413654731587, 3660119.329719238914549 ], [ 408997.486413654696662, 3660119.329719238914549 ], [ 408997.486413654696662, 3660119.379719238728285 ], [ 408997.336413654731587, 3660119.379719238728285 ], [ 408997.336413654731587, 3660119.329719238914549 ], [ 408997.086413654731587, 3660119.329719238914549 ], [ 408997.086413654731587, 3660119.279719238635153 ], [ 408997.03641365468502, 3660119.279719238635153 ], [ 408997.03641365468502, 3660119.329719238914549 ], [ 408996.78641365468502, 3660119.329719238914549 ], [ 408996.78641365468502, 3660119.379719238728285 ], [ 408996.686413654708304, 3660119.379719238728285 ], [ 408996.686413654708304, 3660119.429719239007682 ], [ 408996.586413654731587, 3660119.429719239007682 ], [ 408996.586413654731587, 3660119.479719238821417 ], [ 408996.53641365468502, 3660119.479719238821417 ], [ 408996.53641365468502, 3660119.529719238635153 ], [ 408996.486413654696662, 3660119.529719238635153 ], [ 408996.486413654696662, 3660119.579719238914549 ], [ 408996.336413654731587, 3660119.579719238914549 ], [ 408996.336413654731587, 3660119.529719238635153 ], [ 408996.03641365468502, 3660119.529719238635153 ], [ 408996.03641365468502, 3660119.479719238821417 ], [ 408995.986413654696662, 3660119.479719238821417 ], [ 408995.986413654696662, 3660119.429719239007682 ], [ 408995.886413654719945, 3660119.429719239007682 ], [ 408995.886413654719945, 3660119.379719238728285 ], [ 408995.78641365468502, 3660119.379719238728285 ], [ 408995.78641365468502, 3660119.329719238914549 ], [ 408995.53641365468502, 3660119.329719238914549 ], [ 408995.53641365468502, 3660119.279719238635153 ], [ 408995.436413654708304, 3660119.279719238635153 ], [ 408995.436413654708304, 3660119.329719238914549 ], [ 408995.186413654708304, 3660119.329719238914549 ], [ 408995.186413654708304, 3660119.379719238728285 ], [ 408995.086413654731587, 3660119.379719238728285 ], [ 408995.086413654731587, 3660119.429719239007682 ], [ 408994.986413654696662, 3660119.429719239007682 ], [ 408994.986413654696662, 3660119.479719238821417 ], [ 408994.936413654708304, 3660119.479719238821417 ], [ 408994.936413654708304, 3660119.529719238635153 ], [ 408994.886413654719945, 3660119.529719238635153 ], [ 408994.886413654719945, 3660119.479719238821417 ], [ 408994.836413654731587, 3660119.479719238821417 ], [ 408994.836413654731587, 3660119.529719238635153 ], [ 408994.586413654731587, 3660119.529719238635153 ], [ 408994.586413654731587, 3660119.579719238914549 ], [ 408994.486413654696662, 3660119.579719238914549 ], [ 408994.486413654696662, 3660119.629719238728285 ], [ 408994.436413654708304, 3660119.629719238728285 ], [ 408994.436413654708304, 3660119.579719238914549 ], [ 408994.386413654719945, 3660119.579719238914549 ], [ 408994.386413654719945, 3660119.529719238635153 ], [ 408994.28641365468502, 3660119.529719238635153 ], [ 408994.28641365468502, 3660119.479719238821417 ], [ 408994.186413654708304, 3660119.479719238821417 ], [ 408994.186413654708304, 3660119.429719239007682 ], [ 408994.03641365468502, 3660119.429719239007682 ], [ 408994.03641365468502, 3660119.379719238728285 ], [ 408993.936413654708304, 3660119.379719238728285 ], [ 408993.936413654708304, 3660119.329719238914549 ], [ 408993.686413654708304, 3660119.329719238914549 ], [ 408993.686413654708304, 3660119.279719238635153 ], [ 408993.436413654708304, 3660119.279719238635153 ], [ 408993.436413654708304, 3660119.329719238914549 ], [ 408993.186413654708304, 3660119.329719238914549 ], [ 408993.186413654708304, 3660119.379719238728285 ], [ 408992.936413654708304, 3660119.379719238728285 ], [ 408992.936413654708304, 3660119.429719239007682 ], [ 408992.836413654731587, 3660119.429719239007682 ], [ 408992.836413654731587, 3660119.479719238821417 ], [ 408992.736413654696662, 3660119.479719238821417 ], [ 408992.736413654696662, 3660119.529719238635153 ], [ 408992.686413654708304, 3660119.529719238635153 ], [ 408992.686413654708304, 3660119.579719238914549 ], [ 408992.53641365468502, 3660119.579719238914549 ], [ 408992.53641365468502, 3660119.529719238635153 ], [ 408992.436413654708304, 3660119.529719238635153 ], [ 408992.436413654708304, 3660119.479719238821417 ], [ 408992.336413654731587, 3660119.479719238821417 ], [ 408992.336413654731587, 3660119.429719239007682 ], [ 408992.086413654731587, 3660119.429719239007682 ], [ 408992.086413654731587, 3660119.379719238728285 ], [ 408991.936413654708304, 3660119.379719238728285 ], [ 408991.936413654708304, 3660118.929719239007682 ], [ 408991.986413654696662, 3660118.929719239007682 ], [ 408991.986413654696662, 3660118.679719239007682 ], [ 408992.03641365468502, 3660118.679719239007682 ], [ 408992.03641365468502, 3660118.579719238914549 ], [ 408992.086413654731587, 3660118.579719238914549 ], [ 408992.086413654731587, 3660118.379719238728285 ], [ 408992.136413654719945, 3660118.379719238728285 ], [ 408992.136413654719945, 3660118.429719239007682 ], [ 408992.28641365468502, 3660118.429719239007682 ], [ 408992.28641365468502, 3660118.379719238728285 ], [ 408992.53641365468502, 3660118.379719238728285 ], [ 408992.53641365468502, 3660118.329719238914549 ], [ 408992.636413654719945, 3660118.329719238914549 ], [ 408992.636413654719945, 3660118.279719238635153 ], [ 408992.736413654696662, 3660118.279719238635153 ], [ 408992.736413654696662, 3660118.229719238821417 ], [ 408992.78641365468502, 3660118.229719238821417 ], [ 408992.78641365468502, 3660118.179719239007682 ], [ 408992.836413654731587, 3660118.179719239007682 ], [ 408992.836413654731587, 3660118.129719238728285 ], [ 408992.886413654719945, 3660118.129719238728285 ], [ 408992.886413654719945, 3660118.079719238914549 ], [ 408992.936413654708304, 3660118.079719238914549 ], [ 408992.936413654708304, 3660118.129719238728285 ], [ 408993.03641365468502, 3660118.129719238728285 ], [ 408993.03641365468502, 3660118.179719239007682 ], [ 408993.186413654708304, 3660118.179719239007682 ], [ 408993.186413654708304, 3660118.229719238821417 ], [ 408993.28641365468502, 3660118.229719238821417 ], [ 408993.28641365468502, 3660118.279719238635153 ], [ 408993.386413654719945, 3660118.279719238635153 ], [ 408993.386413654719945, 3660118.329719238914549 ], [ 408993.636413654719945, 3660118.329719238914549 ], [ 408993.636413654719945, 3660118.379719238728285 ], [ 408993.686413654708304, 3660118.379719238728285 ], [ 408993.686413654708304, 3660118.329719238914549 ], [ 408993.936413654708304, 3660118.329719238914549 ], [ 408993.936413654708304, 3660118.279719238635153 ], [ 408994.03641365468502, 3660118.279719238635153 ], [ 408994.03641365468502, 3660118.229719238821417 ], [ 408994.136413654719945, 3660118.229719238821417 ], [ 408994.136413654719945, 3660118.179719239007682 ], [ 408994.186413654708304, 3660118.179719239007682 ], [ 408994.186413654708304, 3660118.129719238728285 ], [ 408994.236413654696662, 3660118.129719238728285 ], [ 408994.236413654696662, 3660118.079719238914549 ], [ 408994.28641365468502, 3660118.079719238914549 ], [ 408994.28641365468502, 3660117.979719238821417 ], [ 408994.336413654731587, 3660117.979719238821417 ], [ 408994.336413654731587, 3660117.879719238728285 ], [ 408994.386413654719945, 3660117.879719238728285 ], [ 408994.386413654719945, 3660117.629719238728285 ], [ 408994.436413654708304, 3660117.629719238728285 ], [ 408994.436413654708304, 3660117.779719238635153 ], [ 408994.486413654696662, 3660117.779719238635153 ], [ 408994.486413654696662, 3660117.879719238728285 ], [ 408994.53641365468502, 3660117.879719238728285 ], [ 408994.53641365468502, 3660117.979719238821417 ], [ 408994.586413654731587, 3660117.979719238821417 ], [ 408994.586413654731587, 3660118.029719238635153 ], [ 408994.636413654719945, 3660118.029719238635153 ], [ 408994.636413654719945, 3660118.079719238914549 ], [ 408994.686413654708304, 3660118.079719238914549 ], [ 408994.686413654708304, 3660118.129719238728285 ], [ 408994.736413654696662, 3660118.129719238728285 ], [ 408994.736413654696662, 3660118.179719239007682 ], [ 408994.836413654731587, 3660118.179719239007682 ], [ 408994.836413654731587, 3660118.229719238821417 ], [ 408994.936413654708304, 3660118.229719238821417 ], [ 408994.936413654708304, 3660118.279719238635153 ], [ 408995.186413654708304, 3660118.279719238635153 ], [ 408995.186413654708304, 3660118.329719238914549 ], [ 408995.336413654731587, 3660118.329719238914549 ], [ 408995.336413654731587, 3660118.279719238635153 ], [ 408995.586413654731587, 3660118.279719238635153 ], [ 408995.586413654731587, 3660118.229719238821417 ], [ 408995.686413654708304, 3660118.229719238821417 ], [ 408995.686413654708304, 3660118.179719239007682 ], [ 408995.78641365468502, 3660118.179719239007682 ], [ 408995.78641365468502, 3660118.129719238728285 ], [ 408995.836413654731587, 3660118.129719238728285 ], [ 408995.836413654731587, 3660118.079719238914549 ], [ 408995.886413654719945, 3660118.079719238914549 ], [ 408995.886413654719945, 3660118.129719238728285 ], [ 408995.986413654696662, 3660118.129719238728285 ], [ 408995.986413654696662, 3660118.079719238914549 ], [ 408996.236413654696662, 3660118.079719238914549 ], [ 408996.236413654696662, 3660118.029719238635153 ], [ 408996.336413654731587, 3660118.029719238635153 ], [ 408996.336413654731587, 3660117.979719238821417 ], [ 408996.436413654708304, 3660117.979719238821417 ], [ 408996.436413654708304, 3660117.929719239007682 ], [ 408996.486413654696662, 3660117.929719239007682 ], [ 408996.486413654696662, 3660117.879719238728285 ], [ 408996.53641365468502, 3660117.879719238728285 ], [ 408996.53641365468502, 3660117.829719238914549 ], [ 408996.586413654731587, 3660117.829719238914549 ], [ 408996.586413654731587, 3660117.729719238821417 ], [ 408996.636413654719945, 3660117.729719238821417 ], [ 408996.636413654719945, 3660117.629719238728285 ], [ 408996.686413654708304, 3660117.629719238728285 ], [ 408996.686413654708304, 3660117.379719238728285 ], [ 408996.736413654696662, 3660117.379719238728285 ], [ 408996.736413654696662, 3660117.179719239007682 ], [ 408996.78641365468502, 3660117.179719239007682 ], [ 408996.78641365468502, 3660117.279719238635153 ], [ 408996.836413654731587, 3660117.279719238635153 ], [ 408996.836413654731587, 3660117.379719238728285 ], [ 408996.886413654719945, 3660117.379719238728285 ], [ 408996.886413654719945, 3660117.429719239007682 ], [ 408996.936413654708304, 3660117.429719239007682 ], [ 408996.936413654708304, 3660117.479719238821417 ], [ 408996.986413654696662, 3660117.479719238821417 ], [ 408996.986413654696662, 3660117.529719238635153 ], [ 408997.086413654731587, 3660117.529719238635153 ], [ 408997.086413654731587, 3660117.579719238914549 ], [ 408997.186413654708304, 3660117.579719238914549 ], [ 408997.186413654708304, 3660117.629719238728285 ], [ 408997.436413654708304, 3660117.629719238728285 ], [ 408997.436413654708304, 3660117.729719238821417 ], [ 408997.386413654719945, 3660117.729719238821417 ], [ 408997.386413654719945, 3660117.829719238914549 ], [ 408997.436413654708304, 3660117.829719238914549 ], [ 408997.436413654708304, 3660118.079719238914549 ], [ 408997.486413654696662, 3660118.079719238914549 ], [ 408997.486413654696662, 3660118.179719239007682 ], [ 408997.53641365468502, 3660118.179719239007682 ], [ 408997.53641365468502, 3660118.279719238635153 ], [ 408997.586413654731587, 3660118.279719238635153 ], [ 408997.586413654731587, 3660118.329719238914549 ], [ 408997.636413654719945, 3660118.329719238914549 ], [ 408997.636413654719945, 3660118.379719238728285 ], [ 408997.686413654708304, 3660118.379719238728285 ], [ 408997.686413654708304, 3660118.429719239007682 ], [ 408997.736413654696662, 3660118.429719239007682 ], [ 408997.736413654696662, 3660118.479719238821417 ], [ 408997.836413654731587, 3660118.479719238821417 ], [ 408997.836413654731587, 3660118.529719238635153 ], [ 408997.936413654708304, 3660118.529719238635153 ], [ 408997.936413654708304, 3660118.579719238914549 ], [ 408997.986413654696662, 3660118.579719238914549 ], [ 408997.986413654696662, 3660118.629719238728285 ], [ 408998.03641365468502, 3660118.629719238728285 ], [ 408998.03641365468502, 3660118.679719239007682 ], [ 408998.086413654731587, 3660118.679719239007682 ], [ 408998.086413654731587, 3660118.729719238821417 ], [ 408998.186413654708304, 3660118.729719238821417 ], [ 408998.186413654708304, 3660118.779719238635153 ], [ 408998.28641365468502, 3660118.779719238635153 ], [ 408998.28641365468502, 3660118.829719238914549 ], [ 408998.53641365468502, 3660118.829719238914549 ], [ 408998.53641365468502, 3660118.879719238728285 ], [ 408998.78641365468502, 3660118.879719238728285 ], [ 408998.78641365468502, 3660118.829719238914549 ], [ 408999.03641365468502, 3660118.829719238914549 ], [ 408999.03641365468502, 3660118.779719238635153 ], [ 408999.136413654719945, 3660118.779719238635153 ], [ 408999.136413654719945, 3660118.729719238821417 ], [ 408999.236413654696662, 3660118.729719238821417 ], [ 408999.236413654696662, 3660118.679719239007682 ], [ 408999.28641365468502, 3660118.679719239007682 ], [ 408999.28641365468502, 3660118.629719238728285 ], [ 408999.386413654719945, 3660118.629719238728285 ], [ 408999.386413654719945, 3660118.579719238914549 ], [ 408999.486413654696662, 3660118.579719238914549 ], [ 408999.486413654696662, 3660118.529719238635153 ], [ 408999.586413654731587, 3660118.529719238635153 ], [ 408999.586413654731587, 3660118.479719238821417 ], [ 408999.636413654719945, 3660118.479719238821417 ], [ 408999.636413654719945, 3660118.429719239007682 ], [ 408999.686413654708304, 3660118.429719239007682 ], [ 408999.686413654708304, 3660118.479719238821417 ], [ 408999.736413654696662, 3660118.479719238821417 ], [ 408999.736413654696662, 3660118.529719238635153 ], [ 408999.78641365468502, 3660118.529719238635153 ], [ 408999.78641365468502, 3660118.629719238728285 ], [ 408999.836413654731587, 3660118.629719238728285 ], [ 408999.836413654731587, 3660118.729719238821417 ], [ 408999.886413654719945, 3660118.729719238821417 ], [ 408999.886413654719945, 3660118.829719238914549 ], [ 408999.936413654708304, 3660118.829719238914549 ], [ 408999.936413654708304, 3660118.879719238728285 ], [ 408999.986413654696662, 3660118.879719238728285 ], [ 408999.986413654696662, 3660118.929719239007682 ], [ 409000.03641365468502, 3660118.929719239007682 ], [ 409000.03641365468502, 3660118.979719238821417 ], [ 409000.136413654719945, 3660118.979719238821417 ], [ 409000.136413654719945, 3660119.029719238635153 ], [ 409000.236413654696662, 3660119.029719238635153 ], [ 409000.236413654696662, 3660119.079719238914549 ], [ 409000.486413654696662, 3660119.079719238914549 ], [ 409000.486413654696662, 3660119.129719238728285 ], [ 409000.586413654731587, 3660119.129719238728285 ], [ 409000.586413654731587, 3660119.079719238914549 ], [ 409000.686413654708304, 3660119.079719238914549 ], [ 409000.686413654708304, 3660119.129719238728285 ], [ 409000.736413654696662, 3660119.129719238728285 ], [ 409000.736413654696662, 3660119.079719238914549 ], [ 409000.986413654696662, 3660119.079719238914549 ], [ 409000.986413654696662, 3660119.029719238635153 ], [ 409001.186413654708304, 3660119.029719238635153 ], [ 409001.186413654708304, 3660118.979719238821417 ], [ 409001.28641365468502, 3660118.979719238821417 ], [ 409001.28641365468502, 3660118.929719239007682 ], [ 409001.336413654731587, 3660118.929719239007682 ], [ 409001.336413654731587, 3660118.979719238821417 ], [ 409001.436413654708304, 3660118.979719238821417 ], [ 409001.436413654708304, 3660118.929719239007682 ], [ 409001.686413654708304, 3660118.929719239007682 ], [ 409001.686413654708304, 3660118.879719238728285 ], [ 409001.78641365468502, 3660118.879719238728285 ], [ 409001.78641365468502, 3660118.829719238914549 ], [ 409001.886413654719945, 3660118.829719238914549 ], [ 409001.886413654719945, 3660118.779719238635153 ], [ 409001.936413654708304, 3660118.779719238635153 ], [ 409001.936413654708304, 3660118.729719238821417 ], [ 409001.986413654696662, 3660118.729719238821417 ], [ 409001.986413654696662, 3660118.679719239007682 ], [ 409002.03641365468502, 3660118.679719239007682 ], [ 409002.03641365468502, 3660118.579719238914549 ], [ 409002.086413654731587, 3660118.579719238914549 ], [ 409002.086413654731587, 3660118.829719238914549 ], [ 409002.136413654719945, 3660118.829719238914549 ], [ 409002.136413654719945, 3660119.029719238635153 ], [ 409002.186413654708304, 3660119.029719238635153 ], [ 409002.186413654708304, 3660119.129719238728285 ], [ 409002.236413654696662, 3660119.129719238728285 ], [ 409002.236413654696662, 3660119.229719238821417 ], [ 409002.28641365468502, 3660119.229719238821417 ], [ 409002.28641365468502, 3660119.279719238635153 ], [ 409002.336413654731587, 3660119.279719238635153 ], [ 409002.336413654731587, 3660119.329719238914549 ], [ 409002.386413654719945, 3660119.329719238914549 ], [ 409002.386413654719945, 3660119.379719238728285 ], [ 409002.336413654731587, 3660119.379719238728285 ], [ 409002.336413654731587, 3660119.429719239007682 ], [ 409002.28641365468502, 3660119.429719239007682 ], [ 409002.28641365468502, 3660119.479719238821417 ], [ 409002.236413654696662, 3660119.479719238821417 ], [ 409002.236413654696662, 3660119.529719238635153 ], [ 409002.186413654708304, 3660119.529719238635153 ], [ 409002.186413654708304, 3660119.479719238821417 ], [ 409002.136413654719945, 3660119.479719238821417 ], [ 409002.136413654719945, 3660119.529719238635153 ], [ 409001.886413654719945, 3660119.529719238635153 ], [ 409001.886413654719945, 3660119.579719238914549 ], [ 409001.78641365468502, 3660119.579719238914549 ], [ 409001.78641365468502, 3660119.629719238728285 ], [ 409001.736413654696662, 3660119.629719238728285 ], [ 409001.736413654696662, 3660119.579719238914549 ], [ 409001.336413654731587, 3660119.579719238914549 ], [ 409001.336413654731587, 3660119.529719238635153 ], [ 409000.886413654719945, 3660119.529719238635153 ], [ 409000.886413654719945, 3660119.579719238914549 ], [ 409000.836413654731587, 3660119.579719238914549 ], [ 409000.836413654731587, 3660119.529719238635153 ], [ 409000.486413654696662, 3660119.529719238635153 ], [ 409000.486413654696662, 3660119.579719238914549 ], [ 409000.436413654708304, 3660119.579719238914549 ], [ 409000.436413654708304, 3660119.529719238635153 ], [ 409000.386413654719945, 3660119.529719238635153 ], [ 409000.386413654719945, 3660119.579719238914549 ], [ 409000.136413654719945, 3660119.579719238914549 ], [ 409000.136413654719945, 3660119.629719238728285 ], [ 409000.03641365468502, 3660119.629719238728285 ], [ 409000.03641365468502, 3660119.679719239007682 ], [ 408999.936413654708304, 3660119.679719239007682 ], [ 408999.936413654708304, 3660119.729719238821417 ], [ 408999.886413654719945, 3660119.729719238821417 ], [ 408999.886413654719945, 3660119.779719238635153 ], [ 408999.836413654731587, 3660119.779719238635153 ], [ 408999.836413654731587, 3660119.829719238914549 ], [ 408999.78641365468502, 3660119.829719238914549 ], [ 408999.78641365468502, 3660119.879719238728285 ], [ 408999.686413654708304, 3660119.879719238728285 ] ] ] } },
{ "type": "Feature", "properties": { "label": 138, "area_m2": 10.0, "canopy_m2": 1.3, "mean_c": 38.44, "peak_c": 40.21, "above_c": 4.45, "z": 2.44, "where": "west side", "compact": 0.1, "problem_share": null, "n_units": 0, "ground": null, "field_share": null, "chance": 0.1, "signs": [ "runs 4.5 C above the rest of the canopy - a degree or two is ordinary variation; three is a plant that has stopped drinking", "runs as a streak along the rows - that is the shape a watering problem makes", "is hot on a field that is due water anyway - the whole crop is short, so this patch says little" ], "sign_keys": [ "hot", "streak", "field_dry" ] }, "geometry": { "type": "Polygon", "coordinates": [ [ [ 408994.636413654719945, 3660135.529719238635153 ], [ 408994.636413654719945, 3660135.479719238821417 ], [ 408994.53641365468502, 3660135.479719238821417 ], [ 408994.53641365468502, 3660135.429719239007682 ], [ 408994.28641365468502, 3660135.429719239007682 ], [ 408994.28641365468502, 3660135.379719238728285 ], [ 408994.186413654708304, 3660135.379719238728285 ], [ 408994.186413654708304, 3660135.429719239007682 ], [ 408993.936413654708304, 3660135.429719239007682 ], [ 408993.936413654708304, 3660135.479719238821417 ], [ 408993.836413654731587, 3660135.479719238821417 ], [ 408993.836413654731587, 3660135.429719239007682 ], [ 408993.736413654696662, 3660135.429719239007682 ], [ 408993.736413654696662, 3660135.379719238728285 ], [ 408993.636413654719945, 3660135.379719238728285 ], [ 408993.636413654719945, 3660135.329719238914549 ], [ 408993.386413654719945, 3660135.329719238914549 ], [ 408993.386413654719945, 3660135.279719238635153 ], [ 408993.336413654731587, 3660135.279719238635153 ], [ 408993.336413654731587, 3660135.329719238914549 ], [ 408993.086413654731587, 3660135.329719238914549 ], [ 408993.086413654731587, 3660135.379719238728285 ], [ 408993.03641365468502, 3660135.379719238728285 ], [ 408993.03641365468502, 3660135.129719238728285 ], [ 408992.986413654696662, 3660135.129719238728285 ], [ 408992.986413654696662, 3660135.029719238635153 ], [ 408992.936413654708304, 3660135.029719238635153 ], [ 408992.936413654708304, 3660134.929719239007682 ], [ 408992.886413654719945, 3660134.929719239007682 ], [ 408992.886413654719945, 3660134.829719238914549 ], [ 408992.936413654708304, 3660134.829719238914549 ], [ 408992.936413654708304, 3660134.729719238821417 ], [ 408992.986413654696662, 3660134.729719238821417 ], [ 408992.986413654696662, 3660134.479719238821417 ], [ 408993.03641365468502, 3660134.479719238821417 ], [ 408993.03641365468502, 3660134.429719239007682 ], [ 408992.986413654696662, 3660134.429719239007682 ], [ 408992.986413654696662, 3660134.179719239007682 ], [ 408992.936413654708304, 3660134.179719239007682 ], [ 408992.936413654708304, 3660134.029719238635153 ], [ 408993.03641365468502, 3660134.029719238635153 ], [ 408993.03641365468502, 3660134.079719238914549 ], [ 408993.086413654731587, 3660134.079719238914549 ], [ 408993.086413654731587, 3660134.129719238728285 ], [ 408993.136413654719945, 3660134.129719238728285 ], [ 408993.136413654719945, 3660134.179719239007682 ], [ 408993.186413654708304, 3660134.179719239007682 ], [ 408993.186413654708304, 3660134.229719238821417 ], [ 408993.28641365468502, 3660134.229719238821417 ], [ 408993.28641365468502, 3660134.279719238635153 ], [ 408993.386413654719945, 3660134.279719238635153 ], [ 408993.386413654719945, 3660134.329719238914549 ], [ 408993.636413654719945, 3660134.329719238914549 ], [ 408993.636413654719945, 3660134.379719238728285 ], [ 408993.686413654708304, 3660134.379719238728285 ], [ 408993.686413654708304, 3660134.329719238914549 ], [ 408993.936413654708304, 3660134.329719238914549 ], [ 408993.936413654708304, 3660134.279719238635153 ], [ 408994.03641365468502, 3660134.279719238635153 ], [ 408994.03641365468502, 3660134.229719238821417 ], [ 408994.136413654719945, 3660134.229719238821417 ], [ 408994.136413654719945, 3660134.179719239007682 ], [ 408994.186413654708304, 3660134.179719239007682 ], [ 408994.186413654708304, 3660134.129719238728285 ], [ 408994.236413654696662, 3660134.129719238728285 ], [ 408994.236413654696662, 3660134.079719238914549 ], [ 408994.28641365468502, 3660134.079719238914549 ], [ 408994.28641365468502, 3660134.029719238635153 ], [ 408994.336413654731587, 3660134.029719238635153 ], [ 408994.336413654731587, 3660133.929719239007682 ], [ 408994.386413654719945, 3660133.929719239007682 ], [ 408994.386413654719945, 3660133.829719238914549 ], [ 408994.436413654708304, 3660133.829719238914549 ], [ 408994.436413654708304, 3660133.579719238914549 ], [ 408994.486413654696662, 3660133.579719238914549 ], [ 408994.486413654696662, 3660133.479719238821417 ], [ 408994.436413654708304, 3660133.479719238821417 ], [ 408994.436413654708304, 3660133.429719239007682 ], [ 408994.486413654696662, 3660133.429719239007682 ], [ 408994.486413654696662, 3660133.179719239007682 ], [ 408994.53641365468502, 3660133.179719239007682 ], [ 408994.53641365468502, 3660133.029719238635153 ], [ 408994.486413654696662, 3660133.029719238635153 ], [ 408994.486413654696662, 3660132.779719238635153 ], [ 408994.436413654708304, 3660132.779719238635153 ], [ 408994.436413654708304, 3660132.679719239007682 ], [ 408994.386413654719945, 3660132.679719239007682 ], [ 408994.386413654719945, 3660132.579719238914549 ], [ 408994.336413654731587, 3660132.579719238914549 ], [ 408994.336413654731587, 3660132.529719238635153 ], [ 408994.28641365468502, 3660132.529719238635153 ], [ 408994.28641365468502, 3660132.479719238821417 ], [ 408994.236413654696662, 3660132.479719238821417 ], [ 408994.236413654696662, 3660132.429719239007682 ], [ 408994.136413654719945, 3660132.429719239007682 ], [ 408994.136413654719945, 3660132.379719238728285 ], [ 408994.03641365468502, 3660132.379719238728285 ], [ 408994.03641365468502, 3660132.329719238914549 ], [ 408993.78641365468502, 3660132.329719238914549 ], [ 408993.78641365468502, 3660132.279719238635153 ], [ 408993.736413654696662, 3660132.279719238635153 ], [ 408993.736413654696662, 3660132.329719238914549 ], [ 408993.486413654696662, 3660132.329719238914549 ], [ 408993.486413654696662, 3660132.379719238728285 ], [ 408993.386413654719945, 3660132.379719238728285 ], [ 408993.386413654719945, 3660132.429719239007682 ], [ 408993.28641365468502, 3660132.429719239007682 ], [ 408993.28641365468502, 3660132.479719238821417 ], [ 408993.236413654696662, 3660132.479719238821417 ], [ 408993.236413654696662, 3660132.529719238635153 ], [ 408993.186413654708304, 3660132.529719238635153 ], [ 408993.186413654708304, 3660132.579719238914549 ], [ 408993.136413654719945, 3660132.579719238914549 ], [ 408993.136413654719945, 3660132.679719239007682 ], [ 408993.086413654731587, 3660132.679719239007682 ], [ 408993.086413654731587, 3660132.779719238635153 ], [ 408992.986413654696662, 3660132.779719238635153 ], [ 408992.986413654696662, 3660132.729719238821417 ], [ 408992.886413654719945, 3660132.729719238821417 ], [ 408992.886413654719945, 3660132.629719238728285 ], [ 408992.836413654731587, 3660132.629719238728285 ], [ 408992.836413654731587, 3660132.529719238635153 ], [ 408992.78641365468502, 3660132.529719238635153 ], [ 408992.78641365468502, 3660132.429719239007682 ], [ 408992.736413654696662, 3660132.429719239007682 ], [ 408992.736413654696662, 3660132.379719238728285 ], [ 408992.686413654708304, 3660132.379719238728285 ], [ 408992.686413654708304, 3660132.329719238914549 ], [ 408992.636413654719945, 3660132.329719238914549 ], [ 408992.636413654719945, 3660132.279719238635153 ], [ 408992.586413654731587, 3660132.279719238635153 ], [ 408992.586413654731587, 3660132.229719238821417 ], [ 408992.486413654696662, 3660132.229719238821417 ], [ 408992.486413654696662, 3660132.179719239007682 ], [ 408992.386413654719945, 3660132.179719239007682 ], [ 408992.386413654719945, 3660132.129719238728285 ], [ 408992.136413654719945, 3660132.129719238728285 ], [ 408992.136413654719945, 3660132.079719238914549 ], [ 408992.186413654708304, 3660132.079719238914549 ], [ 408992.186413654708304, 3660131.929719239007682 ], [ 408992.236413654696662, 3660131.929719239007682 ], [ 408992.236413654696662, 3660131.779719238635153 ], [ 408992.28641365468502, 3660131.779719238635153 ], [ 408992.28641365468502, 3660131.529719238635153 ], [ 408992.53641365468502, 3660131.529719238635153 ], [ 408992.53641365468502, 3660131.479719238821417 ], [ 408992.736413654696662, 3660131.479719238821417 ], [ 408992.736413654696662, 3660131.429719239007682 ], [ 408992.836413654731587, 3660131.429719239007682 ], [ 408992.836413654731587, 3660131.379719238728285 ], [ 408992.936413654708304, 3660131.379719238728285 ], [ 408992.936413654708304, 3660131.329719238914549 ], [ 408992.986413654696662, 3660131.329719238914549 ], [ 408992.986413654696662, 3660131.279719238635153 ], [ 408993.03641365468502, 3660131.279719238635153 ], [ 408993.03641365468502, 3660131.329719238914549 ], [ 408993.136413654719945, 3660131.329719238914549 ], [ 408993.136413654719945, 3660131.379719238728285 ], [ 408993.236413654696662, 3660131.379719238728285 ], [ 408993.236413654696662, 3660131.429719239007682 ], [ 408993.486413654696662, 3660131.429719239007682 ], [ 408993.486413654696662, 3660131.479719238821417 ], [ 408993.736413654696662, 3660131.479719238821417 ], [ 408993.736413654696662, 3660131.429719239007682 ], [ 408993.78641365468502, 3660131.429719239007682 ], [ 408993.78641365468502, 3660131.479719238821417 ], [ 408993.936413654708304, 3660131.479719238821417 ], [ 408993.936413654708304, 3660131.429719239007682 ], [ 408994.186413654708304, 3660131.429719239007682 ], [ 408994.186413654708304, 3660131.379719238728285 ], [ 408994.28641365468502, 3660131.379719238728285 ], [ 408994.28641365468502, 3660131.329719238914549 ], [ 408994.386413654719945, 3660131.329719238914549 ], [ 408994.386413654719945, 3660131.279719238635153 ], [ 408994.436413654708304, 3660131.279719238635153 ], [ 408994.436413654708304, 3660131.229719238821417 ], [ 408994.486413654696662, 3660131.229719238821417 ], [ 408994.486413654696662, 3660131.179719239007682 ], [ 408994.53641365468502, 3660131.179719239007682 ], [ 408994.53641365468502, 3660131.129719238728285 ], [ 408994.586413654731587, 3660131.129719238728285 ], [ 408994.586413654731587, 3660131.029719238635153 ], [ 408994.636413654719945, 3660131.029719238635153 ], [ 408994.636413654719945, 3660131.079719238914549 ], [ 408994.686413654708304, 3660131.079719238914549 ], [ 408994.686413654708304, 3660131.129719238728285 ], [ 408994.78641365468502, 3660131.129719238728285 ], [ 408994.78641365468502, 3660131.179719239007682 ], [ 408994.886413654719945, 3660131.179719239007682 ], [ 408994.886413654719945, 3660131.229719238821417 ], [ 408995.03641365468502, 3660131.229719238821417 ], [ 408995.03641365468502, 3660131.279719238635153 ], [ 408995.28641365468502, 3660131.279719238635153 ], [ 408995.28641365468502, 3660131.329719238914549 ], [ 408995.336413654731587, 3660131.329719238914549 ], [ 408995.336413654731587, 3660131.279719238635153 ], [ 408995.436413654708304, 3660131.279719238635153 ], [ 408995.436413654708304, 3660131.329719238914549 ], [ 408995.686413654708304, 3660131.329719238914549 ], [ 408995.686413654708304, 3660131.279719238635153 ], [ 408995.936413654708304, 3660131.279719238635153 ], [ 408995.936413654708304, 3660131.229719238821417 ], [ 408996.03641365468502, 3660131.229719238821417 ], [ 408996.03641365468502, 3660131.329719238914549 ], [ 408996.086413654731587, 3660131.329719238914549 ], [ 408996.086413654731587, 3660131.579719238914549 ], [ 408996.136413654719945, 3660131.579719238914549 ], [ 408996.136413654719945, 3660131.679719239007682 ], [ 408996.186413654708304, 3660131.679719239007682 ], [ 408996.186413654708304, 3660131.779719238635153 ], [ 408996.236413654696662, 3660131.779719238635153 ], [ 408996.236413654696662, 3660131.829719238914549 ], [ 408996.28641365468502, 3660131.829719238914549 ], [ 408996.28641365468502, 3660131.879719238728285 ], [ 408996.336413654731587, 3660131.879719238728285 ], [ 408996.336413654731587, 3660131.929719239007682 ], [ 408996.436413654708304, 3660131.929719239007682 ], [ 408996.436413654708304, 3660131.979719238821417 ], [ 408996.53641365468502, 3660131.979719238821417 ], [ 408996.53641365468502, 3660132.029719238635153 ], [ 408996.78641365468502, 3660132.029719238635153 ], [ 408996.78641365468502, 3660132.079719238914549 ], [ 408996.836413654731587, 3660132.079719238914549 ], [ 408996.836413654731587, 3660132.029719238635153 ], [ 408997.086413654731587, 3660132.029719238635153 ], [ 408997.086413654731587, 3660131.979719238821417 ], [ 408997.186413654708304, 3660131.979719238821417 ], [ 408997.186413654708304, 3660131.929719239007682 ], [ 408997.28641365468502, 3660131.929719239007682 ], [ 408997.28641365468502, 3660131.879719238728285 ], [ 408997.336413654731587, 3660131.879719238728285 ], [ 408997.336413654731587, 3660131.829719238914549 ], [ 408997.386413654719945, 3660131.829719238914549 ], [ 408997.386413654719945, 3660131.779719238635153 ], [ 408997.436413654708304, 3660131.779719238635153 ], [ 408997.436413654708304, 3660131.679719239007682 ], [ 408997.486413654696662, 3660131.679719239007682 ], [ 408997.486413654696662, 3660131.579719238914549 ], [ 408997.53641365468502, 3660131.579719238914549 ], [ 408997.53641365468502, 3660131.479719238821417 ], [ 408997.586413654731587, 3660131.479719238821417 ], [ 408997.586413654731587, 3660131.679719239007682 ], [ 408997.636413654719945, 3660131.679719239007682 ], [ 408997.636413654719945, 3660131.729719238821417 ], [ 408997.586413654731587, 3660131.729719238821417 ], [ 408997.586413654731587, 3660131.979719238821417 ], [ 408997.53641365468502, 3660131.979719238821417 ], [ 408997.53641365468502, 3660132.129719238728285 ], [ 408997.586413654731587, 3660132.129719238728285 ], [ 408997.586413654731587, 3660132.379719238728285 ], [ 408997.636413654719945, 3660132.379719238728285 ], [ 408997.636413654719945, 3660132.429719239007682 ], [ 408997.53641365468502, 3660132.429719239007682 ], [ 408997.53641365468502, 3660132.479719238821417 ], [ 408997.28641365468502, 3660132.479719238821417 ], [ 408997.28641365468502, 3660132.529719238635153 ], [ 408997.186413654708304, 3660132.529719238635153 ], [ 408997.186413654708304, 3660132.579719238914549 ], [ 408997.086413654731587, 3660132.579719238914549 ], [ 408997.086413654731587, 3660132.629719238728285 ], [ 408997.03641365468502, 3660132.629719238728285 ], [ 408997.03641365468502, 3660132.679719239007682 ], [ 408996.986413654696662, 3660132.679719239007682 ], [ 408996.986413654696662, 3660132.729719238821417 ], [ 408996.936413654708304, 3660132.729719238821417 ], [ 408996.936413654708304, 3660132.779719238635153 ], [ 408996.886413654719945, 3660132.779719238635153 ], [ 408996.886413654719945, 3660132.879719238728285 ], [ 408996.78641365468502, 3660132.879719238728285 ], [ 408996.78641365468502, 3660132.779719238635153 ], [ 408996.736413654696662, 3660132.779719238635153 ], [ 408996.736413654696662, 3660132.729719238821417 ], [ 408996.686413654708304, 3660132.729719238821417 ], [ 408996.686413654708304, 3660132.679719239007682 ], [ 408996.636413654719945, 3660132.679719239007682 ], [ 408996.636413654719945, 3660132.629719238728285 ], [ 408996.586413654731587, 3660132.629719238728285 ], [ 408996.586413654731587, 3660132.579719238914549 ], [ 408996.486413654696662, 3660132.579719238914549 ], [ 408996.486413654696662, 3660132.529719238635153 ], [ 408996.386413654719945, 3660132.529719238635153 ], [ 408996.386413654719945, 3660132.479719238821417 ], [ 408996.136413654719945, 3660132.479719238821417 ], [ 408996.136413654719945, 3660132.429719239007682 ], [ 408996.03641365468502, 3660132.429719239007682 ], [ 408996.03641365468502, 3660132.479719238821417 ], [ 408995.936413654708304, 3660132.479719238821417 ], [ 408995.936413654708304, 3660132.429719239007682 ], [ 408995.836413654731587, 3660132.429719239007682 ], [ 408995.836413654731587, 3660132.379719238728285 ], [ 408995.586413654731587, 3660132.379719238728285 ], [ 408995.586413654731587, 3660132.329719238914549 ], [ 408995.53641365468502, 3660132.329719238914549 ], [ 408995.53641365468502, 3660132.379719238728285 ], [ 408995.28641365468502, 3660132.379719238728285 ], [ 408995.28641365468502, 3660132.429719239007682 ], [ 408995.186413654708304, 3660132.429719239007682 ], [ 408995.186413654708304, 3660132.479719238821417 ], [ 408995.086413654731587, 3660132.479719238821417 ], [ 408995.086413654731587, 3660132.529719238635153 ], [ 408995.03641365468502, 3660132.529719238635153 ], [ 408995.03641365468502, 3660132.579719238914549 ], [ 408994.986413654696662, 3660132.579719238914549 ], [ 408994.986413654696662, 3660132.629719238728285 ], [ 408994.936413654708304, 3660132.629719238728285 ], [ 408994.936413654708304, 3660132.729719238821417 ], [ 408994.886413654719945, 3660132.729719238821417 ], [ 408994.886413654719945, 3660132.829719238914549 ], [ 408994.836413654731587, 3660132.829719238914549 ], [ 408994.836413654731587, 3660133.079719238914549 ], [ 408994.78641365468502, 3660133.079719238914549 ], [ 408994.78641365468502, 3660133.129719238728285 ], [ 408994.836413654731587, 3660133.129719238728285 ], [ 408994.836413654731587, 3660133.379719238728285 ], [ 408994.886413654719945, 3660133.379719238728285 ], [ 408994.886413654719945, 3660133.479719238821417 ], [ 408994.936413654708304, 3660133.479719238821417 ], [ 408994.936413654708304, 3660133.579719238914549 ], [ 408994.986413654696662, 3660133.579719238914549 ], [ 408994.986413654696662, 3660133.729719238821417 ], [ 408994.936413654708304, 3660133.729719238821417 ], [ 408994.936413654708304, 3660134.029719238635153 ], [ 408994.986413654696662, 3660134.029719238635153 ], [ 408994.986413654696662, 3660134.279719238635153 ], [ 408995.03641365468502, 3660134.279719238635153 ], [ 408995.03641365468502, 3660134.379719238728285 ], [ 408995.086413654731587, 3660134.379719238728285 ], [ 408995.086413654731587, 3660134.479719238821417 ], [ 408995.136413654719945, 3660134.479719238821417 ], [ 408995.136413654719945, 3660134.529719238635153 ], [ 408995.186413654708304, 3660134.529719238635153 ], [ 408995.186413654708304, 3660134.579719238914549 ], [ 408995.236413654696662, 3660134.579719238914549 ], [ 408995.236413654696662, 3660134.629719238728285 ], [ 408995.336413654731587, 3660134.629719238728285 ], [ 408995.336413654731587, 3660134.679719239007682 ], [ 408995.386413654719945, 3660134.679719239007682 ], [ 408995.386413654719945, 3660134.729719238821417 ], [ 408995.486413654696662, 3660134.729719238821417 ], [ 408995.486413654696662, 3660134.779719238635153 ], [ 408995.586413654731587, 3660134.779719238635153 ], [ 408995.586413654731587, 3660134.829719238914549 ], [ 408995.836413654731587, 3660134.829719238914549 ], [ 408995.836413654731587, 3660134.879719238728285 ], [ 408995.886413654719945, 3660134.879719238728285 ], [ 408995.886413654719945, 3660134.829719238914549 ], [ 408996.136413654719945, 3660134.829719238914549 ], [ 408996.136413654719945, 3660134.779719238635153 ], [ 408996.236413654696662, 3660134.779719238635153 ], [ 408996.236413654696662, 3660134.729719238821417 ], [ 408996.336413654731587, 3660134.729719238821417 ], [ 408996.336413654731587, 3660134.679719239007682 ], [ 408996.53641365468502, 3660134.679719239007682 ], [ 408996.53641365468502, 3660134.629719238728285 ], [ 408996.636413654719945, 3660134.629719238728285 ], [ 408996.636413654719945, 3660134.579719238914549 ], [ 408996.736413654696662, 3660134.579719238914549 ], [ 408996.736413654696662, 3660134.529719238635153 ], [ 408996.78641365468502, 3660134.529719238635153 ], [ 408996.78641365468502, 3660134.479719238821417 ], [ 408996.836413654731587, 3660134.479719238821417 ], [ 408996.836413654731587, 3660134.429719239007682 ], [ 408996.886413654719945, 3660134.429719239007682 ], [ 408996.886413654719945, 3660134.679719239007682 ], [ 408996.936413654708304, 3660134.679719239007682 ], [ 408996.936413654708304, 3660134.779719238635153 ], [ 408996.986413654696662, 3660134.779719238635153 ], [ 408996.986413654696662, 3660134.879719238728285 ], [ 408997.03641365468502, 3660134.879719238728285 ], [ 408997.03641365468502, 3660134.929719239007682 ], [ 408997.086413654731587, 3660134.929719239007682 ], [ 408997.086413654731587, 3660134.979719238821417 ], [ 408997.136413654719945, 3660134.979719238821417 ], [ 408997.136413654719945, 3660135.029719238635153 ], [ 408997.236413654696662, 3660135.029719238635153 ], [ 408997.236413654696662, 3660135.079719238914549 ], [ 408997.336413654731587, 3660135.079719238914549 ], [ 408997.336413654731587, 3660135.129719238728285 ], [ 408997.53641365468502, 3660135.129719238728285 ], [ 408997.53641365468502, 3660135.179719239007682 ], [ 408997.436413654708304, 3660135.179719239007682 ], [ 408997.436413654708304, 3660135.229719238821417 ], [ 408997.336413654731587, 3660135.229719238821417 ], [ 408997.336413654731587, 3660135.279719238635153 ], [ 408997.236413654696662, 3660135.279719238635153 ], [ 408997.236413654696662, 3660135.329719238914549 ], [ 408997.136413654719945, 3660135.329719238914549 ], [ 408997.136413654719945, 3660135.379719238728285 ], [ 408997.03641365468502, 3660135.379719238728285 ], [ 408997.03641365468502, 3660135.429719239007682 ], [ 408996.986413654696662, 3660135.429719239007682 ], [ 408996.986413654696662, 3660135.479719238821417 ], [ 408996.886413654719945, 3660135.479719238821417 ], [ 408996.886413654719945, 3660135.429719239007682 ], [ 408996.636413654719945, 3660135.429719239007682 ], [ 408996.636413654719945, 3660135.379719238728285 ], [ 408996.586413654731587, 3660135.379719238728285 ], [ 408996.586413654731587, 3660135.429719239007682 ], [ 408996.336413654731587, 3660135.429719239007682 ], [ 408996.336413654731587, 3660135.479719238821417 ], [ 408996.28641365468502, 3660135.479719238821417 ], [ 408996.28641365468502, 3660135.429719239007682 ], [ 408995.986413654696662, 3660135.429719239007682 ], [ 408995.986413654696662, 3660135.479719238821417 ], [ 408995.736413654696662, 3660135.479719238821417 ], [ 408995.736413654696662, 3660135.529719238635153 ], [ 408995.686413654708304, 3660135.529719238635153 ], [ 408995.686413654708304, 3660135.479719238821417 ], [ 408995.53641365468502, 3660135.479719238821417 ], [ 408995.53641365468502, 3660135.529719238635153 ], [ 408995.436413654708304, 3660135.529719238635153 ], [ 408995.436413654708304, 3660135.479719238821417 ], [ 408995.136413654719945, 3660135.479719238821417 ], [ 408995.136413654719945, 3660135.529719238635153 ], [ 408994.886413654719945, 3660135.529719238635153 ], [ 408994.886413654719945, 3660135.479719238821417 ], [ 408994.736413654696662, 3660135.479719238821417 ], [ 408994.736413654696662, 3660135.529719238635153 ], [ 408994.636413654719945, 3660135.529719238635153 ] ] ] } }
]
}
