{
"type": "FeatureCollection",
"name": "missing_rows",
"crs": { "type": "name", "properties": { "name": "urn:ogc:def:crs:EPSG::26916" } },
"features": [
{ "type": "Feature", "properties": { "row": 30, "first_segment": 34, "last_segment": 37, "n_segments": 4, "length_m": 4.0 }, "geometry": { "type": "Polygon", "coordinates": [ [ [ 500866.811644433182664, 4480813.850000000558794 ], [ 500866.811780150572304, 4480813.850000000558794 ], [ 500866.811780150572304, 4480814.850000000558794 ], [ 500866.811915868020151, 4480814.850000000558794 ], [ 500866.811915868020151, 4480815.850000000558794 ], [ 500866.812051585467998, 4480815.850000000558794 ], [ 500866.812051585467998, 4480816.819877865724266 ], [ 500867.574051585455891, 4480816.819873639382422 ], [ 500867.574051585455891, 4480815.850000000558794 ], [ 500867.573915868008044, 4480815.850000000558794 ], [ 500867.573915868008044, 4480814.850000000558794 ], [ 500867.573780150618404, 4480814.850000000558794 ], [ 500867.573780150618404, 4480813.850000000558794 ], [ 500867.573644433170557, 4480813.850000000558794 ], [ 500867.573644433170557, 4480813.000012925826013 ], [ 500866.811644433182664, 4480812.999924713745713 ], [ 500866.811644433182664, 4480813.850000000558794 ] ] ] } },
{ "type": "Feature", "properties": { "row": 29, "first_segment": 75, "last_segment": 78, "n_segments": 4, "length_m": 4.0 }, "geometry": { "type": "Polygon", "coordinates": [ [ [ 500867.571888427366503, 4480772.850000000558794 ], [ 500867.57202414481435, 4480772.850000000558794 ], [ 500867.57202414481435, 4480773.850000000558794 ], [ 500867.572159862262197, 4480773.850000000558794 ], [ 500867.572159862262197, 4480774.850000000558794 ], [ 500867.572295579651836, 4480774.850000000558794 ], [ 500867.572295579651836, 4480775.640204072929919 ], [ 500868.334295579639729, 4480775.640199746005237 ], [ 500868.334295579639729, 4480774.850000000558794 ], [ 500868.33415986225009, 4480774.850000000558794 ], [ 500868.33415986225009, 4480773.850000000558794 ], [ 500868.334024144802243, 4480773.850000000558794 ], [ 500868.334024144802243, 4480772.850000000558794 ], [ 500868.333888427412603, 4480772.850000000558794 ], [ 500868.333888427412603, 4480771.89951959438622 ], [ 500867.571888427366503, 4480771.899523922242224 ], [ 500867.571888427366503, 4480772.850000000558794 ] ] ] } },
{ "type": "Feature", "properties": { "row": 29, "first_segment": 34, "last_segment": 37, "n_segments": 4, "length_m": 4.0 }, "geometry": { "type": "Polygon", "coordinates": [ [ [ 500867.577452841680497, 4480813.850000000558794 ], [ 500867.577588559128344, 4480813.850000000558794 ], [ 500867.577588559128344, 4480814.850000000558794 ], [ 500867.577724276576191, 4480814.850000000558794 ], [ 500867.577724276576191, 4480815.850000000558794 ], [ 500867.577859993965831, 4480815.850000000558794 ], [ 500867.577859993965831, 4480816.819873617962003 ], [ 500868.339859993953723, 4480816.819869391620159 ], [ 500868.339859993953723, 4480815.850000000558794 ], [ 500868.339724276564084, 4480815.850000000558794 ], [ 500868.339724276564084, 4480814.850000000558794 ], [ 500868.339588559116237, 4480814.850000000558794 ], [ 500868.339588559116237, 4480813.850000000558794 ], [ 500868.339452841726597, 4480813.850000000558794 ], [ 500868.339452841726597, 4480813.000101578421891 ], [ 500867.577452841680497, 4480813.000013366341591 ], [ 500867.577452841680497, 4480813.850000000558794 ] ] ] } },
{ "type": "Feature", "properties": { "row": 57, "first_segment": 34, "last_segment": 37, "n_segments": 4, "length_m": 4.0 }, "geometry": { "type": "Polygon", "coordinates": [ [ [ 500846.193304397980683, 4480813.850000000558794 ], [ 500846.193436639732681, 4480813.850000000558794 ], [ 500846.193436639732681, 4480814.850000000558794 ], [ 500846.19356888148468, 4480814.850000000558794 ], [ 500846.19356888148468, 4480815.850000000558794 ], [ 500846.193701123236679, 4480815.850000000558794 ], [ 500846.193701123236679, 4480816.599871188402176 ], [ 500846.955701123224571, 4480816.59986468590796 ], [ 500846.955701123224571, 4480815.850000000558794 ], [ 500846.955568881472573, 4480815.850000000558794 ], [ 500846.955568881472573, 4480814.850000000558794 ], [ 500846.955436639720574, 4480814.850000000558794 ], [ 500846.955436639720574, 4480813.850000000558794 ], [ 500846.955304397968575, 4480813.850000000558794 ], [ 500846.955304397968575, 4480812.93022402562201 ], [ 500846.193304397980683, 4480812.930230529047549 ], [ 500846.193304397980683, 4480813.850000000558794 ] ] ] } },
{ "type": "Feature", "properties": { "row": 57, "first_segment": 98, "last_segment": 101, "n_segments": 4, "length_m": 4.0 }, "geometry": { "type": "Polygon", "coordinates": [ [ [ 500846.184840925678145, 4480749.850000000558794 ], [ 500846.184973167430144, 4480749.850000000558794 ], [ 500846.184973167430144, 4480750.850000000558794 ], [ 500846.185105409182142, 4480750.850000000558794 ], [ 500846.185105409182142, 4480751.850000000558794 ], [ 500846.185237650934141, 4480751.850000000558794 ], [ 500846.185237650934141, 4480752.639795313589275 ], [ 500846.947237650922034, 4480752.639788813889027 ], [ 500846.947237650922034, 4480751.850000000558794 ], [ 500846.947105409170035, 4480751.850000000558794 ], [ 500846.947105409170035, 4480750.850000000558794 ], [ 500846.946973167418037, 4480750.850000000558794 ], [ 500846.946973167418037, 4480749.850000000558794 ], [ 500846.946840925666038, 4480749.850000000558794 ], [ 500846.946840925666038, 4480748.850269060581923 ], [ 500846.184840925678145, 4480748.850275560282171 ], [ 500846.184840925678145, 4480749.850000000558794 ] ] ] } },
{ "type": "Feature", "properties": { "row": 57, "first_segment": 89, "last_segment": 92, "n_segments": 4, "length_m": 4.0 }, "geometry": { "type": "Polygon", "coordinates": [ [ [ 500846.186031101446133, 4480758.850000000558794 ], [ 500846.186163343256339, 4480758.850000000558794 ], [ 500846.186163343256339, 4480759.850000000558794 ], [ 500846.186295585008338, 4480759.850000000558794 ], [ 500846.186295585008338, 4480760.850000000558794 ], [ 500846.186427826760337, 4480760.850000000558794 ], [ 500846.186427826760337, 4480761.75952398404479 ], [ 500846.94842782674823, 4480761.75951739680022 ], [ 500846.94842782674823, 4480760.850000000558794 ], [ 500846.948295584996231, 4480760.850000000558794 ], [ 500846.948295584996231, 4480759.850000000558794 ], [ 500846.948163343244232, 4480759.850000000558794 ], [ 500846.948163343244232, 4480758.850000000558794 ], [ 500846.948031101492234, 4480758.850000000558794 ], [ 500846.948031101492234, 4480758.139826755039394 ], [ 500846.186031101446133, 4480758.139833333902061 ], [ 500846.186031101446133, 4480758.850000000558794 ] ] ] } },
{ "type": "Feature", "properties": { "row": 57, "first_segment": 75, "last_segment": 78, "n_segments": 4, "length_m": 4.0 }, "geometry": { "type": "Polygon", "coordinates": [ [ [ 500846.187882486032322, 4480772.850000000558794 ], [ 500846.188014727784321, 4480772.850000000558794 ], [ 500846.188014727784321, 4480773.850000000558794 ], [ 500846.188146969536319, 4480773.850000000558794 ], [ 500846.188146969536319, 4480774.850000000558794 ], [ 500846.188279211288318, 4480774.850000000558794 ], [ 500846.188279211288318, 4480775.620000217109919 ], [ 500846.950279211276211, 4480775.619993715547025 ], [ 500846.950279211276211, 4480774.850000000558794 ], [ 500846.950146969524212, 4480774.850000000558794 ], [ 500846.950146969524212, 4480773.850000000558794 ], [ 500846.950014727772214, 4480773.850000000558794 ], [ 500846.950014727772214, 4480772.850000000558794 ], [ 500846.949882486020215, 4480772.850000000558794 ], [ 500846.949882486020215, 4480771.930086760781705 ], [ 500846.187882486032322, 4480771.93000072054565 ], [ 500846.187882486032322, 4480772.850000000558794 ] ] ] } },
{ "type": "Feature", "properties": { "row": 45, "first_segment": 98, "last_segment": 101, "n_segments": 4, "length_m": 4.0 }, "geometry": { "type": "Polygon", "coordinates": [ [ [ 500855.375962061865721, 4480749.850000000558794 ], [ 500855.37609983922448, 4480749.850000000558794 ], [ 500855.37609983922448, 4480750.850000000558794 ], [ 500855.376237616583239, 4480750.850000000558794 ], [ 500855.376237616583239, 4480751.850000000558794 ], [ 500855.376375393941998, 4480751.850000000558794 ], [ 500855.376375393941998, 4480752.669694964773953 ], [ 500856.138375393988099, 4480752.669689499773085 ], [ 500856.138375393988099, 4480751.850000000558794 ], [ 500856.13823761662934, 4480751.850000000558794 ], [ 500856.13823761662934, 4480750.850000000558794 ], [ 500856.138099839212373, 4480750.850000000558794 ], [ 500856.138099839212373, 4480749.850000000558794 ], [ 500856.137962061853614, 4480749.850000000558794 ], [ 500856.137962061853614, 4480749.010039047338068 ], [ 500855.375962061865721, 4480749.010044513270259 ], [ 500855.375962061865721, 4480749.850000000558794 ] ] ] } },
{ "type": "Feature", "properties": { "row": 30, "first_segment": 57, "last_segment": 59, "n_segments": 3, "length_m": 3.0 }, "geometry": { "type": "Polygon", "coordinates": [ [ [ 500866.808658649912104, 4480790.850000000558794 ], [ 500866.808658649912104, 4480791.850000000558794 ], [ 500866.808794367301743, 4480791.850000000558794 ], [ 500866.808794367301743, 4480792.850000000558794 ], [ 500866.808930084749591, 4480792.850000000558794 ], [ 500866.808930084749591, 4480793.850000000558794 ], [ 500867.570930084737483, 4480793.850000000558794 ], [ 500867.570930084737483, 4480792.850000000558794 ], [ 500867.570794367289636, 4480792.850000000558794 ], [ 500867.570794367289636, 4480791.850000000558794 ], [ 500867.570658649899997, 4480791.850000000558794 ], [ 500867.570658649899997, 4480790.850000000558794 ], [ 500866.808658649912104, 4480790.850000000558794 ] ] ] } },
{ "type": "Feature", "properties": { "row": 29, "first_segment": 21, "last_segment": 23, "n_segments": 3, "length_m": 3.0 }, "geometry": { "type": "Polygon", "coordinates": [ [ [ 500867.579352885601111, 4480826.850000000558794 ], [ 500867.579352885601111, 4480827.850000000558794 ], [ 500867.579488603048958, 4480827.850000000558794 ], [ 500867.579488603048958, 4480828.850000000558794 ], [ 500867.579624320438597, 4480828.850000000558794 ], [ 500867.579624320438597, 4480829.850000000558794 ], [ 500868.341624320484698, 4480829.850000000558794 ], [ 500868.341624320484698, 4480828.850000000558794 ], [ 500868.341488603036851, 4480828.850000000558794 ], [ 500868.341488603036851, 4480827.850000000558794 ], [ 500868.341352885647211, 4480827.850000000558794 ], [ 500868.341352885647211, 4480826.850000000558794 ], [ 500867.579352885601111, 4480826.850000000558794 ] ] ] } },
{ "type": "Feature", "properties": { "row": 29, "first_segment": 25, "last_segment": 27, "n_segments": 3, "length_m": 3.0 }, "geometry": { "type": "Polygon", "coordinates": [ [ [ 500867.578810015926138, 4480822.850000000558794 ], [ 500867.578810015926138, 4480823.850000000558794 ], [ 500867.578945733373985, 4480823.850000000558794 ], [ 500867.578945733373985, 4480824.850000000558794 ], [ 500867.579081450763624, 4480824.850000000558794 ], [ 500867.579081450763624, 4480825.850000000558794 ], [ 500868.341081450751517, 4480825.850000000558794 ], [ 500868.341081450751517, 4480824.850000000558794 ], [ 500868.340945733361878, 4480824.850000000558794 ], [ 500868.340945733361878, 4480823.850000000558794 ], [ 500868.34081001591403, 4480823.850000000558794 ], [ 500868.34081001591403, 4480822.850000000558794 ], [ 500867.578810015926138, 4480822.850000000558794 ] ] ] } },
{ "type": "Feature", "properties": { "row": 29, "first_segment": 98, "last_segment": 100, "n_segments": 3, "length_m": 3.0 }, "geometry": { "type": "Polygon", "coordinates": [ [ [ 500867.568902644095942, 4480749.850000000558794 ], [ 500867.568902644095942, 4480750.850000000558794 ], [ 500867.56903836154379, 4480750.850000000558794 ], [ 500867.56903836154379, 4480751.850000000558794 ], [ 500867.569174078933429, 4480751.850000000558794 ], [ 500867.569174078933429, 4480752.669988996349275 ], [ 500868.331174078921322, 4480752.669984670355916 ], [ 500868.331174078921322, 4480751.850000000558794 ], [ 500868.331038361531682, 4480751.850000000558794 ], [ 500868.331038361531682, 4480750.850000000558794 ], [ 500868.330902644083835, 4480750.850000000558794 ], [ 500868.330902644083835, 4480749.850000000558794 ], [ 500867.568902644095942, 4480749.850000000558794 ] ] ] } },
{ "type": "Feature", "properties": { "row": 29, "first_segment": 94, "last_segment": 96, "n_segments": 3, "length_m": 3.0 }, "geometry": { "type": "Polygon", "coordinates": [ [ [ 500867.569445513770916, 4480753.850000000558794 ], [ 500867.569445513770916, 4480754.850000000558794 ], [ 500867.569581231218763, 4480754.850000000558794 ], [ 500867.569581231218763, 4480755.850000000558794 ], [ 500867.569716948608402, 4480755.850000000558794 ], [ 500867.569716948608402, 4480756.850000000558794 ], [ 500868.331716948654503, 4480756.850000000558794 ], [ 500868.331716948654503, 4480755.850000000558794 ], [ 500868.331581231206656, 4480755.850000000558794 ], [ 500868.331581231206656, 4480754.850000000558794 ], [ 500868.331445513817016, 4480754.850000000558794 ], [ 500868.331445513817016, 4480753.850000000558794 ], [ 500867.569445513770916, 4480753.850000000558794 ] ] ] } },
{ "type": "Feature", "properties": { "row": 29, "first_segment": 85, "last_segment": 87, "n_segments": 3, "length_m": 3.0 }, "geometry": { "type": "Polygon", "coordinates": [ [ [ 500867.570666970568709, 4480762.850000000558794 ], [ 500867.570666970568709, 4480763.850000000558794 ], [ 500867.570802688016556, 4480763.850000000558794 ], [ 500867.570802688016556, 4480764.850000000558794 ], [ 500867.570938405406196, 4480764.850000000558794 ], [ 500867.570938405406196, 4480765.850000000558794 ], [ 500868.332938405452296, 4480765.850000000558794 ], [ 500868.332938405452296, 4480764.850000000558794 ], [ 500868.332802688004449, 4480764.850000000558794 ], [ 500868.332802688004449, 4480763.850000000558794 ], [ 500868.33266697061481, 4480763.850000000558794 ], [ 500868.33266697061481, 4480762.850000000558794 ], [ 500867.570666970568709, 4480762.850000000558794 ] ] ] } },
{ "type": "Feature", "properties": { "row": 29, "first_segment": 48, "last_segment": 50, "n_segments": 3, "length_m": 3.0 }, "geometry": { "type": "Polygon", "coordinates": [ [ [ 500867.57568851520773, 4480799.850000000558794 ], [ 500867.57568851520773, 4480800.850000000558794 ], [ 500867.575824232655577, 4480800.850000000558794 ], [ 500867.575824232655577, 4480801.850000000558794 ], [ 500867.575959950045217, 4480801.850000000558794 ], [ 500867.575959950045217, 4480802.850000000558794 ], [ 500868.337959950091317, 4480802.850000000558794 ], [ 500868.337959950091317, 4480801.850000000558794 ], [ 500868.33782423264347, 4480801.850000000558794 ], [ 500868.33782423264347, 4480800.850000000558794 ], [ 500868.337688515195623, 4480800.850000000558794 ], [ 500868.337688515195623, 4480799.850000000558794 ], [ 500867.57568851520773, 4480799.850000000558794 ] ] ] } },
{ "type": "Feature", "properties": { "row": 29, "first_segment": 62, "last_segment": 64, "n_segments": 3, "length_m": 3.0 }, "geometry": { "type": "Polygon", "coordinates": [ [ [ 500867.573788471287116, 4480785.850000000558794 ], [ 500867.573788471287116, 4480786.850000000558794 ], [ 500867.573924188734964, 4480786.850000000558794 ], [ 500867.573924188734964, 4480787.850000000558794 ], [ 500867.574059906124603, 4480787.850000000558794 ], [ 500867.574059906124603, 4480788.850000000558794 ], [ 500868.336059906170703, 4480788.850000000558794 ], [ 500868.336059906170703, 4480787.850000000558794 ], [ 500868.335924188722856, 4480787.850000000558794 ], [ 500868.335924188722856, 4480786.850000000558794 ], [ 500868.335788471333217, 4480786.850000000558794 ], [ 500868.335788471333217, 4480785.850000000558794 ], [ 500867.573788471287116, 4480785.850000000558794 ] ] ] } },
{ "type": "Feature", "properties": { "row": 29, "first_segment": 57, "last_segment": 59, "n_segments": 3, "length_m": 3.0 }, "geometry": { "type": "Polygon", "coordinates": [ [ [ 500867.574467058409937, 4480790.850000000558794 ], [ 500867.574467058409937, 4480791.850000000558794 ], [ 500867.574602775857784, 4480791.850000000558794 ], [ 500867.574602775857784, 4480792.850000000558794 ], [ 500867.574738493247423, 4480792.850000000558794 ], [ 500867.574738493247423, 4480793.850000000558794 ], [ 500868.336738493235316, 4480793.850000000558794 ], [ 500868.336738493235316, 4480792.850000000558794 ], [ 500868.336602775845677, 4480792.850000000558794 ], [ 500868.336602775845677, 4480791.850000000558794 ], [ 500868.33646705839783, 4480791.850000000558794 ], [ 500868.33646705839783, 4480790.850000000558794 ], [ 500867.574467058409937, 4480790.850000000558794 ] ] ] } },
{ "type": "Feature", "properties": { "row": 29, "first_segment": 71, "last_segment": 73, "n_segments": 3, "length_m": 3.0 }, "geometry": { "type": "Polygon", "coordinates": [ [ [ 500867.572567014489323, 4480776.850000000558794 ], [ 500867.572567014489323, 4480777.850000000558794 ], [ 500867.57270273193717, 4480777.850000000558794 ], [ 500867.57270273193717, 4480778.850000000558794 ], [ 500867.572838449326809, 4480778.850000000558794 ], [ 500867.572838449326809, 4480779.850000000558794 ], [ 500868.33483844937291, 4480779.850000000558794 ], [ 500868.33483844937291, 4480778.850000000558794 ], [ 500868.334702731925063, 4480778.850000000558794 ], [ 500868.334702731925063, 4480777.850000000558794 ], [ 500868.334567014477216, 4480777.850000000558794 ], [ 500868.334567014477216, 4480776.850000000558794 ], [ 500867.572567014489323, 4480776.850000000558794 ] ] ] } },
{ "type": "Feature", "properties": { "row": 29, "first_segment": 39, "last_segment": 41, "n_segments": 3, "length_m": 3.0 }, "geometry": { "type": "Polygon", "coordinates": [ [ [ 500867.576909972005524, 4480808.850000000558794 ], [ 500867.576909972005524, 4480809.850000000558794 ], [ 500867.577045689453371, 4480809.850000000558794 ], [ 500867.577045689453371, 4480810.850000000558794 ], [ 500867.57718140684301, 4480810.850000000558794 ], [ 500867.57718140684301, 4480811.850000000558794 ], [ 500868.339181406889111, 4480811.850000000558794 ], [ 500868.339181406889111, 4480810.850000000558794 ], [ 500868.339045689441264, 4480810.850000000558794 ], [ 500868.339045689441264, 4480809.850000000558794 ], [ 500868.338909971993417, 4480809.850000000558794 ], [ 500868.338909971993417, 4480808.850000000558794 ], [ 500867.576909972005524, 4480808.850000000558794 ] ] ] } },
{ "type": "Feature", "properties": { "row": 30, "first_segment": 89, "last_segment": 91, "n_segments": 3, "length_m": 3.0 }, "geometry": { "type": "Polygon", "coordinates": [ [ [ 500866.804315692395903, 4480758.850000000558794 ], [ 500866.804315692395903, 4480759.850000000558794 ], [ 500866.804451409785543, 4480759.850000000558794 ], [ 500866.804451409785543, 4480760.850000000558794 ], [ 500866.80458712723339, 4480760.850000000558794 ], [ 500866.80458712723339, 4480761.819685920141637 ], [ 500867.566587127221283, 4480761.819681509397924 ], [ 500867.566587127221283, 4480760.850000000558794 ], [ 500867.566451409773435, 4480760.850000000558794 ], [ 500867.566451409773435, 4480759.850000000558794 ], [ 500867.566315692383796, 4480759.850000000558794 ], [ 500867.566315692383796, 4480758.850000000558794 ], [ 500866.804315692395903, 4480758.850000000558794 ] ] ] } },
{ "type": "Feature", "properties": { "row": 30, "first_segment": 85, "last_segment": 87, "n_segments": 3, "length_m": 3.0 }, "geometry": { "type": "Polygon", "coordinates": [ [ [ 500866.804858562070876, 4480762.850000000558794 ], [ 500866.804858562070876, 4480763.850000000558794 ], [ 500866.804994279460516, 4480763.850000000558794 ], [ 500866.804994279460516, 4480764.850000000558794 ], [ 500866.805129996908363, 4480764.850000000558794 ], [ 500866.805129996908363, 4480765.850000000558794 ], [ 500867.567129996896256, 4480765.850000000558794 ], [ 500867.567129996896256, 4480764.850000000558794 ], [ 500867.566994279506616, 4480764.850000000558794 ], [ 500867.566994279506616, 4480763.850000000558794 ], [ 500867.566858562058769, 4480763.850000000558794 ], [ 500867.566858562058769, 4480762.850000000558794 ], [ 500866.804858562070876, 4480762.850000000558794 ] ] ] } },
{ "type": "Feature", "properties": { "row": 45, "first_segment": 39, "last_segment": 41, "n_segments": 3, "length_m": 3.0 }, "geometry": { "type": "Polygon", "coordinates": [ [ [ 500855.384228704031557, 4480808.850000000558794 ], [ 500855.384228704031557, 4480809.850000000558794 ], [ 500855.384366481390316, 4480809.850000000558794 ], [ 500855.384366481390316, 4480810.850000000558794 ], [ 500855.384504258749075, 4480810.850000000558794 ], [ 500855.384504258749075, 4480811.850000000558794 ], [ 500856.146504258795176, 4480811.850000000558794 ], [ 500856.146504258795176, 4480810.850000000558794 ], [ 500856.146366481378209, 4480810.850000000558794 ], [ 500856.146366481378209, 4480809.850000000558794 ], [ 500856.14622870401945, 4480809.850000000558794 ], [ 500856.14622870401945, 4480808.850000000558794 ], [ 500855.384228704031557, 4480808.850000000558794 ] ] ] } },
{ "type": "Feature", "properties": { "row": 45, "first_segment": 53, "last_segment": 55, "n_segments": 3, "length_m": 3.0 }, "geometry": { "type": "Polygon", "coordinates": [ [ [ 500855.382299820834305, 4480794.850000000558794 ], [ 500855.382299820834305, 4480795.850000000558794 ], [ 500855.382437598251272, 4480795.850000000558794 ], [ 500855.382437598251272, 4480796.850000000558794 ], [ 500855.382575375610031, 4480796.850000000558794 ], [ 500855.382575375610031, 4480797.850000000558794 ], [ 500856.144575375597924, 4480797.850000000558794 ], [ 500856.144575375597924, 4480796.850000000558794 ], [ 500856.144437598239165, 4480796.850000000558794 ], [ 500856.144437598239165, 4480795.850000000558794 ], [ 500856.144299820880406, 4480795.850000000558794 ], [ 500856.144299820880406, 4480794.850000000558794 ], [ 500855.382299820834305, 4480794.850000000558794 ] ] ] } },
{ "type": "Feature", "properties": { "row": 45, "first_segment": 89, "last_segment": 91, "n_segments": 3, "length_m": 3.0 }, "geometry": { "type": "Polygon", "coordinates": [ [ [ 500855.377339835569728, 4480758.850000000558794 ], [ 500855.377339835569728, 4480759.850000000558794 ], [ 500855.377477612928487, 4480759.850000000558794 ], [ 500855.377477612928487, 4480760.850000000558794 ], [ 500855.377615390287247, 4480760.850000000558794 ], [ 500855.377615390287247, 4480761.850000000558794 ], [ 500856.139615390275139, 4480761.850000000558794 ], [ 500856.139615390275139, 4480760.850000000558794 ], [ 500856.13947761291638, 4480760.850000000558794 ], [ 500856.13947761291638, 4480759.850000000558794 ], [ 500856.139339835557621, 4480759.850000000558794 ], [ 500856.139339835557621, 4480758.850000000558794 ], [ 500855.377339835569728, 4480758.850000000558794 ] ] ] } },
{ "type": "Feature", "properties": { "row": 46, "first_segment": 21, "last_segment": 23, "n_segments": 3, "length_m": 3.0 }, "geometry": { "type": "Polygon", "coordinates": [ [ [ 500854.608984067395795, 4480826.850000000558794 ], [ 500854.608984067395795, 4480827.850000000558794 ], [ 500854.609121844754554, 4480827.850000000558794 ], [ 500854.609121844754554, 4480828.850000000558794 ], [ 500854.609259622171521, 4480828.850000000558794 ], [ 500854.609259622171521, 4480829.850000000558794 ], [ 500855.371259622159414, 4480829.850000000558794 ], [ 500855.371259622159414, 4480828.850000000558794 ], [ 500855.371121844800655, 4480828.850000000558794 ], [ 500855.371121844800655, 4480827.850000000558794 ], [ 500855.370984067383688, 4480827.850000000558794 ], [ 500855.370984067383688, 4480826.850000000558794 ], [ 500854.608984067395795, 4480826.850000000558794 ] ] ] } },
{ "type": "Feature", "properties": { "row": 46, "first_segment": 48, "last_segment": 50, "n_segments": 3, "length_m": 3.0 }, "geometry": { "type": "Polygon", "coordinates": [ [ [ 500854.605264078418259, 4480799.850000000558794 ], [ 500854.605264078418259, 4480800.850000000558794 ], [ 500854.605401855777018, 4480800.850000000558794 ], [ 500854.605401855777018, 4480801.850000000558794 ], [ 500854.605539633193985, 4480801.850000000558794 ], [ 500854.605539633193985, 4480802.850000000558794 ], [ 500855.367539633181877, 4480802.850000000558794 ], [ 500855.367539633181877, 4480801.850000000558794 ], [ 500855.367401855823118, 4480801.850000000558794 ], [ 500855.367401855823118, 4480800.850000000558794 ], [ 500855.367264078406151, 4480800.850000000558794 ], [ 500855.367264078406151, 4480799.850000000558794 ], [ 500854.605264078418259, 4480799.850000000558794 ] ] ] } },
{ "type": "Feature", "properties": { "row": 46, "first_segment": 44, "last_segment": 46, "n_segments": 3, "length_m": 3.0 }, "geometry": { "type": "Polygon", "coordinates": [ [ [ 500854.605815187911503, 4480803.850000000558794 ], [ 500854.605815187911503, 4480804.850000000558794 ], [ 500854.605952965270262, 4480804.850000000558794 ], [ 500854.605952965270262, 4480805.850000000558794 ], [ 500854.606090742629021, 4480805.850000000558794 ], [ 500854.606090742629021, 4480806.850000000558794 ], [ 500855.368090742675122, 4480806.850000000558794 ], [ 500855.368090742675122, 4480805.850000000558794 ], [ 500855.367952965258155, 4480805.850000000558794 ], [ 500855.367952965258155, 4480804.850000000558794 ], [ 500855.367815187899396, 4480804.850000000558794 ], [ 500855.367815187899396, 4480803.850000000558794 ], [ 500854.605815187911503, 4480803.850000000558794 ] ] ] } },
{ "type": "Feature", "properties": { "row": 45, "first_segment": 48, "last_segment": 50, "n_segments": 3, "length_m": 3.0 }, "geometry": { "type": "Polygon", "coordinates": [ [ [ 500855.382988707686309, 4480799.850000000558794 ], [ 500855.382988707686309, 4480800.850000000558794 ], [ 500855.383126485103276, 4480800.850000000558794 ], [ 500855.383126485103276, 4480801.850000000558794 ], [ 500855.383264262462035, 4480801.850000000558794 ], [ 500855.383264262462035, 4480802.850000000558794 ], [ 500856.145264262449928, 4480802.850000000558794 ], [ 500856.145264262449928, 4480801.850000000558794 ], [ 500856.145126485091168, 4480801.850000000558794 ], [ 500856.145126485091168, 4480800.850000000558794 ], [ 500856.144988707732409, 4480800.850000000558794 ], [ 500856.144988707732409, 4480799.850000000558794 ], [ 500855.382988707686309, 4480799.850000000558794 ] ] ] } },
{ "type": "Feature", "properties": { "row": 45, "first_segment": 67, "last_segment": 69, "n_segments": 3, "length_m": 3.0 }, "geometry": { "type": "Polygon", "coordinates": [ [ [ 500855.380370937695261, 4480780.930145875550807 ], [ 500855.380370937695261, 4480781.850000000558794 ], [ 500855.38050871505402, 4480781.850000000558794 ], [ 500855.38050871505402, 4480782.850000000558794 ], [ 500855.380646492412779, 4480782.850000000558794 ], [ 500855.380646492412779, 4480783.850000000558794 ], [ 500856.142646492400672, 4480783.850000000558794 ], [ 500856.142646492400672, 4480782.850000000558794 ], [ 500856.142508715041913, 4480782.850000000558794 ], [ 500856.142508715041913, 4480781.850000000558794 ], [ 500856.142370937683154, 4480781.850000000558794 ], [ 500856.142370937683154, 4480780.930140309035778 ], [ 500855.380370937695261, 4480780.930145875550807 ] ] ] } },
{ "type": "Feature", "properties": { "row": 45, "first_segment": 21, "last_segment": 23, "n_segments": 3, "length_m": 3.0 }, "geometry": { "type": "Polygon", "coordinates": [ [ [ 500855.386708696663845, 4480826.850000000558794 ], [ 500855.386708696663845, 4480827.850000000558794 ], [ 500855.386846474080812, 4480827.850000000558794 ], [ 500855.386846474080812, 4480828.850000000558794 ], [ 500855.386984251439571, 4480828.850000000558794 ], [ 500855.386984251439571, 4480829.850000000558794 ], [ 500856.148984251427464, 4480829.850000000558794 ], [ 500856.148984251427464, 4480828.850000000558794 ], [ 500856.148846474068705, 4480828.850000000558794 ], [ 500856.148846474068705, 4480827.850000000558794 ], [ 500856.148708696709946, 4480827.850000000558794 ], [ 500856.148708696709946, 4480826.850000000558794 ], [ 500855.386708696663845, 4480826.850000000558794 ] ] ] } },
{ "type": "Feature", "properties": { "row": 29, "first_segment": 89, "last_segment": 91, "n_segments": 3, "length_m": 3.0 }, "geometry": { "type": "Polygon", "coordinates": [ [ [ 500867.570124100893736, 4480758.850000000558794 ], [ 500867.570124100893736, 4480759.850000000558794 ], [ 500867.570259818341583, 4480759.850000000558794 ], [ 500867.570259818341583, 4480760.850000000558794 ], [ 500867.570395535731222, 4480760.850000000558794 ], [ 500867.570395535731222, 4480761.819681487046182 ], [ 500868.332395535719115, 4480761.819677076302469 ], [ 500868.332395535719115, 4480760.850000000558794 ], [ 500868.332259818329476, 4480760.850000000558794 ], [ 500868.332259818329476, 4480759.850000000558794 ], [ 500868.332124100881629, 4480759.850000000558794 ], [ 500868.332124100881629, 4480758.850000000558794 ], [ 500867.570124100893736, 4480758.850000000558794 ] ] ] } },
{ "type": "Feature", "properties": { "row": 30, "first_segment": 48, "last_segment": 50, "n_segments": 3, "length_m": 3.0 }, "geometry": { "type": "Polygon", "coordinates": [ [ [ 500866.809880106709898, 4480799.850000000558794 ], [ 500866.809880106709898, 4480800.850000000558794 ], [ 500866.810015824099537, 4480800.850000000558794 ], [ 500866.810015824099537, 4480801.850000000558794 ], [ 500866.810151541547384, 4480801.850000000558794 ], [ 500866.810151541547384, 4480802.850000000558794 ], [ 500867.572151541535277, 4480802.850000000558794 ], [ 500867.572151541535277, 4480801.850000000558794 ], [ 500867.57201582408743, 4480801.850000000558794 ], [ 500867.57201582408743, 4480800.850000000558794 ], [ 500867.57188010669779, 4480800.850000000558794 ], [ 500867.57188010669779, 4480799.850000000558794 ], [ 500866.809880106709898, 4480799.850000000558794 ] ] ] } },
{ "type": "Feature", "properties": { "row": 30, "first_segment": 39, "last_segment": 41, "n_segments": 3, "length_m": 3.0 }, "geometry": { "type": "Polygon", "coordinates": [ [ [ 500866.811101563507691, 4480808.850000000558794 ], [ 500866.811101563507691, 4480809.850000000558794 ], [ 500866.81123728089733, 4480809.850000000558794 ], [ 500866.81123728089733, 4480810.850000000558794 ], [ 500866.811372998345178, 4480810.850000000558794 ], [ 500866.811372998345178, 4480811.850000000558794 ], [ 500867.57337299833307, 4480811.850000000558794 ], [ 500867.57337299833307, 4480810.850000000558794 ], [ 500867.573237280885223, 4480810.850000000558794 ], [ 500867.573237280885223, 4480809.850000000558794 ], [ 500867.573101563495584, 4480809.850000000558794 ], [ 500867.573101563495584, 4480808.850000000558794 ], [ 500866.811101563507691, 4480808.850000000558794 ] ] ] } },
{ "type": "Feature", "properties": { "row": 30, "first_segment": 25, "last_segment": 27, "n_segments": 3, "length_m": 3.0 }, "geometry": { "type": "Polygon", "coordinates": [ [ [ 500866.813001607428305, 4480822.850000000558794 ], [ 500866.813001607428305, 4480823.850000000558794 ], [ 500866.813137324817944, 4480823.850000000558794 ], [ 500866.813137324817944, 4480824.850000000558794 ], [ 500866.813273042265791, 4480824.850000000558794 ], [ 500866.813273042265791, 4480825.850000000558794 ], [ 500867.575273042253684, 4480825.850000000558794 ], [ 500867.575273042253684, 4480824.850000000558794 ], [ 500867.575137324805837, 4480824.850000000558794 ], [ 500867.575137324805837, 4480823.850000000558794 ], [ 500867.575001607416198, 4480823.850000000558794 ], [ 500867.575001607416198, 4480822.850000000558794 ], [ 500866.813001607428305, 4480822.850000000558794 ] ] ] } },
{ "type": "Feature", "properties": { "row": 29, "first_segment": 53, "last_segment": 55, "n_segments": 3, "length_m": 3.0 }, "geometry": { "type": "Polygon", "coordinates": [ [ [ 500867.57500992808491, 4480794.850000000558794 ], [ 500867.57500992808491, 4480795.850000000558794 ], [ 500867.575145645532757, 4480795.850000000558794 ], [ 500867.575145645532757, 4480796.850000000558794 ], [ 500867.575281362922397, 4480796.850000000558794 ], [ 500867.575281362922397, 4480797.850000000558794 ], [ 500868.337281362968497, 4480797.850000000558794 ], [ 500868.337281362968497, 4480796.850000000558794 ], [ 500868.33714564552065, 4480796.850000000558794 ], [ 500868.33714564552065, 4480795.850000000558794 ], [ 500868.33700992813101, 4480795.850000000558794 ], [ 500868.33700992813101, 4480794.850000000558794 ], [ 500867.57500992808491, 4480794.850000000558794 ] ] ] } },
{ "type": "Feature", "properties": { "row": 58, "first_segment": 85, "last_segment": 87, "n_segments": 3, "length_m": 3.0 }, "geometry": { "type": "Polygon", "coordinates": [ [ [ 500845.440185780869797, 4480762.850000000558794 ], [ 500845.440185780869797, 4480763.850000000558794 ], [ 500845.440318022621796, 4480763.850000000558794 ], [ 500845.440318022621796, 4480764.850000000558794 ], [ 500845.440450264373794, 4480764.850000000558794 ], [ 500845.440450264373794, 4480765.850000000558794 ], [ 500846.202450264361687, 4480765.850000000558794 ], [ 500846.202450264361687, 4480764.850000000558794 ], [ 500846.202318022609688, 4480764.850000000558794 ], [ 500846.202318022609688, 4480763.850000000558794 ], [ 500846.20218578085769, 4480763.850000000558794 ], [ 500846.20218578085769, 4480762.850000000558794 ], [ 500845.440185780869797, 4480762.850000000558794 ] ] ] } },
{ "type": "Feature", "properties": { "row": 57, "first_segment": 94, "last_segment": 96, "n_segments": 3, "length_m": 3.0 }, "geometry": { "type": "Polygon", "coordinates": [ [ [ 500846.185502134438138, 4480753.850000000558794 ], [ 500846.185502134438138, 4480754.850000000558794 ], [ 500846.185634376190137, 4480754.850000000558794 ], [ 500846.185634376190137, 4480755.850000000558794 ], [ 500846.185766617942136, 4480755.850000000558794 ], [ 500846.185766617942136, 4480756.850000000558794 ], [ 500846.947766617988236, 4480756.850000000558794 ], [ 500846.947766617988236, 4480755.850000000558794 ], [ 500846.947634376236238, 4480755.850000000558794 ], [ 500846.947634376236238, 4480754.850000000558794 ], [ 500846.947502134426031, 4480754.850000000558794 ], [ 500846.947502134426031, 4480753.850000000558794 ], [ 500846.185502134438138, 4480753.850000000558794 ] ] ] } },
{ "type": "Feature", "properties": { "row": 57, "first_segment": 53, "last_segment": 55, "n_segments": 3, "length_m": 3.0 }, "geometry": { "type": "Polygon", "coordinates": [ [ [ 500846.190924046386499, 4480794.850000000558794 ], [ 500846.190924046386499, 4480795.850000000558794 ], [ 500846.191056288138498, 4480795.850000000558794 ], [ 500846.191056288138498, 4480796.850000000558794 ], [ 500846.191188529890496, 4480796.850000000558794 ], [ 500846.191188529890496, 4480797.850000000558794 ], [ 500846.953188529936597, 4480797.850000000558794 ], [ 500846.953188529936597, 4480796.850000000558794 ], [ 500846.95305628812639, 4480796.850000000558794 ], [ 500846.95305628812639, 4480795.850000000558794 ], [ 500846.952924046374392, 4480795.850000000558794 ], [ 500846.952924046374392, 4480794.850000000558794 ], [ 500846.190924046386499, 4480794.850000000558794 ] ] ] } },
{ "type": "Feature", "properties": { "row": 57, "first_segment": 80, "last_segment": 82, "n_segments": 3, "length_m": 3.0 }, "geometry": { "type": "Polygon", "coordinates": [ [ [ 500846.187353519024327, 4480767.850000000558794 ], [ 500846.187353519024327, 4480768.850000000558794 ], [ 500846.187485760776326, 4480768.850000000558794 ], [ 500846.187485760776326, 4480769.850000000558794 ], [ 500846.187618002528325, 4480769.850000000558794 ], [ 500846.187618002528325, 4480770.850000000558794 ], [ 500846.949618002516218, 4480770.850000000558794 ], [ 500846.949618002516218, 4480769.850000000558794 ], [ 500846.949485760764219, 4480769.850000000558794 ], [ 500846.949485760764219, 4480768.850000000558794 ], [ 500846.94935351901222, 4480768.850000000558794 ], [ 500846.94935351901222, 4480767.850000000558794 ], [ 500846.187353519024327, 4480767.850000000558794 ] ] ] } },
{ "type": "Feature", "properties": { "row": 57, "first_segment": 85, "last_segment": 87, "n_segments": 3, "length_m": 3.0 }, "geometry": { "type": "Polygon", "coordinates": [ [ [ 500846.186692310264334, 4480762.850000000558794 ], [ 500846.186692310264334, 4480763.850000000558794 ], [ 500846.186824552016333, 4480763.850000000558794 ], [ 500846.186824552016333, 4480764.850000000558794 ], [ 500846.186956793768331, 4480764.850000000558794 ], [ 500846.186956793768331, 4480765.850000000558794 ], [ 500846.948956793756224, 4480765.850000000558794 ], [ 500846.948956793756224, 4480764.850000000558794 ], [ 500846.948824552004226, 4480764.850000000558794 ], [ 500846.948824552004226, 4480763.850000000558794 ], [ 500846.948692310252227, 4480763.850000000558794 ], [ 500846.948692310252227, 4480762.850000000558794 ], [ 500846.186692310264334, 4480762.850000000558794 ] ] ] } },
{ "type": "Feature", "properties": { "row": 57, "first_segment": 71, "last_segment": 73, "n_segments": 3, "length_m": 3.0 }, "geometry": { "type": "Polygon", "coordinates": [ [ [ 500846.188543694792315, 4480776.850000000558794 ], [ 500846.188543694792315, 4480777.850000000558794 ], [ 500846.188675936544314, 4480777.850000000558794 ], [ 500846.188675936544314, 4480778.850000000558794 ], [ 500846.188808178296313, 4480778.850000000558794 ], [ 500846.188808178296313, 4480779.850000000558794 ], [ 500846.950808178342413, 4480779.850000000558794 ], [ 500846.950808178342413, 4480778.850000000558794 ], [ 500846.950675936590414, 4480778.850000000558794 ], [ 500846.950675936590414, 4480777.850000000558794 ], [ 500846.950543694838416, 4480777.850000000558794 ], [ 500846.950543694838416, 4480776.850000000558794 ], [ 500846.188543694792315, 4480776.850000000558794 ] ] ] } },
{ "type": "Feature", "properties": { "row": 57, "first_segment": 57, "last_segment": 59, "n_segments": 3, "length_m": 3.0 }, "geometry": { "type": "Polygon", "coordinates": [ [ [ 500846.190395079378504, 4480790.850000000558794 ], [ 500846.190395079378504, 4480791.850000000558794 ], [ 500846.190527321130503, 4480791.850000000558794 ], [ 500846.190527321130503, 4480792.850000000558794 ], [ 500846.190659562882502, 4480792.850000000558794 ], [ 500846.190659562882502, 4480793.850000000558794 ], [ 500846.952659562870394, 4480793.850000000558794 ], [ 500846.952659562870394, 4480792.850000000558794 ], [ 500846.952527321118396, 4480792.850000000558794 ], [ 500846.952527321118396, 4480791.850000000558794 ], [ 500846.952395079366397, 4480791.850000000558794 ], [ 500846.952395079366397, 4480790.850000000558794 ], [ 500846.190395079378504, 4480790.850000000558794 ] ] ] } },
{ "type": "Feature", "properties": { "row": 57, "first_segment": 62, "last_segment": 64, "n_segments": 3, "length_m": 3.0 }, "geometry": { "type": "Polygon", "coordinates": [ [ [ 500846.189733870618511, 4480785.850000000558794 ], [ 500846.189733870618511, 4480786.850000000558794 ], [ 500846.18986611237051, 4480786.850000000558794 ], [ 500846.18986611237051, 4480787.850000000558794 ], [ 500846.189998354122508, 4480787.850000000558794 ], [ 500846.189998354122508, 4480788.850000000558794 ], [ 500846.951998354110401, 4480788.850000000558794 ], [ 500846.951998354110401, 4480787.850000000558794 ], [ 500846.951866112358402, 4480787.850000000558794 ], [ 500846.951866112358402, 4480786.850000000558794 ], [ 500846.951733870606404, 4480786.850000000558794 ], [ 500846.951733870606404, 4480785.850000000558794 ], [ 500846.189733870618511, 4480785.850000000558794 ] ] ] } },
{ "type": "Feature", "properties": { "row": 57, "first_segment": 30, "last_segment": 32, "n_segments": 3, "length_m": 3.0 }, "geometry": { "type": "Polygon", "coordinates": [ [ [ 500846.193965606740676, 4480817.850000000558794 ], [ 500846.193965606740676, 4480818.850000000558794 ], [ 500846.194097848492675, 4480818.850000000558794 ], [ 500846.194097848492675, 4480819.850000000558794 ], [ 500846.194230090244673, 4480819.850000000558794 ], [ 500846.194230090244673, 4480820.850000000558794 ], [ 500846.956230090290774, 4480820.850000000558794 ], [ 500846.956230090290774, 4480819.850000000558794 ], [ 500846.956097848538775, 4480819.850000000558794 ], [ 500846.956097848538775, 4480818.850000000558794 ], [ 500846.955965606728569, 4480818.850000000558794 ], [ 500846.955965606728569, 4480817.850000000558794 ], [ 500846.193965606740676, 4480817.850000000558794 ] ] ] } },
{ "type": "Feature", "properties": { "row": 57, "first_segment": 21, "last_segment": 23, "n_segments": 3, "length_m": 3.0 }, "geometry": { "type": "Polygon", "coordinates": [ [ [ 500846.195155782566871, 4480826.850000000558794 ], [ 500846.195155782566871, 4480827.850000000558794 ], [ 500846.19528802431887, 4480827.850000000558794 ], [ 500846.19528802431887, 4480828.850000000558794 ], [ 500846.195420266070869, 4480828.850000000558794 ], [ 500846.195420266070869, 4480829.850000000558794 ], [ 500846.957420266058762, 4480829.850000000558794 ], [ 500846.957420266058762, 4480828.850000000558794 ], [ 500846.957288024306763, 4480828.850000000558794 ], [ 500846.957288024306763, 4480827.850000000558794 ], [ 500846.957155782554764, 4480827.850000000558794 ], [ 500846.957155782554764, 4480826.850000000558794 ], [ 500846.195155782566871, 4480826.850000000558794 ] ] ] } },
{ "type": "Feature", "properties": { "row": 57, "first_segment": 25, "last_segment": 27, "n_segments": 3, "length_m": 3.0 }, "geometry": { "type": "Polygon", "coordinates": [ [ [ 500846.194626815558877, 4480822.850000000558794 ], [ 500846.194626815558877, 4480823.850000000558794 ], [ 500846.194759057310876, 4480823.850000000558794 ], [ 500846.194759057310876, 4480824.850000000558794 ], [ 500846.194891299062874, 4480824.850000000558794 ], [ 500846.194891299062874, 4480825.769541615620255 ], [ 500846.956891299050767, 4480825.76953512057662 ], [ 500846.956891299050767, 4480824.850000000558794 ], [ 500846.956759057298768, 4480824.850000000558794 ], [ 500846.956759057298768, 4480823.850000000558794 ], [ 500846.95662681554677, 4480823.850000000558794 ], [ 500846.95662681554677, 4480822.850000000558794 ], [ 500846.194626815558877, 4480822.850000000558794 ] ] ] } },
{ "type": "Feature", "properties": { "row": 57, "first_segment": 48, "last_segment": 50, "n_segments": 3, "length_m": 3.0 }, "geometry": { "type": "Polygon", "coordinates": [ [ [ 500846.191585255146492, 4480799.850000000558794 ], [ 500846.191585255146492, 4480800.850000000558794 ], [ 500846.191717496898491, 4480800.850000000558794 ], [ 500846.191717496898491, 4480801.850000000558794 ], [ 500846.191849738708697, 4480801.850000000558794 ], [ 500846.191849738708697, 4480802.850000000558794 ], [ 500846.95384973869659, 4480802.850000000558794 ], [ 500846.95384973869659, 4480801.850000000558794 ], [ 500846.953717496944591, 4480801.850000000558794 ], [ 500846.953717496944591, 4480800.850000000558794 ], [ 500846.953585255192593, 4480800.850000000558794 ], [ 500846.953585255192593, 4480799.850000000558794 ], [ 500846.191585255146492, 4480799.850000000558794 ] ] ] } },
{ "type": "Feature", "properties": { "row": 45, "first_segment": 80, "last_segment": 82, "n_segments": 3, "length_m": 3.0 }, "geometry": { "type": "Polygon", "coordinates": [ [ [ 500855.378579831856769, 4480767.850000000558794 ], [ 500855.378579831856769, 4480768.850000000558794 ], [ 500855.378717609273735, 4480768.850000000558794 ], [ 500855.378717609273735, 4480769.850000000558794 ], [ 500855.378855386632495, 4480769.850000000558794 ], [ 500855.378855386632495, 4480770.850000000558794 ], [ 500856.140855386620387, 4480770.850000000558794 ], [ 500856.140855386620387, 4480769.850000000558794 ], [ 500856.140717609261628, 4480769.850000000558794 ], [ 500856.140717609261628, 4480768.850000000558794 ], [ 500856.140579831902869, 4480768.850000000558794 ], [ 500856.140579831902869, 4480767.850000000558794 ], [ 500855.378579831856769, 4480767.850000000558794 ] ] ] } },
{ "type": "Feature", "properties": { "row": 45, "first_segment": 85, "last_segment": 87, "n_segments": 3, "length_m": 3.0 }, "geometry": { "type": "Polygon", "coordinates": [ [ [ 500855.377890945062973, 4480762.850000000558794 ], [ 500855.377890945062973, 4480763.850000000558794 ], [ 500855.378028722421732, 4480763.850000000558794 ], [ 500855.378028722421732, 4480764.850000000558794 ], [ 500855.378166499780491, 4480764.850000000558794 ], [ 500855.378166499780491, 4480765.850000000558794 ], [ 500856.140166499768384, 4480765.850000000558794 ], [ 500856.140166499768384, 4480764.850000000558794 ], [ 500856.140028722409625, 4480764.850000000558794 ], [ 500856.140028722409625, 4480763.850000000558794 ], [ 500856.139890945050865, 4480763.850000000558794 ], [ 500856.139890945050865, 4480762.850000000558794 ], [ 500855.377890945062973, 4480762.850000000558794 ] ] ] } },
{ "type": "Feature", "properties": { "row": 45, "first_segment": 44, "last_segment": 46, "n_segments": 3, "length_m": 3.0 }, "geometry": { "type": "Polygon", "coordinates": [ [ [ 500855.383539817179553, 4480803.850000000558794 ], [ 500855.383539817179553, 4480804.850000000558794 ], [ 500855.383677594538312, 4480804.850000000558794 ], [ 500855.383677594538312, 4480805.850000000558794 ], [ 500855.383815371897072, 4480805.850000000558794 ], [ 500855.383815371897072, 4480806.850000000558794 ], [ 500856.145815371943172, 4480806.850000000558794 ], [ 500856.145815371943172, 4480805.850000000558794 ], [ 500856.145677594584413, 4480805.850000000558794 ], [ 500856.145677594584413, 4480804.850000000558794 ], [ 500856.145539817167446, 4480804.850000000558794 ], [ 500856.145539817167446, 4480803.850000000558794 ], [ 500855.383539817179553, 4480803.850000000558794 ] ] ] } },
{ "type": "Feature", "properties": { "row": 45, "first_segment": 71, "last_segment": 73, "n_segments": 3, "length_m": 3.0 }, "geometry": { "type": "Polygon", "coordinates": [ [ [ 500855.379819828202017, 4480776.850000000558794 ], [ 500855.379819828202017, 4480777.850000000558794 ], [ 500855.379957605560776, 4480777.850000000558794 ], [ 500855.379957605560776, 4480778.850000000558794 ], [ 500855.380095382919535, 4480778.850000000558794 ], [ 500855.380095382919535, 4480779.850000000558794 ], [ 500856.142095382965636, 4480779.850000000558794 ], [ 500856.142095382965636, 4480778.850000000558794 ], [ 500856.141957605606876, 4480778.850000000558794 ], [ 500856.141957605606876, 4480777.850000000558794 ], [ 500856.141819828189909, 4480777.850000000558794 ], [ 500856.141819828189909, 4480776.850000000558794 ], [ 500855.379819828202017, 4480776.850000000558794 ] ] ] } },
{ "type": "Feature", "properties": { "row": 46, "first_segment": 76, "last_segment": 78, "n_segments": 3, "length_m": 3.0 }, "geometry": { "type": "Polygon", "coordinates": [ [ [ 500854.601406312081963, 4480771.850000000558794 ], [ 500854.601406312081963, 4480772.850000000558794 ], [ 500854.601544089440722, 4480772.850000000558794 ], [ 500854.601544089440722, 4480773.850000000558794 ], [ 500854.601681866799481, 4480773.850000000558794 ], [ 500854.601681866799481, 4480774.850000000558794 ], [ 500855.363681866845582, 4480774.850000000558794 ], [ 500855.363681866845582, 4480773.850000000558794 ], [ 500855.363544089428615, 4480773.850000000558794 ], [ 500855.363544089428615, 4480772.850000000558794 ], [ 500855.363406312069856, 4480772.850000000558794 ], [ 500855.363406312069856, 4480771.850000000558794 ], [ 500854.601406312081963, 4480771.850000000558794 ] ] ] } },
{ "type": "Feature", "properties": { "row": 57, "first_segment": 39, "last_segment": 41, "n_segments": 3, "length_m": 3.0 }, "geometry": { "type": "Polygon", "coordinates": [ [ [ 500846.192775430972688, 4480808.850000000558794 ], [ 500846.192775430972688, 4480809.850000000558794 ], [ 500846.192907672724687, 4480809.850000000558794 ], [ 500846.192907672724687, 4480810.850000000558794 ], [ 500846.193039914476685, 4480810.850000000558794 ], [ 500846.193039914476685, 4480811.850000000558794 ], [ 500846.955039914464578, 4480811.850000000558794 ], [ 500846.955039914464578, 4480810.850000000558794 ], [ 500846.954907672712579, 4480810.850000000558794 ], [ 500846.954907672712579, 4480809.850000000558794 ], [ 500846.954775430960581, 4480809.850000000558794 ], [ 500846.954775430960581, 4480808.850000000558794 ], [ 500846.192775430972688, 4480808.850000000558794 ] ] ] } },
{ "type": "Feature", "properties": { "row": 57, "first_segment": 44, "last_segment": 46, "n_segments": 3, "length_m": 3.0 }, "geometry": { "type": "Polygon", "coordinates": [ [ [ 500846.192114222212695, 4480803.850000000558794 ], [ 500846.192114222212695, 4480804.850000000558794 ], [ 500846.192246463964693, 4480804.850000000558794 ], [ 500846.192246463964693, 4480805.850000000558794 ], [ 500846.192378705716692, 4480805.850000000558794 ], [ 500846.192378705716692, 4480806.850000000558794 ], [ 500846.954378705704585, 4480806.850000000558794 ], [ 500846.954378705704585, 4480805.850000000558794 ], [ 500846.954246463952586, 4480805.850000000558794 ], [ 500846.954246463952586, 4480804.850000000558794 ], [ 500846.954114222200587, 4480804.850000000558794 ], [ 500846.954114222200587, 4480803.850000000558794 ], [ 500846.192114222212695, 4480803.850000000558794 ] ] ] } },
{ "type": "Feature", "properties": { "row": 46, "first_segment": 53, "last_segment": 55, "n_segments": 3, "length_m": 3.0 }, "geometry": { "type": "Polygon", "coordinates": [ [ [ 500854.604575191566255, 4480794.850000000558794 ], [ 500854.604575191566255, 4480795.850000000558794 ], [ 500854.604712968983222, 4480795.850000000558794 ], [ 500854.604712968983222, 4480796.850000000558794 ], [ 500854.604850746341981, 4480796.850000000558794 ], [ 500854.604850746341981, 4480797.850000000558794 ], [ 500855.366850746329874, 4480797.850000000558794 ], [ 500855.366850746329874, 4480796.850000000558794 ], [ 500855.366712968971115, 4480796.850000000558794 ], [ 500855.366712968971115, 4480795.850000000558794 ], [ 500855.366575191612355, 4480795.850000000558794 ], [ 500855.366575191612355, 4480794.850000000558794 ], [ 500854.604575191566255, 4480794.850000000558794 ] ] ] } },
{ "type": "Feature", "properties": { "row": 45, "first_segment": 76, "last_segment": 78, "n_segments": 3, "length_m": 3.0 }, "geometry": { "type": "Polygon", "coordinates": [ [ [ 500855.379130941350013, 4480771.850000000558794 ], [ 500855.379130941350013, 4480772.850000000558794 ], [ 500855.379268718708772, 4480772.850000000558794 ], [ 500855.379268718708772, 4480773.850000000558794 ], [ 500855.379406496125739, 4480773.850000000558794 ], [ 500855.379406496125739, 4480774.850000000558794 ], [ 500856.141406496113632, 4480774.850000000558794 ], [ 500856.141406496113632, 4480773.850000000558794 ], [ 500856.141268718754873, 4480773.850000000558794 ], [ 500856.141268718754873, 4480772.850000000558794 ], [ 500856.141130941337906, 4480772.850000000558794 ], [ 500856.141130941337906, 4480771.850000000558794 ], [ 500855.379130941350013, 4480771.850000000558794 ] ] ] } },
{ "type": "Feature", "properties": { "row": 46, "first_segment": 26, "last_segment": 27, "n_segments": 2, "length_m": 2.0 }, "geometry": { "type": "Polygon", "coordinates": [ [ [ 500854.608432957960758, 4480822.850000000558794 ], [ 500854.608432957960758, 4480823.850000000558794 ], [ 500854.608570735319518, 4480823.850000000558794 ], [ 500854.608570735319518, 4480824.850000000558794 ], [ 500855.37057073530741, 4480824.850000000558794 ], [ 500855.37057073530741, 4480823.850000000558794 ], [ 500855.370432957948651, 4480823.850000000558794 ], [ 500855.370432957948651, 4480822.850000000558794 ], [ 500854.608432957960758, 4480822.850000000558794 ] ] ] } },
{ "type": "Feature", "properties": { "row": 55, "first_segment": 76, "last_segment": 77, "n_segments": 2, "length_m": 2.0 }, "geometry": { "type": "Polygon", "coordinates": [ [ [ 500847.681027786573395, 4480772.850000000558794 ], [ 500847.681027786573395, 4480773.850000000558794 ], [ 500847.681160028325394, 4480773.850000000558794 ], [ 500847.681160028325394, 4480774.850000000558794 ], [ 500848.443160028313287, 4480774.850000000558794 ], [ 500848.443160028313287, 4480773.850000000558794 ], [ 500848.443027786561288, 4480773.850000000558794 ], [ 500848.443027786561288, 4480772.850000000558794 ], [ 500847.681027786573395, 4480772.850000000558794 ] ] ] } },
{ "type": "Feature", "properties": { "row": 58, "first_segment": 99, "last_segment": 100, "n_segments": 2, "length_m": 2.0 }, "geometry": { "type": "Polygon", "coordinates": [ [ [ 500845.438466638035607, 4480749.850000000558794 ], [ 500845.438466638035607, 4480750.850000000558794 ], [ 500845.438598879787605, 4480750.850000000558794 ], [ 500845.438598879787605, 4480751.850000000558794 ], [ 500846.200598879775498, 4480751.850000000558794 ], [ 500846.200598879775498, 4480750.850000000558794 ], [ 500846.200466638023499, 4480750.850000000558794 ], [ 500846.200466638023499, 4480749.850000000558794 ], [ 500845.438466638035607, 4480749.850000000558794 ] ] ] } },
{ "type": "Feature", "properties": { "row": 43, "first_segment": 62, "last_segment": 63, "n_segments": 2, "length_m": 2.0 }, "geometry": { "type": "Polygon", "coordinates": [ [ [ 500856.904023494571447, 4480786.850000000558794 ], [ 500856.904023494571447, 4480787.850000000558794 ], [ 500856.904157789773308, 4480787.850000000558794 ], [ 500856.904157789773308, 4480788.850000000558794 ], [ 500857.666157789761201, 4480788.850000000558794 ], [ 500857.666157789761201, 4480787.850000000558794 ], [ 500857.66602349455934, 4480787.850000000558794 ], [ 500857.66602349455934, 4480786.850000000558794 ], [ 500856.904023494571447, 4480786.850000000558794 ] ] ] } },
{ "type": "Feature", "properties": { "row": 30, "first_segment": 94, "last_segment": 95, "n_segments": 2, "length_m": 2.0 }, "geometry": { "type": "Polygon", "coordinates": [ [ [ 500866.803772822662722, 4480754.850000000558794 ], [ 500866.803772822662722, 4480755.850000000558794 ], [ 500866.803908540110569, 4480755.850000000558794 ], [ 500866.803908540110569, 4480756.850000000558794 ], [ 500867.565908540098462, 4480756.850000000558794 ], [ 500867.565908540098462, 4480755.850000000558794 ], [ 500867.565772822708823, 4480755.850000000558794 ], [ 500867.565772822708823, 4480754.850000000558794 ], [ 500866.803772822662722, 4480754.850000000558794 ] ] ] } },
{ "type": "Feature", "properties": { "row": 30, "first_segment": 21, "last_segment": 22, "n_segments": 2, "length_m": 2.0 }, "geometry": { "type": "Polygon", "coordinates": [ [ [ 500866.813680194492918, 4480827.850000000558794 ], [ 500866.813680194492918, 4480828.850000000558794 ], [ 500866.813815911940765, 4480828.850000000558794 ], [ 500866.813815911940765, 4480829.850000000558794 ], [ 500867.575815911928657, 4480829.850000000558794 ], [ 500867.575815911928657, 4480828.850000000558794 ], [ 500867.575680194539018, 4480828.850000000558794 ], [ 500867.575680194539018, 4480827.850000000558794 ], [ 500866.813680194492918, 4480827.850000000558794 ] ] ] } },
{ "type": "Feature", "properties": { "row": 29, "first_segment": 67, "last_segment": 68, "n_segments": 2, "length_m": 2.0 }, "geometry": { "type": "Polygon", "coordinates": [ [ [ 500867.573245601612143, 4480781.850000000558794 ], [ 500867.573245601612143, 4480782.850000000558794 ], [ 500867.57338131905999, 4480782.850000000558794 ], [ 500867.57338131905999, 4480783.850000000558794 ], [ 500868.335381319047883, 4480783.850000000558794 ], [ 500868.335381319047883, 4480782.850000000558794 ], [ 500868.335245601600036, 4480782.850000000558794 ], [ 500868.335245601600036, 4480781.850000000558794 ], [ 500867.573245601612143, 4480781.850000000558794 ] ] ] } },
{ "type": "Feature", "properties": { "row": 29, "first_segment": 81, "last_segment": 82, "n_segments": 2, "length_m": 2.0 }, "geometry": { "type": "Polygon", "coordinates": [ [ [ 500867.571345557691529, 4480767.850000000558794 ], [ 500867.571345557691529, 4480768.850000000558794 ], [ 500867.571481275139377, 4480768.850000000558794 ], [ 500867.571481275139377, 4480769.850000000558794 ], [ 500868.333481275127269, 4480769.850000000558794 ], [ 500868.333481275127269, 4480768.850000000558794 ], [ 500868.333345557679422, 4480768.850000000558794 ], [ 500868.333345557679422, 4480767.850000000558794 ], [ 500867.571345557691529, 4480767.850000000558794 ] ] ] } },
{ "type": "Feature", "properties": { "row": 29, "first_segment": 31, "last_segment": 32, "n_segments": 2, "length_m": 2.0 }, "geometry": { "type": "Polygon", "coordinates": [ [ [ 500867.578131428803317, 4480817.850000000558794 ], [ 500867.578131428803317, 4480818.850000000558794 ], [ 500867.578267146251164, 4480818.850000000558794 ], [ 500867.578267146251164, 4480819.850000000558794 ], [ 500868.340267146239057, 4480819.850000000558794 ], [ 500868.340267146239057, 4480818.850000000558794 ], [ 500868.340131428849418, 4480818.850000000558794 ], [ 500868.340131428849418, 4480817.850000000558794 ], [ 500867.578131428803317, 4480817.850000000558794 ] ] ] } },
{ "type": "Feature", "properties": { "row": 43, "first_segment": 53, "last_segment": 54, "n_segments": 2, "length_m": 2.0 }, "geometry": { "type": "Polygon", "coordinates": [ [ [ 500856.905232151329983, 4480795.850000000558794 ], [ 500856.905232151329983, 4480796.850000000558794 ], [ 500856.905366446473636, 4480796.850000000558794 ], [ 500856.905366446473636, 4480797.850000000558794 ], [ 500857.667366446519736, 4480797.850000000558794 ], [ 500857.667366446519736, 4480796.850000000558794 ], [ 500857.667232151317876, 4480796.850000000558794 ], [ 500857.667232151317876, 4480795.850000000558794 ], [ 500856.905232151329983, 4480795.850000000558794 ] ] ] } },
{ "type": "Feature", "properties": { "row": 58, "first_segment": 89, "last_segment": 90, "n_segments": 2, "length_m": 2.0 }, "geometry": { "type": "Polygon", "coordinates": [ [ [ 500845.439789055613801, 4480759.850000000558794 ], [ 500845.439789055613801, 4480760.850000000558794 ], [ 500845.4399212973658, 4480760.850000000558794 ], [ 500845.4399212973658, 4480761.759530438110232 ], [ 500846.201921297353692, 4480761.75952384993434 ], [ 500846.201921297353692, 4480760.850000000558794 ], [ 500846.201789055601694, 4480760.850000000558794 ], [ 500846.201789055601694, 4480759.850000000558794 ], [ 500845.439789055613801, 4480759.850000000558794 ] ] ] } },
{ "type": "Feature", "properties": { "row": 45, "first_segment": 95, "last_segment": 96, "n_segments": 2, "length_m": 2.0 }, "geometry": { "type": "Polygon", "coordinates": [ [ [ 500855.376650948717725, 4480753.850000000558794 ], [ 500855.376650948717725, 4480754.850000000558794 ], [ 500855.376788726076484, 4480754.850000000558794 ], [ 500855.376788726076484, 4480755.850000000558794 ], [ 500856.138788726064377, 4480755.850000000558794 ], [ 500856.138788726064377, 4480754.850000000558794 ], [ 500856.138650948705617, 4480754.850000000558794 ], [ 500856.138650948705617, 4480753.850000000558794 ], [ 500855.376650948717725, 4480753.850000000558794 ] ] ] } },
{ "type": "Feature", "properties": { "row": 45, "first_segment": 27, "last_segment": 28, "n_segments": 2, "length_m": 2.0 }, "geometry": { "type": "Polygon", "coordinates": [ [ [ 500855.386019809811842, 4480822.049880993552506 ], [ 500855.386019809811842, 4480822.850000000558794 ], [ 500855.386157587228809, 4480822.850000000558794 ], [ 500855.386157587228809, 4480823.850000000558794 ], [ 500856.148157587216701, 4480823.850000000558794 ], [ 500856.148157587216701, 4480822.850000000558794 ], [ 500856.148019809857942, 4480822.850000000558794 ], [ 500856.148019809857942, 4480822.049875532276928 ], [ 500855.386019809811842, 4480822.049880993552506 ] ] ] } },
{ "type": "Feature", "properties": { "row": 55, "first_segment": 35, "last_segment": 36, "n_segments": 2, "length_m": 2.0 }, "geometry": { "type": "Polygon", "coordinates": [ [ [ 500847.686449698521756, 4480813.850000000558794 ], [ 500847.686449698521756, 4480814.850000000558794 ], [ 500847.686581940273754, 4480814.850000000558794 ], [ 500847.686581940273754, 4480815.850000000558794 ], [ 500848.448581940261647, 4480815.850000000558794 ], [ 500848.448581940261647, 4480814.850000000558794 ], [ 500848.448449698509648, 4480814.850000000558794 ], [ 500848.448449698509648, 4480813.850000000558794 ], [ 500847.686449698521756, 4480813.850000000558794 ] ] ] } },
{ "type": "Feature", "properties": { "row": 46, "first_segment": 81, "last_segment": 82, "n_segments": 2, "length_m": 2.0 }, "geometry": { "type": "Polygon", "coordinates": [ [ [ 500854.600855202588718, 4480767.850000000558794 ], [ 500854.600855202588718, 4480768.850000000558794 ], [ 500854.600992980005685, 4480768.850000000558794 ], [ 500854.600992980005685, 4480769.850000000558794 ], [ 500855.362992979993578, 4480769.850000000558794 ], [ 500855.362992979993578, 4480768.850000000558794 ], [ 500855.362855202634819, 4480768.850000000558794 ], [ 500855.362855202634819, 4480767.850000000558794 ], [ 500854.600855202588718, 4480767.850000000558794 ] ] ] } },
{ "type": "Feature", "properties": { "row": 43, "first_segment": 40, "last_segment": 40, "n_segments": 1, "length_m": 1.0 }, "geometry": { "type": "Polygon", "coordinates": [ [ [ 500857.669112283969298, 4480809.850000000558794 ], [ 500856.907112283981405, 4480809.850000000558794 ], [ 500856.907112283981405, 4480810.850000000558794 ], [ 500857.669112283969298, 4480810.850000000558794 ], [ 500857.669112283969298, 4480809.850000000558794 ] ] ] } },
{ "type": "Feature", "properties": { "row": 30, "first_segment": 31, "last_segment": 31, "n_segments": 1, "length_m": 1.0 }, "geometry": { "type": "Polygon", "coordinates": [ [ [ 500867.574458737741224, 4480818.850000000558794 ], [ 500866.812458737695124, 4480818.850000000558794 ], [ 500866.812458737695124, 4480819.850000000558794 ], [ 500867.574458737741224, 4480819.850000000558794 ], [ 500867.574458737741224, 4480818.850000000558794 ] ] ] } },
{ "type": "Feature", "properties": { "row": 30, "first_segment": 68, "last_segment": 68, "n_segments": 1, "length_m": 1.0 }, "geometry": { "type": "Polygon", "coordinates": [ [ [ 500867.569437193102203, 4480781.850000000558794 ], [ 500866.807437193056103, 4480781.850000000558794 ], [ 500866.807437193056103, 4480782.850000000558794 ], [ 500867.569437193102203, 4480782.850000000558794 ], [ 500867.569437193102203, 4480781.850000000558794 ] ] ] } },
{ "type": "Feature", "properties": { "row": 30, "first_segment": 77, "last_segment": 77, "n_segments": 1, "length_m": 1.0 }, "geometry": { "type": "Polygon", "coordinates": [ [ [ 500867.56821573630441, 4480772.850000000558794 ], [ 500866.806215736258309, 4480772.850000000558794 ], [ 500866.806215736258309, 4480773.850000000558794 ], [ 500867.56821573630441, 4480773.850000000558794 ], [ 500867.56821573630441, 4480772.850000000558794 ] ] ] } },
{ "type": "Feature", "properties": { "row": 29, "first_segment": 46, "last_segment": 46, "n_segments": 1, "length_m": 1.0 }, "geometry": { "type": "Polygon", "coordinates": [ [ [ 500868.338231384928804, 4480803.959483751095831 ], [ 500867.576231384882703, 4480803.959488177672029 ], [ 500867.576231384882703, 4480804.850000000558794 ], [ 500868.338231384928804, 4480804.850000000558794 ], [ 500868.338231384928804, 4480803.959483751095831 ] ] ] } },
{ "type": "Feature", "properties": { "row": 43, "first_segment": 35, "last_segment": 35, "n_segments": 1, "length_m": 1.0 }, "geometry": { "type": "Polygon", "coordinates": [ [ [ 500857.669783759920392, 4480814.850000000558794 ], [ 500856.907783759932499, 4480814.850000000558794 ], [ 500856.907783759932499, 4480815.850000000558794 ], [ 500857.669783759920392, 4480815.850000000558794 ], [ 500857.669783759920392, 4480814.850000000558794 ] ] ] } },
{ "type": "Feature", "properties": { "row": 43, "first_segment": 31, "last_segment": 31, "n_segments": 1, "length_m": 1.0 }, "geometry": { "type": "Polygon", "coordinates": [ [ [ 500857.670320940727834, 4480818.850000000558794 ], [ 500856.908320940681733, 4480818.850000000558794 ], [ 500856.908320940681733, 4480819.850000000558794 ], [ 500857.670320940727834, 4480819.850000000558794 ], [ 500857.670320940727834, 4480818.850000000558794 ] ] ] } },
{ "type": "Feature", "properties": { "row": 43, "first_segment": 22, "last_segment": 22, "n_segments": 1, "length_m": 1.0 }, "geometry": { "type": "Polygon", "coordinates": [ [ [ 500857.671529597428162, 4480827.850000000558794 ], [ 500856.909529597440269, 4480827.850000000558794 ], [ 500856.909529597440269, 4480828.850000000558794 ], [ 500857.671529597428162, 4480828.850000000558794 ], [ 500857.671529597428162, 4480827.850000000558794 ] ] ] } },
{ "type": "Feature", "properties": { "row": 30, "first_segment": 99, "last_segment": 99, "n_segments": 1, "length_m": 1.0 }, "geometry": { "type": "Polygon", "coordinates": [ [ [ 500867.565229952975642, 4480750.850000000558794 ], [ 500866.803229952987749, 4480750.850000000558794 ], [ 500866.803229952987749, 4480751.850000000558794 ], [ 500867.565229952975642, 4480751.850000000558794 ], [ 500867.565229952975642, 4480750.850000000558794 ] ] ] } },
{ "type": "Feature", "properties": { "row": 43, "first_segment": 76, "last_segment": 76, "n_segments": 1, "length_m": 1.0 }, "geometry": { "type": "Polygon", "coordinates": [ [ [ 500857.664277657109778, 4480773.850000000558794 ], [ 500856.902277657121886, 4480773.850000000558794 ], [ 500856.902277657121886, 4480774.850000000558794 ], [ 500857.664277657109778, 4480774.850000000558794 ], [ 500857.664277657109778, 4480773.850000000558794 ] ] ] } },
{ "type": "Feature", "properties": { "row": 45, "first_segment": 31, "last_segment": 31, "n_segments": 1, "length_m": 1.0 }, "geometry": { "type": "Polygon", "coordinates": [ [ [ 500856.147606477723457, 4480818.850000000558794 ], [ 500855.385606477735564, 4480818.850000000558794 ], [ 500855.385606477735564, 4480819.850000000558794 ], [ 500856.147606477723457, 4480819.850000000558794 ], [ 500856.147606477723457, 4480818.850000000558794 ] ] ] } },
{ "type": "Feature", "properties": { "row": 45, "first_segment": 60, "last_segment": 60, "n_segments": 1, "length_m": 1.0 }, "geometry": { "type": "Polygon", "coordinates": [ [ [ 500856.143610934028402, 4480790.029875754378736 ], [ 500855.381610934040509, 4480790.029881317168474 ], [ 500855.381610934040509, 4480790.850000000558794 ], [ 500856.143610934028402, 4480790.850000000558794 ], [ 500856.143610934028402, 4480790.029875754378736 ] ] ] } },
{ "type": "Feature", "properties": { "row": 46, "first_segment": 92, "last_segment": 92, "n_segments": 1, "length_m": 1.0 }, "geometry": { "type": "Polygon", "coordinates": [ [ [ 500855.361477428930812, 4480757.99990118201822 ], [ 500854.599477428884711, 4480757.99990694411099 ], [ 500854.599477428884711, 4480758.850000000558794 ], [ 500855.361477428930812, 4480758.850000000558794 ], [ 500855.361477428930812, 4480757.99990118201822 ] ] ] } },
{ "type": "Feature", "properties": { "row": 46, "first_segment": 86, "last_segment": 86, "n_segments": 1, "length_m": 1.0 }, "geometry": { "type": "Polygon", "coordinates": [ [ [ 500855.362304093141574, 4480763.850000000558794 ], [ 500854.600304093153682, 4480763.850000000558794 ], [ 500854.600304093153682, 4480764.850000000558794 ], [ 500855.362304093141574, 4480764.850000000558794 ], [ 500855.362304093141574, 4480763.850000000558794 ] ] ] } },
{ "type": "Feature", "properties": { "row": 43, "first_segment": 49, "last_segment": 49, "n_segments": 1, "length_m": 1.0 }, "geometry": { "type": "Polygon", "coordinates": [ [ [ 500857.66790362726897, 4480800.850000000558794 ], [ 500856.905903627281077, 4480800.850000000558794 ], [ 500856.905903627281077, 4480801.850000000558794 ], [ 500857.66790362726897, 4480801.850000000558794 ], [ 500857.66790362726897, 4480800.850000000558794 ] ] ] } },
{ "type": "Feature", "properties": { "row": 43, "first_segment": 71, "last_segment": 71, "n_segments": 1, "length_m": 1.0 }, "geometry": { "type": "Polygon", "coordinates": [ [ [ 500857.664949133060873, 4480778.850000000558794 ], [ 500856.90294913307298, 4480778.850000000558794 ], [ 500856.90294913307298, 4480779.850000000558794 ], [ 500857.664949133060873, 4480779.850000000558794 ], [ 500857.664949133060873, 4480778.850000000558794 ] ] ] } },
{ "type": "Feature", "properties": { "row": 45, "first_segment": 25, "last_segment": 25, "n_segments": 1, "length_m": 1.0 }, "geometry": { "type": "Polygon", "coordinates": [ [ [ 500856.14843314193422, 4480824.850000000558794 ], [ 500855.386433141946327, 4480824.850000000558794 ], [ 500855.386433141946327, 4480825.719521708786488 ], [ 500856.14843314193422, 4480825.719516248442233 ], [ 500856.14843314193422, 4480824.850000000558794 ] ] ] } },
{ "type": "Feature", "properties": { "row": 55, "first_segment": 63, "last_segment": 63, "n_segments": 1, "length_m": 1.0 }, "geometry": { "type": "Polygon", "coordinates": [ [ [ 500848.444879171147477, 4480786.850000000558794 ], [ 500847.682879171159584, 4480786.850000000558794 ], [ 500847.682879171159584, 4480787.850000000558794 ], [ 500848.444879171147477, 4480787.850000000558794 ], [ 500848.444879171147477, 4480786.850000000558794 ] ] ] } },
{ "type": "Feature", "properties": { "row": 55, "first_segment": 45, "last_segment": 45, "n_segments": 1, "length_m": 1.0 }, "geometry": { "type": "Polygon", "coordinates": [ [ [ 500848.44725952274166, 4480804.850000000558794 ], [ 500847.685259522753768, 4480804.850000000558794 ], [ 500847.685259522753768, 4480805.850000000558794 ], [ 500848.44725952274166, 4480805.850000000558794 ], [ 500848.44725952274166, 4480804.850000000558794 ] ] ] } },
{ "type": "Feature", "properties": { "row": 55, "first_segment": 81, "last_segment": 81, "n_segments": 1, "length_m": 1.0 }, "geometry": { "type": "Polygon", "coordinates": [ [ [ 500848.442498819553293, 4480768.850000000558794 ], [ 500847.6804988195654, 4480768.850000000558794 ], [ 500847.6804988195654, 4480769.850000000558794 ], [ 500848.442498819553293, 4480769.850000000558794 ], [ 500848.442498819553293, 4480768.850000000558794 ] ] ] } },
{ "type": "Feature", "properties": { "row": 55, "first_segment": 67, "last_segment": 67, "n_segments": 1, "length_m": 1.0 }, "geometry": { "type": "Polygon", "coordinates": [ [ [ 500848.444350204139482, 4480782.850000000558794 ], [ 500847.682350204093382, 4480782.850000000558794 ], [ 500847.682350204093382, 4480783.850000000558794 ], [ 500848.444350204139482, 4480783.850000000558794 ], [ 500848.444350204139482, 4480782.850000000558794 ] ] ] } },
{ "type": "Feature", "properties": { "row": 58, "first_segment": 37, "last_segment": 37, "n_segments": 1, "length_m": 1.0 }, "geometry": { "type": "Polygon", "coordinates": [ [ [ 500846.208797868574038, 4480812.930230396799743 ], [ 500845.446797868586145, 4480812.930236899293959 ], [ 500845.446797868586145, 4480813.850000000558794 ], [ 500846.208797868574038, 4480813.850000000558794 ], [ 500846.208797868574038, 4480812.930230396799743 ] ] ] } },
{ "type": "Feature", "properties": { "row": 58, "first_segment": 39, "last_segment": 39, "n_segments": 1, "length_m": 1.0 }, "geometry": { "type": "Polygon", "coordinates": [ [ [ 500846.208533385070041, 4480810.850000000558794 ], [ 500845.446533385082148, 4480810.850000000558794 ], [ 500845.446533385082148, 4480811.850000000558794 ], [ 500846.208533385070041, 4480811.850000000558794 ], [ 500846.208533385070041, 4480810.850000000558794 ] ] ] } },
{ "type": "Feature", "properties": { "row": 58, "first_segment": 44, "last_segment": 44, "n_segments": 1, "length_m": 1.0 }, "geometry": { "type": "Polygon", "coordinates": [ [ [ 500846.207872176310048, 4480805.850000000558794 ], [ 500845.445872176322155, 4480805.850000000558794 ], [ 500845.445872176322155, 4480806.850000000558794 ], [ 500846.207872176310048, 4480806.850000000558794 ], [ 500846.207872176310048, 4480805.850000000558794 ] ] ] } },
{ "type": "Feature", "properties": { "row": 58, "first_segment": 78, "last_segment": 78, "n_segments": 1, "length_m": 1.0 }, "geometry": { "type": "Polygon", "coordinates": [ [ [ 500846.203375956625678, 4480771.930002470500767 ], [ 500845.441375956637785, 4480771.929916430264711 ], [ 500845.441375956637785, 4480772.850000000558794 ], [ 500846.203375956625678, 4480772.850000000558794 ], [ 500846.203375956625678, 4480771.930002470500767 ] ] ] } },
{ "type": "Feature", "properties": { "row": 58, "first_segment": 76, "last_segment": 76, "n_segments": 1, "length_m": 1.0 }, "geometry": { "type": "Polygon", "coordinates": [ [ [ 500846.203640440187883, 4480773.850000000558794 ], [ 500845.441640440141782, 4480773.850000000558794 ], [ 500845.441640440141782, 4480774.850000000558794 ], [ 500846.203640440187883, 4480774.850000000558794 ], [ 500846.203640440187883, 4480773.850000000558794 ] ] ] } },
{ "type": "Feature", "properties": { "row": 58, "first_segment": 58, "last_segment": 58, "n_segments": 1, "length_m": 1.0 }, "geometry": { "type": "Polygon", "coordinates": [ [ [ 500846.206020791723859, 4480791.850000000558794 ], [ 500845.444020791735966, 4480791.850000000558794 ], [ 500845.444020791735966, 4480792.850000000558794 ], [ 500846.206020791723859, 4480792.850000000558794 ], [ 500846.206020791723859, 4480791.850000000558794 ] ] ] } },
{ "type": "Feature", "properties": { "row": 58, "first_segment": 80, "last_segment": 80, "n_segments": 1, "length_m": 1.0 }, "geometry": { "type": "Polygon", "coordinates": [ [ [ 500846.20311147312168, 4480769.850000000558794 ], [ 500845.441111473133788, 4480769.850000000558794 ], [ 500845.441111473133788, 4480770.850000000558794 ], [ 500846.20311147312168, 4480770.850000000558794 ], [ 500846.20311147312168, 4480769.850000000558794 ] ] ] } }
]
}
