{
"type": "FeatureCollection",
"name": "terrain_spots",
"crs": { "type": "name", "properties": { "name": "urn:ogc:def:crs:EPSG::26916" } },
"features": [
{ "type": "Feature", "properties": { "label": "H1", "kind": "high", "area_m2": 84.3, "mean_cm": 5.0, "peak_cm": 5.7, "where": "south-west corner", "n_units": 73, "problem_share": 0.2192, "linked": false }, "geometry": { "type": "Polygon", "coordinates": [ [ [ 500845.209426229528617, 4480758.145353983156383 ], [ 500845.209426229528617, 4480757.644247788004577 ], [ 500844.21188524592435, 4480757.644247788004577 ], [ 500844.21188524592435, 4480757.143141593784094 ], [ 500843.713114754122216, 4480757.143141593784094 ], [ 500843.713114754122216, 4480756.642035398632288 ], [ 500842.715573770517949, 4480756.642035398632288 ], [ 500842.715573770517949, 4480756.140929204411805 ], [ 500841.718032786913682, 4480756.140929204411805 ], [ 500841.718032786913682, 4480755.639823009259999 ], [ 500840.720491803251207, 4480755.639823009259999 ], [ 500840.720491803251207, 4480755.138716815039515 ], [ 500839.72295081964694, 4480755.138716815039515 ], [ 500839.72295081964694, 4480754.63761061988771 ], [ 500839.224180327844806, 4480754.63761061988771 ], [ 500839.224180327844806, 4480748.123230089433491 ], [ 500840.221721311449073, 4480748.123230089433491 ], [ 500840.221721311449073, 4480747.622123894281685 ], [ 500848.700819672143552, 4480747.622123894281685 ], [ 500848.700819672143552, 4480755.639823009259999 ], [ 500848.202049180341419, 4480755.639823009259999 ], [ 500848.202049180341419, 4480756.642035398632288 ], [ 500847.703278688539285, 4480756.642035398632288 ], [ 500847.703278688539285, 4480757.143141593784094 ], [ 500847.204508196737152, 4480757.143141593784094 ], [ 500847.204508196737152, 4480757.644247788004577 ], [ 500846.705737704935018, 4480757.644247788004577 ], [ 500846.705737704935018, 4480758.145353983156383 ], [ 500845.209426229528617, 4480758.145353983156383 ] ] ] } },
{ "type": "Feature", "properties": { "label": "H2", "kind": "high", "area_m2": 70.2, "mean_cm": 4.3, "peak_cm": 4.5, "where": "middle", "n_units": 49, "problem_share": 0.0, "linked": false }, "geometry": { "type": "Polygon", "coordinates": [ [ [ 500862.16762295080116, 4480804.247123894281685 ], [ 500862.16762295080116, 4480803.746017700061202 ], [ 500861.668852458999027, 4480803.746017700061202 ], [ 500861.668852458999027, 4480803.244911504909396 ], [ 500861.170081967196893, 4480803.244911504909396 ], [ 500861.170081967196893, 4480802.743805310688913 ], [ 500860.671311475394759, 4480802.743805310688913 ], [ 500860.671311475394759, 4480801.741592921316624 ], [ 500860.172540983592626, 4480801.741592921316624 ], [ 500860.172540983592626, 4480800.739380531944335 ], [ 500859.673770491790492, 4480800.739380531944335 ], [ 500859.673770491790492, 4480799.236061947420239 ], [ 500859.174999999988358, 4480799.236061947420239 ], [ 500859.174999999988358, 4480795.728318585082889 ], [ 500859.673770491790492, 4480795.728318585082889 ], [ 500859.673770491790492, 4480794.726106195710599 ], [ 500860.172540983592626, 4480794.726106195710599 ], [ 500860.172540983592626, 4480793.723893805406988 ], [ 500860.671311475394759, 4480793.723893805406988 ], [ 500860.671311475394759, 4480792.721681416034698 ], [ 500861.170081967196893, 4480792.721681416034698 ], [ 500861.170081967196893, 4480791.719469026662409 ], [ 500861.668852458999027, 4480791.719469026662409 ], [ 500861.668852458999027, 4480791.218362832441926 ], [ 500862.16762295080116, 4480791.218362832441926 ], [ 500862.16762295080116, 4480790.216150443069637 ], [ 500862.666393442603294, 4480790.216150443069637 ], [ 500862.666393442603294, 4480789.715044247917831 ], [ 500864.661475409811828, 4480789.715044247917831 ], [ 500864.661475409811828, 4480790.216150443069637 ], [ 500865.160245901613962, 4480790.216150443069637 ], [ 500865.160245901613962, 4480791.218362832441926 ], [ 500865.659016393416096, 4480791.218362832441926 ], [ 500865.659016393416096, 4480795.728318585082889 ], [ 500865.160245901613962, 4480795.728318585082889 ], [ 500865.160245901613962, 4480803.244911504909396 ], [ 500864.661475409811828, 4480803.244911504909396 ], [ 500864.661475409811828, 4480804.247123894281685 ], [ 500862.16762295080116, 4480804.247123894281685 ] ] ] } },
{ "type": "Feature", "properties": { "label": "L1", "kind": "low", "area_m2": 285.6, "mean_cm": -6.8, "peak_cm": -12.8, "where": "north-west corner", "n_units": 229, "problem_share": 0.1135, "linked": false }, "geometry": { "type": "Polygon", "coordinates": [ [ [ 500839.224180327844806, 4480831.306858407333493 ], [ 500839.224180327844806, 4480787.209513274952769 ], [ 500839.72295081964694, 4480787.209513274952769 ], [ 500839.72295081964694, 4480787.710619469173253 ], [ 500840.221721311449073, 4480787.710619469173253 ], [ 500840.221721311449073, 4480788.712831858545542 ], [ 500840.720491803251207, 4480788.712831858545542 ], [ 500840.720491803251207, 4480790.216150443069637 ], [ 500841.21926229505334, 4480790.216150443069637 ], [ 500841.21926229505334, 4480791.218362832441926 ], [ 500841.718032786913682, 4480791.218362832441926 ], [ 500841.718032786913682, 4480793.222787611186504 ], [ 500842.216803278715815, 4480793.222787611186504 ], [ 500842.216803278715815, 4480798.23384955804795 ], [ 500842.715573770517949, 4480798.23384955804795 ], [ 500842.715573770517949, 4480801.741592921316624 ], [ 500842.216803278715815, 4480801.741592921316624 ], [ 500842.216803278715815, 4480805.249336283653975 ], [ 500842.715573770517949, 4480805.249336283653975 ], [ 500842.715573770517949, 4480806.75265486817807 ], [ 500843.214344262320083, 4480806.75265486817807 ], [ 500843.214344262320083, 4480807.754867257550359 ], [ 500843.713114754122216, 4480807.754867257550359 ], [ 500843.713114754122216, 4480809.258185841143131 ], [ 500844.21188524592435, 4480809.258185841143131 ], [ 500844.21188524592435, 4480811.26261061988771 ], [ 500844.710655737726483, 4480811.26261061988771 ], [ 500844.710655737726483, 4480812.765929204411805 ], [ 500845.209426229528617, 4480812.765929204411805 ], [ 500845.209426229528617, 4480814.269247788004577 ], [ 500845.708196721330751, 4480814.269247788004577 ], [ 500845.708196721330751, 4480815.772566372528672 ], [ 500846.206967213132884, 4480815.772566372528672 ], [ 500846.206967213132884, 4480816.774778761900961 ], [ 500846.705737704935018, 4480816.774778761900961 ], [ 500846.705737704935018, 4480817.776991151273251 ], [ 500847.204508196737152, 4480817.776991151273251 ], [ 500847.204508196737152, 4480818.278097345493734 ], [ 500847.703278688539285, 4480818.278097345493734 ], [ 500847.703278688539285, 4480819.280309734866023 ], [ 500848.202049180341419, 4480819.280309734866023 ], [ 500848.202049180341419, 4480819.781415930017829 ], [ 500848.700819672143552, 4480819.781415930017829 ], [ 500848.700819672143552, 4480820.282522124238312 ], [ 500849.199590163945686, 4480820.282522124238312 ], [ 500849.199590163945686, 4480820.783628319390118 ], [ 500849.69836065574782, 4480820.783628319390118 ], [ 500849.69836065574782, 4480821.785840708762407 ], [ 500850.197131147549953, 4480821.785840708762407 ], [ 500850.197131147549953, 4480822.286946902982891 ], [ 500850.695901639352087, 4480822.286946902982891 ], [ 500850.695901639352087, 4480822.788053098134696 ], [ 500851.194672131154221, 4480822.788053098134696 ], [ 500851.194672131154221, 4480823.790265487506986 ], [ 500851.693442622956354, 4480823.790265487506986 ], [ 500851.693442622956354, 4480824.291371681727469 ], [ 500852.192213114758488, 4480824.291371681727469 ], [ 500852.192213114758488, 4480825.293584071099758 ], [ 500852.690983606560621, 4480825.293584071099758 ], [ 500852.690983606560621, 4480825.794690266251564 ], [ 500853.189754098362755, 4480825.794690266251564 ], [ 500853.189754098362755, 4480826.295796460472047 ], [ 500853.688524590164889, 4480826.295796460472047 ], [ 500853.688524590164889, 4480827.298008849844337 ], [ 500854.187295081967022, 4480827.298008849844337 ], [ 500854.187295081967022, 4480827.799115044996142 ], [ 500854.686065573769156, 4480827.799115044996142 ], [ 500854.686065573769156, 4480828.801327434368432 ], [ 500855.18483606557129, 4480828.801327434368432 ], [ 500855.18483606557129, 4480830.80575221311301 ], [ 500855.683606557373423, 4480830.80575221311301 ], [ 500855.683606557373423, 4480831.306858407333493 ], [ 500839.224180327844806, 4480831.306858407333493 ] ] ] } },
{ "type": "Feature", "properties": { "label": "L2", "kind": "low", "area_m2": 102.2, "mean_cm": -5.0, "peak_cm": -6.1, "where": "south-east corner", "n_units": 81, "problem_share": 0.0494, "linked": false }, "geometry": { "type": "Polygon", "coordinates": [ [ [ 500880.622131147538312, 4480758.646460177376866 ], [ 500880.622131147538312, 4480758.145353983156383 ], [ 500879.624590163934045, 4480758.145353983156383 ], [ 500879.624590163934045, 4480757.644247788004577 ], [ 500878.627049180329777, 4480757.644247788004577 ], [ 500878.627049180329777, 4480757.143141593784094 ], [ 500877.62950819672551, 4480757.143141593784094 ], [ 500877.62950819672551, 4480756.642035398632288 ], [ 500877.130737704923376, 4480756.642035398632288 ], [ 500877.130737704923376, 4480756.140929204411805 ], [ 500876.631967213121243, 4480756.140929204411805 ], [ 500876.631967213121243, 4480755.639823009259999 ], [ 500876.133196721319109, 4480755.639823009259999 ], [ 500876.133196721319109, 4480755.138716815039515 ], [ 500875.634426229516976, 4480755.138716815039515 ], [ 500875.634426229516976, 4480754.63761061988771 ], [ 500875.135655737714842, 4480754.63761061988771 ], [ 500875.135655737714842, 4480754.136504425667226 ], [ 500874.636885245912708, 4480754.136504425667226 ], [ 500874.636885245912708, 4480753.63539823051542 ], [ 500874.138114754110575, 4480753.63539823051542 ], [ 500874.138114754110575, 4480753.134292036294937 ], [ 500873.140573770506307, 4480753.134292036294937 ], [ 500873.140573770506307, 4480752.633185841143131 ], [ 500872.14303278690204, 4480752.633185841143131 ], [ 500872.14303278690204, 4480752.132079646922648 ], [ 500870.646721311495639, 4480752.132079646922648 ], [ 500870.646721311495639, 4480751.630973451770842 ], [ 500867.654098360682838, 4480751.630973451770842 ], [ 500867.654098360682838, 4480752.132079646922648 ], [ 500865.659016393416096, 4480752.132079646922648 ], [ 500865.659016393416096, 4480751.630973451770842 ], [ 500863.663934426207561, 4480751.630973451770842 ], [ 500863.663934426207561, 4480751.129867257550359 ], [ 500862.666393442603294, 4480751.129867257550359 ], [ 500862.666393442603294, 4480750.628761062398553 ], [ 500861.668852458999027, 4480750.628761062398553 ], [ 500861.668852458999027, 4480750.12765486817807 ], [ 500861.170081967196893, 4480750.12765486817807 ], [ 500861.170081967196893, 4480749.626548673026264 ], [ 500860.671311475394759, 4480749.626548673026264 ], [ 500860.671311475394759, 4480749.12544247880578 ], [ 500860.172540983592626, 4480749.12544247880578 ], [ 500860.172540983592626, 4480748.123230089433491 ], [ 500880.622131147538312, 4480748.123230089433491 ], [ 500880.622131147538312, 4480756.642035398632288 ], [ 500881.120901639340445, 4480756.642035398632288 ], [ 500881.120901639340445, 4480758.646460177376866 ], [ 500880.622131147538312, 4480758.646460177376866 ] ] ] } }
]
}
