{
"type": "FeatureCollection",
"name": "terrain_spots",
"crs": { "type": "name", "properties": { "name": "urn:ogc:def:crs,crs:EPSG::26914,crs:EPSG::5703" } },
"features": [
{ "type": "Feature", "properties": { "label": "H1", "kind": "high", "area_m2": 1952.0, "mean_cm": 4.8, "peak_cm": 6.7, "where": "east side", "n_units": 0, "problem_share": null, "linked": false }, "geometry": { "type": "Polygon", "coordinates": [ [ [ 621933.763080018688925, 2915510.972008839715272 ], [ 621933.763080018688925, 2915508.972008839715272 ], [ 621931.763080018688925, 2915508.972008839715272 ], [ 621931.763080018688925, 2915506.972008839715272 ], [ 621929.763080018688925, 2915506.972008839715272 ], [ 621929.763080018688925, 2915500.972008839715272 ], [ 621931.763080018688925, 2915500.972008839715272 ], [ 621931.763080018688925, 2915494.972008839715272 ], [ 621925.763080018688925, 2915494.972008839715272 ], [ 621925.763080018688925, 2915492.972008839715272 ], [ 621923.763080018688925, 2915492.972008839715272 ], [ 621923.763080018688925, 2915478.972008839715272 ], [ 621921.763080018688925, 2915478.972008839715272 ], [ 621921.763080018688925, 2915472.972008839715272 ], [ 621923.763080018688925, 2915472.972008839715272 ], [ 621923.763080018688925, 2915452.972008839715272 ], [ 621921.763080018688925, 2915452.972008839715272 ], [ 621921.763080018688925, 2915446.972008839715272 ], [ 621925.763080018688925, 2915446.972008839715272 ], [ 621925.763080018688925, 2915436.972008839715272 ], [ 621923.763080018688925, 2915436.972008839715272 ], [ 621923.763080018688925, 2915428.972008839715272 ], [ 621925.763080018688925, 2915428.972008839715272 ], [ 621925.763080018688925, 2915426.972008839715272 ], [ 621927.763080018688925, 2915426.972008839715272 ], [ 621927.763080018688925, 2915428.972008839715272 ], [ 621929.763080018688925, 2915428.972008839715272 ], [ 621929.763080018688925, 2915436.972008839715272 ], [ 621927.763080018688925, 2915436.972008839715272 ], [ 621927.763080018688925, 2915444.972008839715272 ], [ 621929.763080018688925, 2915444.972008839715272 ], [ 621929.763080018688925, 2915446.972008839715272 ], [ 621931.763080018688925, 2915446.972008839715272 ], [ 621931.763080018688925, 2915448.972008839715272 ], [ 621933.763080018688925, 2915448.972008839715272 ], [ 621933.763080018688925, 2915446.972008839715272 ], [ 621935.763080018688925, 2915446.972008839715272 ], [ 621935.763080018688925, 2915442.972008839715272 ], [ 621933.763080018688925, 2915442.972008839715272 ], [ 621933.763080018688925, 2915428.972008839715272 ], [ 621939.763080018688925, 2915428.972008839715272 ], [ 621939.763080018688925, 2915436.972008839715272 ], [ 621941.763080018688925, 2915436.972008839715272 ], [ 621941.763080018688925, 2915438.972008839715272 ], [ 621939.763080018688925, 2915438.972008839715272 ], [ 621939.763080018688925, 2915442.972008839715272 ], [ 621937.763080018688925, 2915442.972008839715272 ], [ 621937.763080018688925, 2915446.972008839715272 ], [ 621939.763080018688925, 2915446.972008839715272 ], [ 621939.763080018688925, 2915448.972008839715272 ], [ 621937.763080018688925, 2915448.972008839715272 ], [ 621937.763080018688925, 2915454.972008839715272 ], [ 621939.763080018688925, 2915454.972008839715272 ], [ 621939.763080018688925, 2915456.972008839715272 ], [ 621945.763080018688925, 2915456.972008839715272 ], [ 621945.763080018688925, 2915436.972008839715272 ], [ 621947.763080018688925, 2915436.972008839715272 ], [ 621947.763080018688925, 2915432.972008839715272 ], [ 621945.763080018688925, 2915432.972008839715272 ], [ 621945.763080018688925, 2915430.972008839715272 ], [ 621947.763080018688925, 2915430.972008839715272 ], [ 621947.763080018688925, 2915428.972008839715272 ], [ 621951.763080018688925, 2915428.972008839715272 ], [ 621951.763080018688925, 2915430.972008839715272 ], [ 621949.763080018688925, 2915430.972008839715272 ], [ 621949.763080018688925, 2915440.972008839715272 ], [ 621947.763080018688925, 2915440.972008839715272 ], [ 621947.763080018688925, 2915442.972008839715272 ], [ 621949.763080018688925, 2915442.972008839715272 ], [ 621949.763080018688925, 2915444.972008839715272 ], [ 621951.763080018688925, 2915444.972008839715272 ], [ 621951.763080018688925, 2915450.972008839715272 ], [ 621953.763080018688925, 2915450.972008839715272 ], [ 621953.763080018688925, 2915448.972008839715272 ], [ 621955.763080018688925, 2915448.972008839715272 ], [ 621955.763080018688925, 2915432.972008839715272 ], [ 621957.763080018688925, 2915432.972008839715272 ], [ 621957.763080018688925, 2915422.972008839715272 ], [ 621959.763080018688925, 2915422.972008839715272 ], [ 621959.763080018688925, 2915432.972008839715272 ], [ 621961.763080018688925, 2915432.972008839715272 ], [ 621961.763080018688925, 2915440.972008839715272 ], [ 621959.763080018688925, 2915440.972008839715272 ], [ 621959.763080018688925, 2915448.972008839715272 ], [ 621961.763080018688925, 2915448.972008839715272 ], [ 621961.763080018688925, 2915460.972008839715272 ], [ 621963.763080018688925, 2915460.972008839715272 ], [ 621963.763080018688925, 2915470.972008839715272 ], [ 621961.763080018688925, 2915470.972008839715272 ], [ 621961.763080018688925, 2915492.972008839715272 ], [ 621963.763080018688925, 2915492.972008839715272 ], [ 621963.763080018688925, 2915498.972008839715272 ], [ 621961.763080018688925, 2915498.972008839715272 ], [ 621961.763080018688925, 2915508.972008839715272 ], [ 621959.763080018688925, 2915508.972008839715272 ], [ 621959.763080018688925, 2915510.972008839715272 ], [ 621957.763080018688925, 2915510.972008839715272 ], [ 621957.763080018688925, 2915508.972008839715272 ], [ 621953.763080018688925, 2915508.972008839715272 ], [ 621953.763080018688925, 2915496.972008839715272 ], [ 621951.763080018688925, 2915496.972008839715272 ], [ 621951.763080018688925, 2915492.972008839715272 ], [ 621953.763080018688925, 2915492.972008839715272 ], [ 621953.763080018688925, 2915490.972008839715272 ], [ 621955.763080018688925, 2915490.972008839715272 ], [ 621955.763080018688925, 2915482.972008839715272 ], [ 621953.763080018688925, 2915482.972008839715272 ], [ 621953.763080018688925, 2915476.972008839715272 ], [ 621955.763080018688925, 2915476.972008839715272 ], [ 621955.763080018688925, 2915472.972008839715272 ], [ 621953.763080018688925, 2915472.972008839715272 ], [ 621953.763080018688925, 2915468.972008839715272 ], [ 621949.763080018688925, 2915468.972008839715272 ], [ 621949.763080018688925, 2915476.972008839715272 ], [ 621945.763080018688925, 2915476.972008839715272 ], [ 621945.763080018688925, 2915474.972008839715272 ], [ 621941.763080018688925, 2915474.972008839715272 ], [ 621941.763080018688925, 2915476.972008839715272 ], [ 621939.763080018688925, 2915476.972008839715272 ], [ 621939.763080018688925, 2915490.972008839715272 ], [ 621941.763080018688925, 2915490.972008839715272 ], [ 621941.763080018688925, 2915494.972008839715272 ], [ 621939.763080018688925, 2915494.972008839715272 ], [ 621939.763080018688925, 2915496.972008839715272 ], [ 621937.763080018688925, 2915496.972008839715272 ], [ 621937.763080018688925, 2915502.972008839715272 ], [ 621939.763080018688925, 2915502.972008839715272 ], [ 621939.763080018688925, 2915506.972008839715272 ], [ 621937.763080018688925, 2915506.972008839715272 ], [ 621937.763080018688925, 2915508.972008839715272 ], [ 621935.763080018688925, 2915508.972008839715272 ], [ 621935.763080018688925, 2915510.972008839715272 ], [ 621933.763080018688925, 2915510.972008839715272 ] ], [ [ 621927.763080018688925, 2915484.972008839715272 ], [ 621931.763080018688925, 2915484.972008839715272 ], [ 621931.763080018688925, 2915482.972008839715272 ], [ 621929.763080018688925, 2915482.972008839715272 ], [ 621929.763080018688925, 2915480.972008839715272 ], [ 621927.763080018688925, 2915480.972008839715272 ], [ 621927.763080018688925, 2915484.972008839715272 ] ], [ [ 621941.763080018688925, 2915472.972008839715272 ], [ 621943.763080018688925, 2915472.972008839715272 ], [ 621943.763080018688925, 2915468.972008839715272 ], [ 621939.763080018688925, 2915468.972008839715272 ], [ 621939.763080018688925, 2915470.972008839715272 ], [ 621941.763080018688925, 2915470.972008839715272 ], [ 621941.763080018688925, 2915472.972008839715272 ] ], [ [ 621929.763080018688925, 2915460.972008839715272 ], [ 621931.763080018688925, 2915460.972008839715272 ], [ 621931.763080018688925, 2915454.972008839715272 ], [ 621933.763080018688925, 2915454.972008839715272 ], [ 621933.763080018688925, 2915452.972008839715272 ], [ 621935.763080018688925, 2915452.972008839715272 ], [ 621935.763080018688925, 2915450.972008839715272 ], [ 621931.763080018688925, 2915450.972008839715272 ], [ 621931.763080018688925, 2915448.972008839715272 ], [ 621929.763080018688925, 2915448.972008839715272 ], [ 621929.763080018688925, 2915450.972008839715272 ], [ 621925.763080018688925, 2915450.972008839715272 ], [ 621925.763080018688925, 2915456.972008839715272 ], [ 621927.763080018688925, 2915456.972008839715272 ], [ 621927.763080018688925, 2915458.972008839715272 ], [ 621929.763080018688925, 2915458.972008839715272 ], [ 621929.763080018688925, 2915460.972008839715272 ] ] ] } },
{ "type": "Feature", "properties": { "label": "H2", "kind": "high", "area_m2": 1700.0, "mean_cm": 5.0, "peak_cm": 7.3, "where": "middle", "n_units": 0, "problem_share": null, "linked": false }, "geometry": { "type": "Polygon", "coordinates": [ [ [ 621869.763080018688925, 2915522.972008839715272 ], [ 621869.763080018688925, 2915516.972008839715272 ], [ 621867.763080018688925, 2915516.972008839715272 ], [ 621867.763080018688925, 2915510.972008839715272 ], [ 621865.763080018688925, 2915510.972008839715272 ], [ 621865.763080018688925, 2915508.972008839715272 ], [ 621861.763080018688925, 2915508.972008839715272 ], [ 621861.763080018688925, 2915510.972008839715272 ], [ 621859.763080018688925, 2915510.972008839715272 ], [ 621859.763080018688925, 2915508.972008839715272 ], [ 621857.763080018688925, 2915508.972008839715272 ], [ 621857.763080018688925, 2915506.972008839715272 ], [ 621855.763080018688925, 2915506.972008839715272 ], [ 621855.763080018688925, 2915504.972008839715272 ], [ 621857.763080018688925, 2915504.972008839715272 ], [ 621857.763080018688925, 2915502.972008839715272 ], [ 621861.763080018688925, 2915502.972008839715272 ], [ 621861.763080018688925, 2915504.972008839715272 ], [ 621863.763080018688925, 2915504.972008839715272 ], [ 621863.763080018688925, 2915502.972008839715272 ], [ 621865.763080018688925, 2915502.972008839715272 ], [ 621865.763080018688925, 2915496.972008839715272 ], [ 621857.763080018688925, 2915496.972008839715272 ], [ 621857.763080018688925, 2915494.972008839715272 ], [ 621855.763080018688925, 2915494.972008839715272 ], [ 621855.763080018688925, 2915492.972008839715272 ], [ 621867.763080018688925, 2915492.972008839715272 ], [ 621867.763080018688925, 2915480.972008839715272 ], [ 621863.763080018688925, 2915480.972008839715272 ], [ 621863.763080018688925, 2915482.972008839715272 ], [ 621861.763080018688925, 2915482.972008839715272 ], [ 621861.763080018688925, 2915480.972008839715272 ], [ 621857.763080018688925, 2915480.972008839715272 ], [ 621857.763080018688925, 2915474.972008839715272 ], [ 621859.763080018688925, 2915474.972008839715272 ], [ 621859.763080018688925, 2915472.972008839715272 ], [ 621861.763080018688925, 2915472.972008839715272 ], [ 621861.763080018688925, 2915470.972008839715272 ], [ 621863.763080018688925, 2915470.972008839715272 ], [ 621863.763080018688925, 2915468.972008839715272 ], [ 621861.763080018688925, 2915468.972008839715272 ], [ 621861.763080018688925, 2915466.972008839715272 ], [ 621857.763080018688925, 2915466.972008839715272 ], [ 621857.763080018688925, 2915462.972008839715272 ], [ 621865.763080018688925, 2915462.972008839715272 ], [ 621865.763080018688925, 2915458.972008839715272 ], [ 621857.763080018688925, 2915458.972008839715272 ], [ 621857.763080018688925, 2915452.972008839715272 ], [ 621859.763080018688925, 2915452.972008839715272 ], [ 621859.763080018688925, 2915434.972008839715272 ], [ 621863.763080018688925, 2915434.972008839715272 ], [ 621863.763080018688925, 2915436.972008839715272 ], [ 621865.763080018688925, 2915436.972008839715272 ], [ 621865.763080018688925, 2915434.972008839715272 ], [ 621867.763080018688925, 2915434.972008839715272 ], [ 621867.763080018688925, 2915430.972008839715272 ], [ 621863.763080018688925, 2915430.972008839715272 ], [ 621863.763080018688925, 2915432.972008839715272 ], [ 621861.763080018688925, 2915432.972008839715272 ], [ 621861.763080018688925, 2915430.972008839715272 ], [ 621859.763080018688925, 2915430.972008839715272 ], [ 621859.763080018688925, 2915428.972008839715272 ], [ 621857.763080018688925, 2915428.972008839715272 ], [ 621857.763080018688925, 2915426.972008839715272 ], [ 621859.763080018688925, 2915426.972008839715272 ], [ 621859.763080018688925, 2915424.972008839715272 ], [ 621865.763080018688925, 2915424.972008839715272 ], [ 621865.763080018688925, 2915422.972008839715272 ], [ 621867.763080018688925, 2915422.972008839715272 ], [ 621867.763080018688925, 2915420.972008839715272 ], [ 621865.763080018688925, 2915420.972008839715272 ], [ 621865.763080018688925, 2915416.972008839715272 ], [ 621869.763080018688925, 2915416.972008839715272 ], [ 621869.763080018688925, 2915414.972008839715272 ], [ 621871.763080018688925, 2915414.972008839715272 ], [ 621871.763080018688925, 2915410.972008839715272 ], [ 621867.763080018688925, 2915410.972008839715272 ], [ 621867.763080018688925, 2915408.972008839715272 ], [ 621865.763080018688925, 2915408.972008839715272 ], [ 621865.763080018688925, 2915410.972008839715272 ], [ 621859.763080018688925, 2915410.972008839715272 ], [ 621859.763080018688925, 2915404.972008839715272 ], [ 621869.763080018688925, 2915404.972008839715272 ], [ 621869.763080018688925, 2915400.972008839715272 ], [ 621867.763080018688925, 2915400.972008839715272 ], [ 621867.763080018688925, 2915394.972008839715272 ], [ 621869.763080018688925, 2915394.972008839715272 ], [ 621869.763080018688925, 2915392.972008839715272 ], [ 621873.763080018688925, 2915392.972008839715272 ], [ 621873.763080018688925, 2915416.972008839715272 ], [ 621875.763080018688925, 2915416.972008839715272 ], [ 621875.763080018688925, 2915420.972008839715272 ], [ 621877.763080018688925, 2915420.972008839715272 ], [ 621877.763080018688925, 2915422.972008839715272 ], [ 621881.763080018688925, 2915422.972008839715272 ], [ 621881.763080018688925, 2915430.972008839715272 ], [ 621879.763080018688925, 2915430.972008839715272 ], [ 621879.763080018688925, 2915434.972008839715272 ], [ 621881.763080018688925, 2915434.972008839715272 ], [ 621881.763080018688925, 2915442.972008839715272 ], [ 621883.763080018688925, 2915442.972008839715272 ], [ 621883.763080018688925, 2915456.972008839715272 ], [ 621881.763080018688925, 2915456.972008839715272 ], [ 621881.763080018688925, 2915458.972008839715272 ], [ 621879.763080018688925, 2915458.972008839715272 ], [ 621879.763080018688925, 2915460.972008839715272 ], [ 621877.763080018688925, 2915460.972008839715272 ], [ 621877.763080018688925, 2915458.972008839715272 ], [ 621875.763080018688925, 2915458.972008839715272 ], [ 621875.763080018688925, 2915464.972008839715272 ], [ 621877.763080018688925, 2915464.972008839715272 ], [ 621877.763080018688925, 2915466.972008839715272 ], [ 621879.763080018688925, 2915466.972008839715272 ], [ 621879.763080018688925, 2915476.972008839715272 ], [ 621875.763080018688925, 2915476.972008839715272 ], [ 621875.763080018688925, 2915478.972008839715272 ], [ 621873.763080018688925, 2915478.972008839715272 ], [ 621873.763080018688925, 2915480.972008839715272 ], [ 621871.763080018688925, 2915480.972008839715272 ], [ 621871.763080018688925, 2915484.972008839715272 ], [ 621873.763080018688925, 2915484.972008839715272 ], [ 621873.763080018688925, 2915494.972008839715272 ], [ 621875.763080018688925, 2915494.972008839715272 ], [ 621875.763080018688925, 2915496.972008839715272 ], [ 621873.763080018688925, 2915496.972008839715272 ], [ 621873.763080018688925, 2915510.972008839715272 ], [ 621871.763080018688925, 2915510.972008839715272 ], [ 621871.763080018688925, 2915522.972008839715272 ], [ 621869.763080018688925, 2915522.972008839715272 ] ], [ [ 621863.763080018688925, 2915452.972008839715272 ], [ 621867.763080018688925, 2915452.972008839715272 ], [ 621867.763080018688925, 2915448.972008839715272 ], [ 621863.763080018688925, 2915448.972008839715272 ], [ 621863.763080018688925, 2915452.972008839715272 ] ] ] } },
{ "type": "Feature", "properties": { "label": "H3", "kind": "high", "area_m2": 1032.0, "mean_cm": 5.3, "peak_cm": 7.6, "where": "south side", "n_units": 0, "problem_share": null, "linked": false }, "geometry": { "type": "Polygon", "coordinates": [ [ [ 621863.763080018688925, 2915180.972008839715272 ], [ 621863.763080018688925, 2915166.972008839715272 ], [ 621865.763080018688925, 2915166.972008839715272 ], [ 621865.763080018688925, 2915164.972008839715272 ], [ 621867.763080018688925, 2915164.972008839715272 ], [ 621867.763080018688925, 2915160.972008839715272 ], [ 621865.763080018688925, 2915160.972008839715272 ], [ 621865.763080018688925, 2915158.972008839715272 ], [ 621863.763080018688925, 2915158.972008839715272 ], [ 621863.763080018688925, 2915156.972008839715272 ], [ 621861.763080018688925, 2915156.972008839715272 ], [ 621861.763080018688925, 2915152.972008839715272 ], [ 621863.763080018688925, 2915152.972008839715272 ], [ 621863.763080018688925, 2915150.972008839715272 ], [ 621867.763080018688925, 2915150.972008839715272 ], [ 621867.763080018688925, 2915152.972008839715272 ], [ 621871.763080018688925, 2915152.972008839715272 ], [ 621871.763080018688925, 2915144.972008839715272 ], [ 621869.763080018688925, 2915144.972008839715272 ], [ 621869.763080018688925, 2915142.972008839715272 ], [ 621867.763080018688925, 2915142.972008839715272 ], [ 621867.763080018688925, 2915144.972008839715272 ], [ 621865.763080018688925, 2915144.972008839715272 ], [ 621865.763080018688925, 2915142.972008839715272 ], [ 621863.763080018688925, 2915142.972008839715272 ], [ 621863.763080018688925, 2915140.972008839715272 ], [ 621861.763080018688925, 2915140.972008839715272 ], [ 621861.763080018688925, 2915134.972008839715272 ], [ 621863.763080018688925, 2915134.972008839715272 ], [ 621863.763080018688925, 2915130.972008839715272 ], [ 621865.763080018688925, 2915130.972008839715272 ], [ 621865.763080018688925, 2915128.972008839715272 ], [ 621863.763080018688925, 2915128.972008839715272 ], [ 621863.763080018688925, 2915124.972008839715272 ], [ 621861.763080018688925, 2915124.972008839715272 ], [ 621861.763080018688925, 2915122.972008839715272 ], [ 621859.763080018688925, 2915122.972008839715272 ], [ 621859.763080018688925, 2915120.972008839715272 ], [ 621853.763080018688925, 2915120.972008839715272 ], [ 621853.763080018688925, 2915118.972008839715272 ], [ 621855.763080018688925, 2915118.972008839715272 ], [ 621855.763080018688925, 2915112.972008839715272 ], [ 621863.763080018688925, 2915112.972008839715272 ], [ 621863.763080018688925, 2915110.972008839715272 ], [ 621889.763080018688925, 2915110.972008839715272 ], [ 621889.763080018688925, 2915112.972008839715272 ], [ 621887.763080018688925, 2915112.972008839715272 ], [ 621887.763080018688925, 2915122.972008839715272 ], [ 621885.763080018688925, 2915122.972008839715272 ], [ 621885.763080018688925, 2915124.972008839715272 ], [ 621883.763080018688925, 2915124.972008839715272 ], [ 621883.763080018688925, 2915122.972008839715272 ], [ 621881.763080018688925, 2915122.972008839715272 ], [ 621881.763080018688925, 2915124.972008839715272 ], [ 621879.763080018688925, 2915124.972008839715272 ], [ 621879.763080018688925, 2915128.972008839715272 ], [ 621877.763080018688925, 2915128.972008839715272 ], [ 621877.763080018688925, 2915132.972008839715272 ], [ 621879.763080018688925, 2915132.972008839715272 ], [ 621879.763080018688925, 2915150.972008839715272 ], [ 621877.763080018688925, 2915150.972008839715272 ], [ 621877.763080018688925, 2915166.972008839715272 ], [ 621871.763080018688925, 2915166.972008839715272 ], [ 621871.763080018688925, 2915164.972008839715272 ], [ 621869.763080018688925, 2915164.972008839715272 ], [ 621869.763080018688925, 2915170.972008839715272 ], [ 621867.763080018688925, 2915170.972008839715272 ], [ 621867.763080018688925, 2915180.972008839715272 ], [ 621863.763080018688925, 2915180.972008839715272 ] ] ] } },
{ "type": "Feature", "properties": { "label": "L1", "kind": "low", "area_m2": 2360.0, "mean_cm": -5.0, "peak_cm": -7.8, "where": "north-west corner", "n_units": 0, "problem_share": null, "linked": false }, "geometry": { "type": "Polygon", "coordinates": [ [ [ 621781.763080018688925, 2915744.972008839715272 ], [ 621781.763080018688925, 2915742.972008839715272 ], [ 621775.763080018688925, 2915742.972008839715272 ], [ 621775.763080018688925, 2915740.972008839715272 ], [ 621771.763080018688925, 2915740.972008839715272 ], [ 621771.763080018688925, 2915738.972008839715272 ], [ 621767.763080018688925, 2915738.972008839715272 ], [ 621767.763080018688925, 2915734.972008839715272 ], [ 621769.763080018688925, 2915734.972008839715272 ], [ 621769.763080018688925, 2915732.972008839715272 ], [ 621765.763080018688925, 2915732.972008839715272 ], [ 621765.763080018688925, 2915736.972008839715272 ], [ 621761.763080018688925, 2915736.972008839715272 ], [ 621761.763080018688925, 2915734.972008839715272 ], [ 621757.763080018688925, 2915734.972008839715272 ], [ 621757.763080018688925, 2915732.972008839715272 ], [ 621753.763080018688925, 2915732.972008839715272 ], [ 621753.763080018688925, 2915730.972008839715272 ], [ 621747.763080018688925, 2915730.972008839715272 ], [ 621747.763080018688925, 2915728.972008839715272 ], [ 621743.763080018688925, 2915728.972008839715272 ], [ 621743.763080018688925, 2915726.972008839715272 ], [ 621739.763080018688925, 2915726.972008839715272 ], [ 621739.763080018688925, 2915724.972008839715272 ], [ 621737.763080018688925, 2915724.972008839715272 ], [ 621737.763080018688925, 2915710.972008839715272 ], [ 621739.763080018688925, 2915710.972008839715272 ], [ 621739.763080018688925, 2915708.972008839715272 ], [ 621741.763080018688925, 2915708.972008839715272 ], [ 621741.763080018688925, 2915706.972008839715272 ], [ 621747.763080018688925, 2915706.972008839715272 ], [ 621747.763080018688925, 2915704.972008839715272 ], [ 621745.763080018688925, 2915704.972008839715272 ], [ 621745.763080018688925, 2915694.972008839715272 ], [ 621747.763080018688925, 2915694.972008839715272 ], [ 621747.763080018688925, 2915692.972008839715272 ], [ 621749.763080018688925, 2915692.972008839715272 ], [ 621749.763080018688925, 2915690.972008839715272 ], [ 621751.763080018688925, 2915690.972008839715272 ], [ 621751.763080018688925, 2915692.972008839715272 ], [ 621753.763080018688925, 2915692.972008839715272 ], [ 621753.763080018688925, 2915694.972008839715272 ], [ 621755.763080018688925, 2915694.972008839715272 ], [ 621755.763080018688925, 2915696.972008839715272 ], [ 621757.763080018688925, 2915696.972008839715272 ], [ 621757.763080018688925, 2915694.972008839715272 ], [ 621761.763080018688925, 2915694.972008839715272 ], [ 621761.763080018688925, 2915686.972008839715272 ], [ 621763.763080018688925, 2915686.972008839715272 ], [ 621763.763080018688925, 2915684.972008839715272 ], [ 621765.763080018688925, 2915684.972008839715272 ], [ 621765.763080018688925, 2915690.972008839715272 ], [ 621763.763080018688925, 2915690.972008839715272 ], [ 621763.763080018688925, 2915692.972008839715272 ], [ 621765.763080018688925, 2915692.972008839715272 ], [ 621765.763080018688925, 2915694.972008839715272 ], [ 621771.763080018688925, 2915694.972008839715272 ], [ 621771.763080018688925, 2915692.972008839715272 ], [ 621775.763080018688925, 2915692.972008839715272 ], [ 621775.763080018688925, 2915698.972008839715272 ], [ 621777.763080018688925, 2915698.972008839715272 ], [ 621777.763080018688925, 2915702.972008839715272 ], [ 621779.763080018688925, 2915702.972008839715272 ], [ 621779.763080018688925, 2915696.972008839715272 ], [ 621781.763080018688925, 2915696.972008839715272 ], [ 621781.763080018688925, 2915694.972008839715272 ], [ 621783.763080018688925, 2915694.972008839715272 ], [ 621783.763080018688925, 2915688.972008839715272 ], [ 621781.763080018688925, 2915688.972008839715272 ], [ 621781.763080018688925, 2915686.972008839715272 ], [ 621779.763080018688925, 2915686.972008839715272 ], [ 621779.763080018688925, 2915684.972008839715272 ], [ 621773.763080018688925, 2915684.972008839715272 ], [ 621773.763080018688925, 2915678.972008839715272 ], [ 621775.763080018688925, 2915678.972008839715272 ], [ 621775.763080018688925, 2915680.972008839715272 ], [ 621777.763080018688925, 2915680.972008839715272 ], [ 621777.763080018688925, 2915682.972008839715272 ], [ 621779.763080018688925, 2915682.972008839715272 ], [ 621779.763080018688925, 2915678.972008839715272 ], [ 621781.763080018688925, 2915678.972008839715272 ], [ 621781.763080018688925, 2915672.972008839715272 ], [ 621783.763080018688925, 2915672.972008839715272 ], [ 621783.763080018688925, 2915662.972008839715272 ], [ 621785.763080018688925, 2915662.972008839715272 ], [ 621785.763080018688925, 2915664.972008839715272 ], [ 621787.763080018688925, 2915664.972008839715272 ], [ 621787.763080018688925, 2915674.972008839715272 ], [ 621789.763080018688925, 2915674.972008839715272 ], [ 621789.763080018688925, 2915678.972008839715272 ], [ 621791.763080018688925, 2915678.972008839715272 ], [ 621791.763080018688925, 2915676.972008839715272 ], [ 621793.763080018688925, 2915676.972008839715272 ], [ 621793.763080018688925, 2915674.972008839715272 ], [ 621795.763080018688925, 2915674.972008839715272 ], [ 621795.763080018688925, 2915676.972008839715272 ], [ 621797.763080018688925, 2915676.972008839715272 ], [ 621797.763080018688925, 2915688.972008839715272 ], [ 621799.763080018688925, 2915688.972008839715272 ], [ 621799.763080018688925, 2915696.972008839715272 ], [ 621797.763080018688925, 2915696.972008839715272 ], [ 621797.763080018688925, 2915716.972008839715272 ], [ 621795.763080018688925, 2915716.972008839715272 ], [ 621795.763080018688925, 2915720.972008839715272 ], [ 621793.763080018688925, 2915720.972008839715272 ], [ 621793.763080018688925, 2915718.972008839715272 ], [ 621791.763080018688925, 2915718.972008839715272 ], [ 621791.763080018688925, 2915716.972008839715272 ], [ 621789.763080018688925, 2915716.972008839715272 ], [ 621789.763080018688925, 2915726.972008839715272 ], [ 621787.763080018688925, 2915726.972008839715272 ], [ 621787.763080018688925, 2915732.972008839715272 ], [ 621785.763080018688925, 2915732.972008839715272 ], [ 621785.763080018688925, 2915744.972008839715272 ], [ 621781.763080018688925, 2915744.972008839715272 ] ], [ [ 621777.763080018688925, 2915730.972008839715272 ], [ 621779.763080018688925, 2915730.972008839715272 ], [ 621779.763080018688925, 2915728.972008839715272 ], [ 621781.763080018688925, 2915728.972008839715272 ], [ 621781.763080018688925, 2915720.972008839715272 ], [ 621779.763080018688925, 2915720.972008839715272 ], [ 621779.763080018688925, 2915710.972008839715272 ], [ 621775.763080018688925, 2915710.972008839715272 ], [ 621775.763080018688925, 2915722.972008839715272 ], [ 621777.763080018688925, 2915722.972008839715272 ], [ 621777.763080018688925, 2915730.972008839715272 ] ], [ [ 621763.763080018688925, 2915714.972008839715272 ], [ 621769.763080018688925, 2915714.972008839715272 ], [ 621769.763080018688925, 2915706.972008839715272 ], [ 621767.763080018688925, 2915706.972008839715272 ], [ 621767.763080018688925, 2915702.972008839715272 ], [ 621765.763080018688925, 2915702.972008839715272 ], [ 621765.763080018688925, 2915706.972008839715272 ], [ 621763.763080018688925, 2915706.972008839715272 ], [ 621763.763080018688925, 2915714.972008839715272 ] ], [ [ 621755.763080018688925, 2915710.972008839715272 ], [ 621757.763080018688925, 2915710.972008839715272 ], [ 621757.763080018688925, 2915704.972008839715272 ], [ 621753.763080018688925, 2915704.972008839715272 ], [ 621753.763080018688925, 2915708.972008839715272 ], [ 621755.763080018688925, 2915708.972008839715272 ], [ 621755.763080018688925, 2915710.972008839715272 ] ], [ [ 621789.763080018688925, 2915700.972008839715272 ], [ 621791.763080018688925, 2915700.972008839715272 ], [ 621791.763080018688925, 2915690.972008839715272 ], [ 621793.763080018688925, 2915690.972008839715272 ], [ 621793.763080018688925, 2915684.972008839715272 ], [ 621791.763080018688925, 2915684.972008839715272 ], [ 621791.763080018688925, 2915682.972008839715272 ], [ 621789.763080018688925, 2915682.972008839715272 ], [ 621789.763080018688925, 2915684.972008839715272 ], [ 621787.763080018688925, 2915684.972008839715272 ], [ 621787.763080018688925, 2915690.972008839715272 ], [ 621789.763080018688925, 2915690.972008839715272 ], [ 621789.763080018688925, 2915700.972008839715272 ] ] ] } }
]
}
